<?xml version="1.0" encoding="UTF-8"?>
<gpx
version="1.1"
creator="OpenTracks"
xmlns="http://www.topografix.com/GPX/1/1"
xmlns:topografix="http://www.topografix.com/GPX/Private/TopoGrafix/0/1"
xmlns:xsi="http://www.w3.org/2001/XMLSchema-instance"
xmlns:opentracks="http://opentracksapp.com/xmlschemas/v1"
xmlns:gpxtpx="http://www.garmin.com/xmlschemas/TrackPointExtension/v2"
xmlns:gpxtrkx="http://www.garmin.com/xmlschemas/TrackStatsExtension/v1"
xmlns:cluetrust="http://www.cluetrust.com/Schemas/"
xmlns:pwr="http://www.garmin.com/xmlschemas/PowerExtension/v1"
xsi:schemaLocation="http://www.topografix.com/GPX/1/1 http://www.topografix.com/GPX/1/1/gpx.xsd http://www.topografix.com/GPX/Private/TopoGrafix/0/1 http://www.topografix.com/GPX/Private/TopoGrafix/0/1/topografix.xsd http://www.garmin.com/xmlschemas/TrackPointExtension/v2 https://www8.garmin.com/xmlschemas/TrackPointExtensionv2.xsd http://www.garmin.com/xmlschemas/PowerExtension/v1 https://www8.garmin.com/xmlschemas/PowerExtensionv1.xsd http://www.garmin.com/xmlschemas/TrackStatsExtension/v1 https://www8.garmin.com/xmlschemas/TrackStatsExtension.xsd http://www.cluetrust.com/Schemas https://www.cluetrust.com/Schemas/gpxdata10.xsd http://opentracksapp.com/xmlschemas/v1 http://opentracksapp.com/xmlschemas/OpenTracks_v1.xsd">
<trk>
<name><![CDATA[2026-06-24T09:14+08]]></name>
<desc><![CDATA[]]></desc>
<type><![CDATA[cycling]]></type>
<extensions>
<topografix:color>c0c0c0</topografix:color>
<opentracks:trackid>546f54b8-78d7-44ca-b166-5aa8408829e3</opentracks:trackid>
<opentracks:typeTranslated><![CDATA[cycling]]></opentracks:typeTranslated>
<gpxtrkx:TrackStatsExtension>
<gpxtrkx:Distance>2948.119384765625</gpxtrkx:Distance>
<gpxtrkx:TimerTime>3815</gpxtrkx:TimerTime>
<gpxtrkx:MovingTime>2107</gpxtrkx:MovingTime>
<gpxtrkx:StoppedTime>1707</gpxtrkx:StoppedTime>
<gpxtrkx:MaxSpeed>1.6005299091339111</gpxtrkx:MaxSpeed>
</gpxtrkx:TrackStatsExtension>
</extensions>
<trkseg>
<trkpt lat="-32.233189" lon="115.802932">
<ele>-37.5</ele>
<time>2026-06-24T09:14:14.577+08:00</time>
<extensions>
<gpxtpx:TrackPointExtension>
<gpxtpx:speed>0</gpxtpx:speed>
</gpxtpx:TrackPointExtension>
<opentracks:accuracy_horizontal>12.357</opentracks:accuracy_horizontal></extensions>
</trkpt>
<trkpt lat="-32.233211" lon="115.80307">
<ele>-28</ele>
<time>2026-06-24T09:14:17.59+08:00</time>
<extensions>
<gpxtpx:TrackPointExtension>
<gpxtpx:speed>0</gpxtpx:speed>
</gpxtpx:TrackPointExtension>
<opentracks:accuracy_horizontal>10.607</opentracks:accuracy_horizontal></extensions>
</trkpt>
<trkpt lat="-32.233231" lon="115.803093">
<ele>-15.5</ele>
<time>2026-06-24T09:14:26.597+08:00</time>
<extensions>
<gpxtpx:TrackPointExtension>
<gpxtpx:speed>0.9</gpxtpx:speed>
</gpxtpx:TrackPointExtension>
<opentracks:accuracy_horizontal>2.486</opentracks:accuracy_horizontal></extensions>
</trkpt>
<trkpt lat="-32.233317" lon="115.803141">
<ele>-14.2</ele>
<time>2026-06-24T09:14:35.589+08:00</time>
<extensions>
<gpxtpx:TrackPointExtension>
<gpxtpx:speed>1.02</gpxtpx:speed>
</gpxtpx:TrackPointExtension>
<opentracks:accuracy_horizontal>2.185</opentracks:accuracy_horizontal></extensions>
</trkpt>
<trkpt lat="-32.233391" lon="115.80314">
<ele>-14.7</ele>
<time>2026-06-24T09:14:44.589+08:00</time>
<extensions>
<gpxtpx:TrackPointExtension>
<gpxtpx:speed>1.14</gpxtpx:speed>
</gpxtpx:TrackPointExtension>
<opentracks:accuracy_horizontal>2.415</opentracks:accuracy_horizontal></extensions>
</trkpt>
<trkpt lat="-32.233484" lon="115.803124">
<ele>-14</ele>
<time>2026-06-24T09:14:51.602+08:00</time>
<extensions>
<gpxtpx:TrackPointExtension>
<gpxtpx:speed>1.39</gpxtpx:speed>
</gpxtpx:TrackPointExtension>
<opentracks:accuracy_horizontal>3.239</opentracks:accuracy_horizontal></extensions>
</trkpt>
<trkpt lat="-32.233578" lon="115.803118">
<ele>-14.2</ele>
<time>2026-06-24T09:14:58.603+08:00</time>
<extensions>
<gpxtpx:TrackPointExtension>
<gpxtpx:speed>1.43</gpxtpx:speed>
</gpxtpx:TrackPointExtension>
<opentracks:accuracy_horizontal>3.447</opentracks:accuracy_horizontal></extensions>
</trkpt>
<trkpt lat="-32.233674" lon="115.80311">
<ele>-15</ele>
<time>2026-06-24T09:15:06.598+08:00</time>
<extensions>
<gpxtpx:TrackPointExtension>
<gpxtpx:speed>1.36</gpxtpx:speed>
</gpxtpx:TrackPointExtension>
<opentracks:accuracy_horizontal>3.805</opentracks:accuracy_horizontal></extensions>
</trkpt>
<trkpt lat="-32.233769" lon="115.803107">
<ele>-14.7</ele>
<time>2026-06-24T09:15:14.594+08:00</time>
<extensions>
<gpxtpx:TrackPointExtension>
<gpxtpx:speed>1.34</gpxtpx:speed>
</gpxtpx:TrackPointExtension>
<opentracks:accuracy_horizontal>3.763</opentracks:accuracy_horizontal></extensions>
</trkpt>
<trkpt lat="-32.233865" lon="115.803114">
<ele>-14.1</ele>
<time>2026-06-24T09:15:21.588+08:00</time>
<extensions>
<gpxtpx:TrackPointExtension>
<gpxtpx:speed>1.41</gpxtpx:speed>
</gpxtpx:TrackPointExtension>
<opentracks:accuracy_horizontal>3.19</opentracks:accuracy_horizontal></extensions>
</trkpt>
<trkpt lat="-32.233913" lon="115.80302">
<ele>-15.9</ele>
<time>2026-06-24T09:15:29.6+08:00</time>
<extensions>
<gpxtpx:TrackPointExtension>
<gpxtpx:speed>1.41</gpxtpx:speed>
</gpxtpx:TrackPointExtension>
<opentracks:accuracy_horizontal>3.033</opentracks:accuracy_horizontal></extensions>
</trkpt>
<trkpt lat="-32.233901" lon="115.802909">
<ele>-18</ele>
<time>2026-06-24T09:15:37.597+08:00</time>
<extensions>
<gpxtpx:TrackPointExtension>
<gpxtpx:speed>1.32</gpxtpx:speed>
</gpxtpx:TrackPointExtension>
<opentracks:accuracy_horizontal>3.28</opentracks:accuracy_horizontal></extensions>
</trkpt>
<trkpt lat="-32.2339" lon="115.802833">
<ele>-18.2</ele>
<time>2026-06-24T09:15:47.597+08:00</time>
<extensions>
<gpxtpx:TrackPointExtension>
<gpxtpx:speed>0.14</gpxtpx:speed>
</gpxtpx:TrackPointExtension>
<opentracks:accuracy_horizontal>2.938</opentracks:accuracy_horizontal></extensions>
</trkpt>
<trkpt lat="-32.233889" lon="115.802715">
<ele>-20.4</ele>
<time>2026-06-24T09:15:58.598+08:00</time>
<extensions>
<gpxtpx:TrackPointExtension>
<gpxtpx:speed>1.15</gpxtpx:speed>
</gpxtpx:TrackPointExtension>
<opentracks:accuracy_horizontal>4.043</opentracks:accuracy_horizontal></extensions>
</trkpt>
<trkpt lat="-32.233892" lon="115.802602">
<ele>-20.7</ele>
<time>2026-06-24T09:16:07.592+08:00</time>
<extensions>
<gpxtpx:TrackPointExtension>
<gpxtpx:speed>1.16</gpxtpx:speed>
</gpxtpx:TrackPointExtension>
<opentracks:accuracy_horizontal>3.777</opentracks:accuracy_horizontal></extensions>
</trkpt>
<trkpt lat="-32.233893" lon="115.802513">
<ele>-21.3</ele>
<time>2026-06-24T09:16:17.596+08:00</time>
<extensions>
<gpxtpx:TrackPointExtension>
<gpxtpx:speed>0.96</gpxtpx:speed>
</gpxtpx:TrackPointExtension>
<opentracks:accuracy_horizontal>3.773</opentracks:accuracy_horizontal></extensions>
</trkpt>
<trkpt lat="-32.233901" lon="115.802401">
<ele>-22.8</ele>
<time>2026-06-24T09:16:26.591+08:00</time>
<extensions>
<gpxtpx:TrackPointExtension>
<gpxtpx:speed>1.09</gpxtpx:speed>
</gpxtpx:TrackPointExtension>
<opentracks:accuracy_horizontal>3.937</opentracks:accuracy_horizontal></extensions>
</trkpt>
<trkpt lat="-32.233901" lon="115.802289">
<ele>-22.9</ele>
<time>2026-06-24T09:16:33.608+08:00</time>
<extensions>
<gpxtpx:TrackPointExtension>
<gpxtpx:speed>1.26</gpxtpx:speed>
</gpxtpx:TrackPointExtension>
<opentracks:accuracy_horizontal>3.914</opentracks:accuracy_horizontal></extensions>
</trkpt>
<trkpt lat="-32.233896" lon="115.80218">
<ele>-22.5</ele>
<time>2026-06-24T09:16:42.596+08:00</time>
<extensions>
<gpxtpx:TrackPointExtension>
<gpxtpx:speed>1.19</gpxtpx:speed>
</gpxtpx:TrackPointExtension>
<opentracks:accuracy_horizontal>3.351</opentracks:accuracy_horizontal></extensions>
</trkpt>
<trkpt lat="-32.233895" lon="115.802066">
<ele>-24.1</ele>
<time>2026-06-24T09:16:50.596+08:00</time>
<extensions>
<gpxtpx:TrackPointExtension>
<gpxtpx:speed>1.23</gpxtpx:speed>
</gpxtpx:TrackPointExtension>
<opentracks:accuracy_horizontal>3.316</opentracks:accuracy_horizontal></extensions>
</trkpt>
<trkpt lat="-32.233868" lon="115.801959">
<ele>-24.9</ele>
<time>2026-06-24T09:16:58.591+08:00</time>
<extensions>
<gpxtpx:TrackPointExtension>
<gpxtpx:speed>1.26</gpxtpx:speed>
</gpxtpx:TrackPointExtension>
<opentracks:accuracy_horizontal>2.965</opentracks:accuracy_horizontal></extensions>
</trkpt>
<trkpt lat="-32.233803" lon="115.801872">
<ele>-25.1</ele>
<time>2026-06-24T09:17:06.588+08:00</time>
<extensions>
<gpxtpx:TrackPointExtension>
<gpxtpx:speed>1.3</gpxtpx:speed>
</gpxtpx:TrackPointExtension>
<opentracks:accuracy_horizontal>3.156</opentracks:accuracy_horizontal></extensions>
</trkpt>
<trkpt lat="-32.233747" lon="115.80178">
<ele>-25.2</ele>
<time>2026-06-24T09:17:14.617+08:00</time>
<extensions>
<gpxtpx:TrackPointExtension>
<gpxtpx:speed>1.31</gpxtpx:speed>
</gpxtpx:TrackPointExtension>
<opentracks:accuracy_horizontal>3.198</opentracks:accuracy_horizontal></extensions>
</trkpt>
<trkpt lat="-32.233751" lon="115.801738">
<ele>-26</ele>
<time>2026-06-24T09:17:24.596+08:00</time>
<extensions>
<gpxtpx:TrackPointExtension>
<gpxtpx:speed>0.15</gpxtpx:speed>
</gpxtpx:TrackPointExtension>
<opentracks:accuracy_horizontal>3.041</opentracks:accuracy_horizontal></extensions>
</trkpt>
<trkpt lat="-32.233761" lon="115.801627">
<ele>-26.7</ele>
<time>2026-06-24T09:17:38.591+08:00</time>
<extensions>
<gpxtpx:TrackPointExtension>
<gpxtpx:speed>1.44</gpxtpx:speed>
</gpxtpx:TrackPointExtension>
<opentracks:accuracy_horizontal>3.553</opentracks:accuracy_horizontal></extensions>
</trkpt>
<trkpt lat="-32.233764" lon="115.80151">
<ele>-27.1</ele>
<time>2026-06-24T09:17:47.603+08:00</time>
<extensions>
<gpxtpx:TrackPointExtension>
<gpxtpx:speed>1.25</gpxtpx:speed>
</gpxtpx:TrackPointExtension>
<opentracks:accuracy_horizontal>3.562</opentracks:accuracy_horizontal></extensions>
</trkpt>
<trkpt lat="-32.233783" lon="115.801395">
<ele>-27</ele>
<time>2026-06-24T09:17:56.595+08:00</time>
<extensions>
<gpxtpx:TrackPointExtension>
<gpxtpx:speed>1.2</gpxtpx:speed>
</gpxtpx:TrackPointExtension>
<opentracks:accuracy_horizontal>3.381</opentracks:accuracy_horizontal></extensions>
</trkpt>
<trkpt lat="-32.233779" lon="115.801381">
<ele>-26.4</ele>
<time>2026-06-24T09:18:06.59+08:00</time>
<extensions>
<gpxtpx:TrackPointExtension>
<gpxtpx:speed>0.01</gpxtpx:speed>
</gpxtpx:TrackPointExtension>
<opentracks:accuracy_horizontal>2.246</opentracks:accuracy_horizontal></extensions>
</trkpt>
<trkpt lat="-32.233782" lon="115.801271">
<ele>-28.9</ele>
<time>2026-06-24T09:18:54.564+08:00</time>
<extensions>
<gpxtpx:TrackPointExtension>
<gpxtpx:speed>1.14</gpxtpx:speed>
</gpxtpx:TrackPointExtension>
<opentracks:accuracy_horizontal>3.184</opentracks:accuracy_horizontal></extensions>
</trkpt>
<trkpt lat="-32.233829" lon="115.801171">
<ele>-28.3</ele>
<time>2026-06-24T09:19:00.571+08:00</time>
<extensions>
<gpxtpx:TrackPointExtension>
<gpxtpx:speed>1.6</gpxtpx:speed>
</gpxtpx:TrackPointExtension>
<opentracks:accuracy_horizontal>2.931</opentracks:accuracy_horizontal></extensions>
</trkpt>
<trkpt lat="-32.233868" lon="115.801071">
<ele>-29</ele>
<time>2026-06-24T09:19:08.597+08:00</time>
<extensions>
<gpxtpx:TrackPointExtension>
<gpxtpx:speed>1.36</gpxtpx:speed>
</gpxtpx:TrackPointExtension>
<opentracks:accuracy_horizontal>2.497</opentracks:accuracy_horizontal></extensions>
</trkpt>
<trkpt lat="-32.233891" lon="115.800958">
<ele>-28.9</ele>
<time>2026-06-24T09:19:17.581+08:00</time>
<extensions>
<gpxtpx:TrackPointExtension>
<gpxtpx:speed>1.27</gpxtpx:speed>
</gpxtpx:TrackPointExtension>
<opentracks:accuracy_horizontal>2.317</opentracks:accuracy_horizontal></extensions>
</trkpt>
<trkpt lat="-32.233912" lon="115.800847">
<ele>-28.5</ele>
<time>2026-06-24T09:19:26.597+08:00</time>
<extensions>
<gpxtpx:TrackPointExtension>
<gpxtpx:speed>1.19</gpxtpx:speed>
</gpxtpx:TrackPointExtension>
<opentracks:accuracy_horizontal>3.668</opentracks:accuracy_horizontal></extensions>
</trkpt>
<trkpt lat="-32.233902" lon="115.800729">
<ele>-28.7</ele>
<time>2026-06-24T09:19:36.615+08:00</time>
<extensions>
<gpxtpx:TrackPointExtension>
<gpxtpx:speed>1.13</gpxtpx:speed>
</gpxtpx:TrackPointExtension>
<opentracks:accuracy_horizontal>3.764</opentracks:accuracy_horizontal></extensions>
</trkpt>
<trkpt lat="-32.233912" lon="115.800619">
<ele>-29.4</ele>
<time>2026-06-24T09:19:45.6+08:00</time>
<extensions>
<gpxtpx:TrackPointExtension>
<gpxtpx:speed>1.13</gpxtpx:speed>
</gpxtpx:TrackPointExtension>
<opentracks:accuracy_horizontal>3.622</opentracks:accuracy_horizontal></extensions>
</trkpt>
<trkpt lat="-32.233906" lon="115.80053">
<ele>-29.4</ele>
<time>2026-06-24T09:19:55.588+08:00</time>
<extensions>
<gpxtpx:TrackPointExtension>
<gpxtpx:speed>0.96</gpxtpx:speed>
</gpxtpx:TrackPointExtension>
<opentracks:accuracy_horizontal>3.32</opentracks:accuracy_horizontal></extensions>
</trkpt>
<trkpt lat="-32.233891" lon="115.800423">
<ele>-28.7</ele>
<time>2026-06-24T09:20:02.605+08:00</time>
<extensions>
<gpxtpx:TrackPointExtension>
<gpxtpx:speed>1.32</gpxtpx:speed>
</gpxtpx:TrackPointExtension>
<opentracks:accuracy_horizontal>3.418</opentracks:accuracy_horizontal></extensions>
</trkpt>
<trkpt lat="-32.233867" lon="115.800315">
<ele>-28.4</ele>
<time>2026-06-24T09:20:11.594+08:00</time>
<extensions>
<gpxtpx:TrackPointExtension>
<gpxtpx:speed>1.19</gpxtpx:speed>
</gpxtpx:TrackPointExtension>
<opentracks:accuracy_horizontal>3.493</opentracks:accuracy_horizontal></extensions>
</trkpt>
<trkpt lat="-32.233854" lon="115.800209">
<ele>-27.4</ele>
<time>2026-06-24T09:20:18.598+08:00</time>
<extensions>
<gpxtpx:TrackPointExtension>
<gpxtpx:speed>1.3</gpxtpx:speed>
</gpxtpx:TrackPointExtension>
<opentracks:accuracy_horizontal>3.386</opentracks:accuracy_horizontal></extensions>
</trkpt>
<trkpt lat="-32.233833" lon="115.800104">
<ele>-27.7</ele>
<time>2026-06-24T09:20:26.603+08:00</time>
<extensions>
<gpxtpx:TrackPointExtension>
<gpxtpx:speed>1.27</gpxtpx:speed>
</gpxtpx:TrackPointExtension>
<opentracks:accuracy_horizontal>3.178</opentracks:accuracy_horizontal></extensions>
</trkpt>
<trkpt lat="-32.233789" lon="115.800024">
<ele>-27.8</ele>
<time>2026-06-24T09:20:36.616+08:00</time>
<extensions>
<gpxtpx:TrackPointExtension>
<gpxtpx:speed>1.18</gpxtpx:speed>
</gpxtpx:TrackPointExtension>
<opentracks:accuracy_horizontal>3.38</opentracks:accuracy_horizontal></extensions>
</trkpt>
<trkpt lat="-32.233756" lon="115.799918">
<ele>-26.8</ele>
<time>2026-06-24T09:20:44.616+08:00</time>
<extensions>
<gpxtpx:TrackPointExtension>
<gpxtpx:speed>1.27</gpxtpx:speed>
</gpxtpx:TrackPointExtension>
<opentracks:accuracy_horizontal>3.263</opentracks:accuracy_horizontal></extensions>
</trkpt>
<trkpt lat="-32.23371" lon="115.799819">
<ele>-27</ele>
<time>2026-06-24T09:20:52.596+08:00</time>
<extensions>
<gpxtpx:TrackPointExtension>
<gpxtpx:speed>1.3</gpxtpx:speed>
</gpxtpx:TrackPointExtension>
<opentracks:accuracy_horizontal>2.966</opentracks:accuracy_horizontal></extensions>
</trkpt>
<trkpt lat="-32.233626" lon="115.799784">
<ele>-26.4</ele>
<time>2026-06-24T09:21:02.599+08:00</time>
<extensions>
<gpxtpx:TrackPointExtension>
<gpxtpx:speed>1.25</gpxtpx:speed>
</gpxtpx:TrackPointExtension>
<opentracks:accuracy_horizontal>3.102</opentracks:accuracy_horizontal></extensions>
</trkpt>
<trkpt lat="-32.233547" lon="115.799835">
<ele>-25.5</ele>
<time>2026-06-24T09:21:53.575+08:00</time>
<extensions>
<gpxtpx:TrackPointExtension>
<gpxtpx:speed>0.07</gpxtpx:speed>
</gpxtpx:TrackPointExtension>
<opentracks:accuracy_horizontal>2.819</opentracks:accuracy_horizontal></extensions>
</trkpt>
<trkpt lat="-32.233539" lon="115.799796">
<ele>-25</ele>
<time>2026-06-24T09:22:03.576+08:00</time>
<extensions>
<gpxtpx:TrackPointExtension>
<gpxtpx:speed>1.18</gpxtpx:speed>
</gpxtpx:TrackPointExtension>
<opentracks:accuracy_horizontal>2.301</opentracks:accuracy_horizontal></extensions>
</trkpt>
<trkpt lat="-32.233527" lon="115.799679">
<ele>-25.7</ele>
<time>2026-06-24T09:22:12.577+08:00</time>
<extensions>
<gpxtpx:TrackPointExtension>
<gpxtpx:speed>1.24</gpxtpx:speed>
</gpxtpx:TrackPointExtension>
<opentracks:accuracy_horizontal>2.49</opentracks:accuracy_horizontal></extensions>
</trkpt>
<trkpt lat="-32.233523" lon="115.799571">
<ele>-26</ele>
<time>2026-06-24T09:22:21.619+08:00</time>
<extensions>
<gpxtpx:TrackPointExtension>
<gpxtpx:speed>1.19</gpxtpx:speed>
</gpxtpx:TrackPointExtension>
<opentracks:accuracy_horizontal>3.546</opentracks:accuracy_horizontal></extensions>
</trkpt>
<trkpt lat="-32.233516" lon="115.799499">
<ele>-27</ele>
<time>2026-06-24T09:22:31.601+08:00</time>
<extensions>
<gpxtpx:TrackPointExtension>
<gpxtpx:speed>0.95</gpxtpx:speed>
</gpxtpx:TrackPointExtension>
<opentracks:accuracy_horizontal>4.221</opentracks:accuracy_horizontal></extensions>
</trkpt>
<trkpt lat="-32.23359" lon="115.799434">
<ele>-25.2</ele>
<time>2026-06-24T09:23:06.598+08:00</time>
<extensions>
<gpxtpx:TrackPointExtension>
<gpxtpx:speed>0.43</gpxtpx:speed>
</gpxtpx:TrackPointExtension>
<opentracks:accuracy_horizontal>2.773</opentracks:accuracy_horizontal></extensions>
</trkpt>
<trkpt lat="-32.233656" lon="115.799355">
<ele>-26.1</ele>
<time>2026-06-24T09:23:13.592+08:00</time>
<extensions>
<gpxtpx:TrackPointExtension>
<gpxtpx:speed>1.38</gpxtpx:speed>
</gpxtpx:TrackPointExtension>
<opentracks:accuracy_horizontal>3.65</opentracks:accuracy_horizontal></extensions>
</trkpt>
<trkpt lat="-32.233734" lon="115.799299">
<ele>-25.6</ele>
<time>2026-06-24T09:23:20.597+08:00</time>
<extensions>
<gpxtpx:TrackPointExtension>
<gpxtpx:speed>1.37</gpxtpx:speed>
</gpxtpx:TrackPointExtension>
<opentracks:accuracy_horizontal>3.307</opentracks:accuracy_horizontal></extensions>
</trkpt>
<trkpt lat="-32.233831" lon="115.799257">
<ele>-25.4</ele>
<time>2026-06-24T09:23:29.605+08:00</time>
<extensions>
<gpxtpx:TrackPointExtension>
<gpxtpx:speed>1.29</gpxtpx:speed>
</gpxtpx:TrackPointExtension>
<opentracks:accuracy_horizontal>3.262</opentracks:accuracy_horizontal></extensions>
</trkpt>
<trkpt lat="-32.233915" lon="115.799218">
<ele>-25.2</ele>
<time>2026-06-24T09:23:36.604+08:00</time>
<extensions>
<gpxtpx:TrackPointExtension>
<gpxtpx:speed>1.33</gpxtpx:speed>
</gpxtpx:TrackPointExtension>
<opentracks:accuracy_horizontal>3.217</opentracks:accuracy_horizontal></extensions>
</trkpt>
<trkpt lat="-32.233946" lon="115.799191">
<ele>-25.2</ele>
<time>2026-06-24T09:23:46.604+08:00</time>
<extensions>
<gpxtpx:TrackPointExtension>
<gpxtpx:speed>0.05</gpxtpx:speed>
</gpxtpx:TrackPointExtension>
<opentracks:accuracy_horizontal>1.92</opentracks:accuracy_horizontal></extensions>
</trkpt>
<trkpt lat="-32.234032" lon="115.799146">
<ele>-24.9</ele>
<time>2026-06-24T09:23:56.597+08:00</time>
<extensions>
<gpxtpx:TrackPointExtension>
<gpxtpx:speed>1.14</gpxtpx:speed>
</gpxtpx:TrackPointExtension>
<opentracks:accuracy_horizontal>2.898</opentracks:accuracy_horizontal></extensions>
</trkpt>
<trkpt lat="-32.234116" lon="115.799096">
<ele>-23.8</ele>
<time>2026-06-24T09:24:04.606+08:00</time>
<extensions>
<gpxtpx:TrackPointExtension>
<gpxtpx:speed>1.21</gpxtpx:speed>
</gpxtpx:TrackPointExtension>
<opentracks:accuracy_horizontal>2.952</opentracks:accuracy_horizontal></extensions>
</trkpt>
<trkpt lat="-32.234208" lon="115.799055">
<ele>-24.5</ele>
<time>2026-06-24T09:24:13.59+08:00</time>
<extensions>
<gpxtpx:TrackPointExtension>
<gpxtpx:speed>1.18</gpxtpx:speed>
</gpxtpx:TrackPointExtension>
<opentracks:accuracy_horizontal>3.256</opentracks:accuracy_horizontal></extensions>
</trkpt>
<trkpt lat="-32.234294" lon="115.799014">
<ele>-25</ele>
<time>2026-06-24T09:24:21.59+08:00</time>
<extensions>
<gpxtpx:TrackPointExtension>
<gpxtpx:speed>1.23</gpxtpx:speed>
</gpxtpx:TrackPointExtension>
<opentracks:accuracy_horizontal>3.103</opentracks:accuracy_horizontal></extensions>
</trkpt>
<trkpt lat="-32.23432" lon="115.798998">
<ele>-24.8</ele>
<time>2026-06-24T09:24:31.6+08:00</time>
<extensions>
<gpxtpx:TrackPointExtension>
<gpxtpx:speed>0.81</gpxtpx:speed>
</gpxtpx:TrackPointExtension>
<opentracks:accuracy_horizontal>3.154</opentracks:accuracy_horizontal></extensions>
</trkpt>
<trkpt lat="-32.234406" lon="115.798965">
<ele>-25.2</ele>
<time>2026-06-24T09:24:38.601+08:00</time>
<extensions>
<gpxtpx:TrackPointExtension>
<gpxtpx:speed>1.24</gpxtpx:speed>
</gpxtpx:TrackPointExtension>
<opentracks:accuracy_horizontal>3.102</opentracks:accuracy_horizontal></extensions>
</trkpt>
<trkpt lat="-32.234408" lon="115.798959">
<ele>-25.5</ele>
<time>2026-06-24T09:24:48.604+08:00</time>
<extensions>
<gpxtpx:TrackPointExtension>
<gpxtpx:speed>0.01</gpxtpx:speed>
</gpxtpx:TrackPointExtension>
<opentracks:accuracy_horizontal>2.509</opentracks:accuracy_horizontal></extensions>
</trkpt>
<trkpt lat="-32.234494" lon="115.798914">
<ele>-25.9</ele>
<time>2026-06-24T09:25:10.598+08:00</time>
<extensions>
<gpxtpx:TrackPointExtension>
<gpxtpx:speed>1.32</gpxtpx:speed>
</gpxtpx:TrackPointExtension>
<opentracks:accuracy_horizontal>2.943</opentracks:accuracy_horizontal></extensions>
</trkpt>
<trkpt lat="-32.234576" lon="115.798863">
<ele>-26</ele>
<time>2026-06-24T09:25:18.6+08:00</time>
<extensions>
<gpxtpx:TrackPointExtension>
<gpxtpx:speed>1.27</gpxtpx:speed>
</gpxtpx:TrackPointExtension>
<opentracks:accuracy_horizontal>3.11</opentracks:accuracy_horizontal></extensions>
</trkpt>
<trkpt lat="-32.234667" lon="115.798821">
<ele>-25.8</ele>
<time>2026-06-24T09:25:26.606+08:00</time>
<extensions>
<gpxtpx:TrackPointExtension>
<gpxtpx:speed>1.28</gpxtpx:speed>
</gpxtpx:TrackPointExtension>
<opentracks:accuracy_horizontal>3.1</opentracks:accuracy_horizontal></extensions>
</trkpt>
<trkpt lat="-32.234757" lon="115.798769">
<ele>-24.5</ele>
<time>2026-06-24T09:25:34.612+08:00</time>
<extensions>
<gpxtpx:TrackPointExtension>
<gpxtpx:speed>1.29</gpxtpx:speed>
</gpxtpx:TrackPointExtension>
<opentracks:accuracy_horizontal>2.995</opentracks:accuracy_horizontal></extensions>
</trkpt>
<trkpt lat="-32.234844" lon="115.798721">
<ele>-24.4</ele>
<time>2026-06-24T09:25:44.598+08:00</time>
<extensions>
<gpxtpx:TrackPointExtension>
<gpxtpx:speed>1.13</gpxtpx:speed>
</gpxtpx:TrackPointExtension>
<opentracks:accuracy_horizontal>3.031</opentracks:accuracy_horizontal></extensions>
</trkpt>
<trkpt lat="-32.234936" lon="115.798676">
<ele>-24.4</ele>
<time>2026-06-24T09:25:52.592+08:00</time>
<extensions>
<gpxtpx:TrackPointExtension>
<gpxtpx:speed>1.23</gpxtpx:speed>
</gpxtpx:TrackPointExtension>
<opentracks:accuracy_horizontal>3.056</opentracks:accuracy_horizontal></extensions>
</trkpt>
<trkpt lat="-32.234966" lon="115.798583">
<ele>-24.6</ele>
<time>2026-06-24T09:26:01.602+08:00</time>
<extensions>
<gpxtpx:TrackPointExtension>
<gpxtpx:speed>0.97</gpxtpx:speed>
</gpxtpx:TrackPointExtension>
<opentracks:accuracy_horizontal>2.932</opentracks:accuracy_horizontal></extensions>
</trkpt>
<trkpt lat="-32.235004" lon="115.798479">
<ele>-25.9</ele>
<time>2026-06-24T09:26:42.608+08:00</time>
<extensions>
<gpxtpx:TrackPointExtension>
<gpxtpx:speed>1.28</gpxtpx:speed>
</gpxtpx:TrackPointExtension>
<opentracks:accuracy_horizontal>3.505</opentracks:accuracy_horizontal></extensions>
</trkpt>
<trkpt lat="-32.235043" lon="115.798366">
<ele>-26.2</ele>
<time>2026-06-24T09:26:50.598+08:00</time>
<extensions>
<gpxtpx:TrackPointExtension>
<gpxtpx:speed>1.35</gpxtpx:speed>
</gpxtpx:TrackPointExtension>
<opentracks:accuracy_horizontal>3.827</opentracks:accuracy_horizontal></extensions>
</trkpt>
<trkpt lat="-32.235055" lon="115.798261">
<ele>-26.5</ele>
<time>2026-06-24T09:26:57.607+08:00</time>
<extensions>
<gpxtpx:TrackPointExtension>
<gpxtpx:speed>1.37</gpxtpx:speed>
</gpxtpx:TrackPointExtension>
<opentracks:accuracy_horizontal>3.783</opentracks:accuracy_horizontal></extensions>
</trkpt>
<trkpt lat="-32.235047" lon="115.798152">
<ele>-26.6</ele>
<time>2026-06-24T09:27:05.611+08:00</time>
<extensions>
<gpxtpx:TrackPointExtension>
<gpxtpx:speed>1.29</gpxtpx:speed>
</gpxtpx:TrackPointExtension>
<opentracks:accuracy_horizontal>3.942</opentracks:accuracy_horizontal></extensions>
</trkpt>
<trkpt lat="-32.235061" lon="115.7981">
<ele>-26.1</ele>
<time>2026-06-24T09:27:15.607+08:00</time>
<extensions>
<gpxtpx:TrackPointExtension>
<gpxtpx:speed>0.96</gpxtpx:speed>
</gpxtpx:TrackPointExtension>
<opentracks:accuracy_horizontal>3.779</opentracks:accuracy_horizontal></extensions>
</trkpt>
<trkpt lat="-32.235116" lon="115.798">
<ele>-26.1</ele>
<time>2026-06-24T09:27:28.615+08:00</time>
<extensions>
<gpxtpx:TrackPointExtension>
<gpxtpx:speed>1.18</gpxtpx:speed>
</gpxtpx:TrackPointExtension>
<opentracks:accuracy_horizontal>3.522</opentracks:accuracy_horizontal></extensions>
</trkpt>
<trkpt lat="-32.235195" lon="115.797936">
<ele>-24</ele>
<time>2026-06-24T09:27:35.606+08:00</time>
<extensions>
<gpxtpx:TrackPointExtension>
<gpxtpx:speed>1.38</gpxtpx:speed>
</gpxtpx:TrackPointExtension>
<opentracks:accuracy_horizontal>2.97</opentracks:accuracy_horizontal></extensions>
</trkpt>
<trkpt lat="-32.235221" lon="115.797827">
<ele>-22.8</ele>
<time>2026-06-24T09:27:44.577+08:00</time>
<extensions>
<gpxtpx:TrackPointExtension>
<gpxtpx:speed>1.31</gpxtpx:speed>
</gpxtpx:TrackPointExtension>
<opentracks:accuracy_horizontal>2.098</opentracks:accuracy_horizontal></extensions>
</trkpt>
<trkpt lat="-32.235212" lon="115.79773">
<ele>-23.5</ele>
<time>2026-06-24T09:27:54.577+08:00</time>
<extensions>
<gpxtpx:TrackPointExtension>
<gpxtpx:speed>0.94</gpxtpx:speed>
</gpxtpx:TrackPointExtension>
<opentracks:accuracy_horizontal>2.149</opentracks:accuracy_horizontal></extensions>
</trkpt>
<trkpt lat="-32.23525" lon="115.797622">
<ele>-22.5</ele>
<time>2026-06-24T09:28:04.575+08:00</time>
<extensions>
<gpxtpx:TrackPointExtension>
<gpxtpx:speed>1.12</gpxtpx:speed>
</gpxtpx:TrackPointExtension>
<opentracks:accuracy_horizontal>2.173</opentracks:accuracy_horizontal></extensions>
</trkpt>
<trkpt lat="-32.235206" lon="115.797538">
<ele>-23</ele>
<time>2026-06-24T09:28:14.581+08:00</time>
<extensions>
<gpxtpx:TrackPointExtension>
<gpxtpx:speed>1.01</gpxtpx:speed>
</gpxtpx:TrackPointExtension>
<opentracks:accuracy_horizontal>1.759</opentracks:accuracy_horizontal></extensions>
</trkpt>
<trkpt lat="-32.235253" lon="115.797633">
<ele>-19.7</ele>
<time>2026-06-24T09:28:26.52+08:00</time>
<extensions>
<gpxtpx:TrackPointExtension>
<gpxtpx:speed>1.08</gpxtpx:speed>
</gpxtpx:TrackPointExtension>
<opentracks:accuracy_horizontal>2.357</opentracks:accuracy_horizontal></extensions>
</trkpt>
<trkpt lat="-32.235248" lon="115.797595">
<ele>-18</ele>
<time>2026-06-24T09:28:36.52+08:00</time>
<extensions>
<gpxtpx:TrackPointExtension>
<gpxtpx:speed>0.45</gpxtpx:speed>
</gpxtpx:TrackPointExtension>
<opentracks:accuracy_horizontal>2.348</opentracks:accuracy_horizontal></extensions>
</trkpt>
<trkpt lat="-32.235221" lon="115.797494">
<ele>-18.6</ele>
<time>2026-06-24T09:28:46.517+08:00</time>
<extensions>
<gpxtpx:TrackPointExtension>
<gpxtpx:speed>1.08</gpxtpx:speed>
</gpxtpx:TrackPointExtension>
<opentracks:accuracy_horizontal>2.334</opentracks:accuracy_horizontal></extensions>
</trkpt>
<trkpt lat="-32.235225" lon="115.797455">
<ele>-18.4</ele>
<time>2026-06-24T09:28:56.516+08:00</time>
<extensions>
<gpxtpx:TrackPointExtension>
<gpxtpx:speed>0.12</gpxtpx:speed>
</gpxtpx:TrackPointExtension>
<opentracks:accuracy_horizontal>2.484</opentracks:accuracy_horizontal></extensions>
</trkpt>
<trkpt lat="-32.235322" lon="115.79745">
<ele>-18.1</ele>
<time>2026-06-24T09:29:11.527+08:00</time>
<extensions>
<gpxtpx:TrackPointExtension>
<gpxtpx:speed>1.18</gpxtpx:speed>
</gpxtpx:TrackPointExtension>
<opentracks:accuracy_horizontal>2.051</opentracks:accuracy_horizontal></extensions>
</trkpt>
<trkpt lat="-32.235393" lon="115.797426">
<ele>-17</ele>
<time>2026-06-24T09:29:21.522+08:00</time>
<extensions>
<gpxtpx:TrackPointExtension>
<gpxtpx:speed>1</gpxtpx:speed>
</gpxtpx:TrackPointExtension>
<opentracks:accuracy_horizontal>2.263</opentracks:accuracy_horizontal></extensions>
</trkpt>
<trkpt lat="-32.23541" lon="115.797321">
<ele>-16.3</ele>
<time>2026-06-24T09:29:31.53+08:00</time>
<extensions>
<gpxtpx:TrackPointExtension>
<gpxtpx:speed>1</gpxtpx:speed>
</gpxtpx:TrackPointExtension>
<opentracks:accuracy_horizontal>2.277</opentracks:accuracy_horizontal></extensions>
</trkpt>
<trkpt lat="-32.235433" lon="115.797216">
<ele>-16.6</ele>
<time>2026-06-24T09:29:40.525+08:00</time>
<extensions>
<gpxtpx:TrackPointExtension>
<gpxtpx:speed>1.06</gpxtpx:speed>
</gpxtpx:TrackPointExtension>
<opentracks:accuracy_horizontal>2.32</opentracks:accuracy_horizontal></extensions>
</trkpt>
<trkpt lat="-32.235405" lon="115.797114">
<ele>-17.8</ele>
<time>2026-06-24T09:29:50.526+08:00</time>
<extensions>
<gpxtpx:TrackPointExtension>
<gpxtpx:speed>1.03</gpxtpx:speed>
</gpxtpx:TrackPointExtension>
<opentracks:accuracy_horizontal>2.264</opentracks:accuracy_horizontal></extensions>
</trkpt>
<trkpt lat="-32.235368" lon="115.797019">
<ele>-19.2</ele>
<time>2026-06-24T09:30:00.515+08:00</time>
<extensions>
<gpxtpx:TrackPointExtension>
<gpxtpx:speed>1.01</gpxtpx:speed>
</gpxtpx:TrackPointExtension>
<opentracks:accuracy_horizontal>2.316</opentracks:accuracy_horizontal></extensions>
</trkpt>
<trkpt lat="-32.235339" lon="115.796917">
<ele>-19.7</ele>
<time>2026-06-24T09:30:10.547+08:00</time>
<extensions>
<gpxtpx:TrackPointExtension>
<gpxtpx:speed>1</gpxtpx:speed>
</gpxtpx:TrackPointExtension>
<opentracks:accuracy_horizontal>2.302</opentracks:accuracy_horizontal></extensions>
</trkpt>
<trkpt lat="-32.235329" lon="115.796857">
<ele>-19.7</ele>
<time>2026-06-24T09:30:20.532+08:00</time>
<extensions>
<gpxtpx:TrackPointExtension>
<gpxtpx:speed>1.06</gpxtpx:speed>
</gpxtpx:TrackPointExtension>
<opentracks:accuracy_horizontal>2.239</opentracks:accuracy_horizontal></extensions>
</trkpt>
<trkpt lat="-32.235304" lon="115.796747">
<ele>-19.6</ele>
<time>2026-06-24T09:30:31.523+08:00</time>
<extensions>
<gpxtpx:TrackPointExtension>
<gpxtpx:speed>0.98</gpxtpx:speed>
</gpxtpx:TrackPointExtension>
<opentracks:accuracy_horizontal>2.211</opentracks:accuracy_horizontal></extensions>
</trkpt>
<trkpt lat="-32.235296" lon="115.796708">
<ele>-18.8</ele>
<time>2026-06-24T09:30:41.525+08:00</time>
<extensions>
<gpxtpx:TrackPointExtension>
<gpxtpx:speed>0.03</gpxtpx:speed>
</gpxtpx:TrackPointExtension>
<opentracks:accuracy_horizontal>2.274</opentracks:accuracy_horizontal></extensions>
</trkpt>
<trkpt lat="-32.235309" lon="115.796596">
<ele>-18.9</ele>
<time>2026-06-24T09:31:09.551+08:00</time>
<extensions>
<gpxtpx:TrackPointExtension>
<gpxtpx:speed>1.23</gpxtpx:speed>
</gpxtpx:TrackPointExtension>
<opentracks:accuracy_horizontal>2.676</opentracks:accuracy_horizontal></extensions>
</trkpt>
<trkpt lat="-32.235307" lon="115.796482">
<ele>-20</ele>
<time>2026-06-24T09:31:17.546+08:00</time>
<extensions>
<gpxtpx:TrackPointExtension>
<gpxtpx:speed>1.27</gpxtpx:speed>
</gpxtpx:TrackPointExtension>
<opentracks:accuracy_horizontal>2.451</opentracks:accuracy_horizontal></extensions>
</trkpt>
<trkpt lat="-32.235301" lon="115.796403">
<ele>-18.2</ele>
<time>2026-06-24T09:31:27.546+08:00</time>
<extensions>
<gpxtpx:TrackPointExtension>
<gpxtpx:speed>0.89</gpxtpx:speed>
</gpxtpx:TrackPointExtension>
<opentracks:accuracy_horizontal>2.469</opentracks:accuracy_horizontal></extensions>
</trkpt>
<trkpt lat="-32.235332" lon="115.796301">
<ele>-18.5</ele>
<time>2026-06-24T09:31:35.546+08:00</time>
<extensions>
<gpxtpx:TrackPointExtension>
<gpxtpx:speed>1.1</gpxtpx:speed>
</gpxtpx:TrackPointExtension>
<opentracks:accuracy_horizontal>2.584</opentracks:accuracy_horizontal></extensions>
</trkpt>
<trkpt lat="-32.235342" lon="115.796219">
<ele>-18.8</ele>
<time>2026-06-24T09:31:45.557+08:00</time>
<extensions>
<gpxtpx:TrackPointExtension>
<gpxtpx:speed>1.6</gpxtpx:speed>
</gpxtpx:TrackPointExtension>
<opentracks:accuracy_horizontal>2.658</opentracks:accuracy_horizontal></extensions>
</trkpt>
<trkpt lat="-32.235355" lon="115.796112">
<ele>-18.9</ele>
<time>2026-06-24T09:31:52.547+08:00</time>
<extensions>
<gpxtpx:TrackPointExtension>
<gpxtpx:speed>1.45</gpxtpx:speed>
</gpxtpx:TrackPointExtension>
<opentracks:accuracy_horizontal>2.636</opentracks:accuracy_horizontal></extensions>
</trkpt>
<trkpt lat="-32.23536" lon="115.796002">
<ele>-18.7</ele>
<time>2026-06-24T09:32:00.558+08:00</time>
<extensions>
<gpxtpx:TrackPointExtension>
<gpxtpx:speed>1.31</gpxtpx:speed>
</gpxtpx:TrackPointExtension>
<opentracks:accuracy_horizontal>2.498</opentracks:accuracy_horizontal></extensions>
</trkpt>
<trkpt lat="-32.235453" lon="115.795999">
<ele>-19.7</ele>
<time>2026-06-24T09:32:09.551+08:00</time>
<extensions>
<gpxtpx:TrackPointExtension>
<gpxtpx:speed>1.23</gpxtpx:speed>
</gpxtpx:TrackPointExtension>
<opentracks:accuracy_horizontal>2.5</opentracks:accuracy_horizontal></extensions>
</trkpt>
<trkpt lat="-32.235532" lon="115.795942">
<ele>-18.5</ele>
<time>2026-06-24T09:32:19.545+08:00</time>
<extensions>
<gpxtpx:TrackPointExtension>
<gpxtpx:speed>1.08</gpxtpx:speed>
</gpxtpx:TrackPointExtension>
<opentracks:accuracy_horizontal>2.709</opentracks:accuracy_horizontal></extensions>
</trkpt>
<trkpt lat="-32.235537" lon="115.795915">
<ele>-17.7</ele>
<time>2026-06-24T09:32:29.548+08:00</time>
<extensions>
<gpxtpx:TrackPointExtension>
<gpxtpx:speed>1.44</gpxtpx:speed>
</gpxtpx:TrackPointExtension>
<opentracks:accuracy_horizontal>2.611</opentracks:accuracy_horizontal></extensions>
</trkpt>
<trkpt lat="-32.235575" lon="115.795816">
<ele>-20.5</ele>
<time>2026-06-24T09:33:19.602+08:00</time>
<extensions>
<gpxtpx:TrackPointExtension>
<gpxtpx:speed>0.91</gpxtpx:speed>
</gpxtpx:TrackPointExtension>
<opentracks:accuracy_horizontal>3.086</opentracks:accuracy_horizontal></extensions>
</trkpt>
<trkpt lat="-32.235578" lon="115.795726">
<ele>-21.6</ele>
<time>2026-06-24T09:33:29.603+08:00</time>
<extensions>
<gpxtpx:TrackPointExtension>
<gpxtpx:speed>0.87</gpxtpx:speed>
</gpxtpx:TrackPointExtension>
<opentracks:accuracy_horizontal>3.643</opentracks:accuracy_horizontal></extensions>
</trkpt>
<trkpt lat="-32.235575" lon="115.795614">
<ele>-18.6</ele>
<time>2026-06-24T09:33:38.556+08:00</time>
<extensions>
<gpxtpx:TrackPointExtension>
<gpxtpx:speed>1.06</gpxtpx:speed>
</gpxtpx:TrackPointExtension>
<opentracks:accuracy_horizontal>2.721</opentracks:accuracy_horizontal></extensions>
</trkpt>
<trkpt lat="-32.235539" lon="115.795545">
<ele>-19</ele>
<time>2026-06-24T09:33:48.56+08:00</time>
<extensions>
<gpxtpx:TrackPointExtension>
<gpxtpx:speed>0.85</gpxtpx:speed>
</gpxtpx:TrackPointExtension>
<opentracks:accuracy_horizontal>2.763</opentracks:accuracy_horizontal></extensions>
</trkpt>
<trkpt lat="-32.235501" lon="115.795445">
<ele>-20.2</ele>
<time>2026-06-24T09:34:23.61+08:00</time>
<extensions>
<gpxtpx:TrackPointExtension>
<gpxtpx:speed>0.83</gpxtpx:speed>
</gpxtpx:TrackPointExtension>
<opentracks:accuracy_horizontal>3.357</opentracks:accuracy_horizontal></extensions>
</trkpt>
<trkpt lat="-32.235486" lon="115.795405">
<ele>-21.2</ele>
<time>2026-06-24T09:34:33.608+08:00</time>
<extensions>
<gpxtpx:TrackPointExtension>
<gpxtpx:speed>0.07</gpxtpx:speed>
</gpxtpx:TrackPointExtension>
<opentracks:accuracy_horizontal>2.896</opentracks:accuracy_horizontal></extensions>
</trkpt>
<trkpt lat="-32.235575" lon="115.795383">
<ele>-20.8</ele>
<time>2026-06-24T09:34:54.603+08:00</time>
<extensions>
<gpxtpx:TrackPointExtension>
<gpxtpx:speed>0.41</gpxtpx:speed>
</gpxtpx:TrackPointExtension>
<opentracks:accuracy_horizontal>3.889</opentracks:accuracy_horizontal></extensions>
</trkpt>
<trkpt lat="-32.235629" lon="115.795332">
<ele>-20.3</ele>
<time>2026-06-24T09:35:04.61+08:00</time>
<extensions>
<gpxtpx:TrackPointExtension>
<gpxtpx:speed>0.31</gpxtpx:speed>
</gpxtpx:TrackPointExtension>
<opentracks:accuracy_horizontal>3.583</opentracks:accuracy_horizontal></extensions>
</trkpt>
<trkpt lat="-32.235693" lon="115.795251">
<ele>-18.7</ele>
<time>2026-06-24T09:35:21.61+08:00</time>
<extensions>
<gpxtpx:TrackPointExtension>
<gpxtpx:speed>0.73</gpxtpx:speed>
</gpxtpx:TrackPointExtension>
<opentracks:accuracy_horizontal>3.297</opentracks:accuracy_horizontal></extensions>
</trkpt>
<trkpt lat="-32.235733" lon="115.795239">
<ele>-18.6</ele>
<time>2026-06-24T09:35:31.61+08:00</time>
<extensions>
<gpxtpx:TrackPointExtension>
<gpxtpx:speed>0.6</gpxtpx:speed>
</gpxtpx:TrackPointExtension>
<opentracks:accuracy_horizontal>3.722</opentracks:accuracy_horizontal></extensions>
</trkpt>
<trkpt lat="-32.235804" lon="115.795169">
<ele>-18.2</ele>
<time>2026-06-24T09:35:53.607+08:00</time>
<extensions>
<gpxtpx:TrackPointExtension>
<gpxtpx:speed>0.84</gpxtpx:speed>
</gpxtpx:TrackPointExtension>
<opentracks:accuracy_horizontal>3.425</opentracks:accuracy_horizontal></extensions>
</trkpt>
<trkpt lat="-32.235821" lon="115.795119">
<ele>-17.8</ele>
<time>2026-06-24T09:36:03.605+08:00</time>
<extensions>
<gpxtpx:TrackPointExtension>
<gpxtpx:speed>0.06</gpxtpx:speed>
</gpxtpx:TrackPointExtension>
<opentracks:accuracy_horizontal>2.699</opentracks:accuracy_horizontal></extensions>
</trkpt>
<trkpt lat="-32.235864" lon="115.795011">
<ele>-17</ele>
<time>2026-06-24T09:36:15.617+08:00</time>
<extensions>
<gpxtpx:TrackPointExtension>
<gpxtpx:speed>1.06</gpxtpx:speed>
</gpxtpx:TrackPointExtension>
<opentracks:accuracy_horizontal>3.287</opentracks:accuracy_horizontal></extensions>
</trkpt>
<trkpt lat="-32.235886" lon="115.79491">
<ele>-14.9</ele>
<time>2026-06-24T09:36:25.609+08:00</time>
<extensions>
<gpxtpx:TrackPointExtension>
<gpxtpx:speed>1</gpxtpx:speed>
</gpxtpx:TrackPointExtension>
<opentracks:accuracy_horizontal>2.561</opentracks:accuracy_horizontal></extensions>
</trkpt>
<trkpt lat="-32.235894" lon="115.794796">
<ele>-14.3</ele>
<time>2026-06-24T09:37:02.614+08:00</time>
<extensions>
<gpxtpx:TrackPointExtension>
<gpxtpx:speed>1.05</gpxtpx:speed>
</gpxtpx:TrackPointExtension>
<opentracks:accuracy_horizontal>3.34</opentracks:accuracy_horizontal></extensions>
</trkpt>
<trkpt lat="-32.235896" lon="115.794708">
<ele>-14.3</ele>
<time>2026-06-24T09:37:12.609+08:00</time>
<extensions>
<gpxtpx:TrackPointExtension>
<gpxtpx:speed>0.77</gpxtpx:speed>
</gpxtpx:TrackPointExtension>
<opentracks:accuracy_horizontal>3.385</opentracks:accuracy_horizontal></extensions>
</trkpt>
<trkpt lat="-32.235868" lon="115.794605">
<ele>-15.5</ele>
<time>2026-06-24T09:37:29.611+08:00</time>
<extensions>
<gpxtpx:TrackPointExtension>
<gpxtpx:speed>1.19</gpxtpx:speed>
</gpxtpx:TrackPointExtension>
<opentracks:accuracy_horizontal>3.708</opentracks:accuracy_horizontal></extensions>
</trkpt>
<trkpt lat="-32.235831" lon="115.794507">
<ele>-15.1</ele>
<time>2026-06-24T09:37:39.608+08:00</time>
<extensions>
<gpxtpx:TrackPointExtension>
<gpxtpx:speed>1.05</gpxtpx:speed>
</gpxtpx:TrackPointExtension>
<opentracks:accuracy_horizontal>3.302</opentracks:accuracy_horizontal></extensions>
</trkpt>
<trkpt lat="-32.235734" lon="115.794487">
<ele>-13.7</ele>
<time>2026-06-24T09:37:49.612+08:00</time>
<extensions>
<gpxtpx:TrackPointExtension>
<gpxtpx:speed>1.07</gpxtpx:speed>
</gpxtpx:TrackPointExtension>
<opentracks:accuracy_horizontal>3.259</opentracks:accuracy_horizontal></extensions>
</trkpt>
<trkpt lat="-32.235639" lon="115.794511">
<ele>-14.8</ele>
<time>2026-06-24T09:37:59.623+08:00</time>
<extensions>
<gpxtpx:TrackPointExtension>
<gpxtpx:speed>1.04</gpxtpx:speed>
</gpxtpx:TrackPointExtension>
<opentracks:accuracy_horizontal>3.577</opentracks:accuracy_horizontal></extensions>
</trkpt>
<trkpt lat="-32.235547" lon="115.794494">
<ele>-14.5</ele>
<time>2026-06-24T09:38:08.61+08:00</time>
<extensions>
<gpxtpx:TrackPointExtension>
<gpxtpx:speed>1.12</gpxtpx:speed>
</gpxtpx:TrackPointExtension>
<opentracks:accuracy_horizontal>3.296</opentracks:accuracy_horizontal></extensions>
</trkpt>
<trkpt lat="-32.235531" lon="115.794442">
<ele>-15.3</ele>
<time>2026-06-24T09:38:18.605+08:00</time>
<extensions>
<gpxtpx:TrackPointExtension>
<gpxtpx:speed>0.76</gpxtpx:speed>
</gpxtpx:TrackPointExtension>
<opentracks:accuracy_horizontal>3.216</opentracks:accuracy_horizontal></extensions>
</trkpt>
<trkpt lat="-32.235513" lon="115.79433">
<ele>-14</ele>
<time>2026-06-24T09:38:29.603+08:00</time>
<extensions>
<gpxtpx:TrackPointExtension>
<gpxtpx:speed>0.92</gpxtpx:speed>
</gpxtpx:TrackPointExtension>
<opentracks:accuracy_horizontal>3.454</opentracks:accuracy_horizontal></extensions>
</trkpt>
<trkpt lat="-32.235469" lon="115.794234">
<ele>-13.3</ele>
<time>2026-06-24T09:38:39.613+08:00</time>
<extensions>
<gpxtpx:TrackPointExtension>
<gpxtpx:speed>0.98</gpxtpx:speed>
</gpxtpx:TrackPointExtension>
<opentracks:accuracy_horizontal>3.188</opentracks:accuracy_horizontal></extensions>
</trkpt>
<trkpt lat="-32.235461" lon="115.794216">
<ele>-13.6</ele>
<time>2026-06-24T09:38:49.609+08:00</time>
<extensions>
<gpxtpx:TrackPointExtension>
<gpxtpx:speed>0.19</gpxtpx:speed>
</gpxtpx:TrackPointExtension>
<opentracks:accuracy_horizontal>2.991</opentracks:accuracy_horizontal></extensions>
</trkpt>
<trkpt lat="-32.235469" lon="115.794109">
<ele>-11.7</ele>
<time>2026-06-24T09:39:22.613+08:00</time>
<extensions>
<gpxtpx:TrackPointExtension>
<gpxtpx:speed>0.74</gpxtpx:speed>
</gpxtpx:TrackPointExtension>
<opentracks:accuracy_horizontal>3.494</opentracks:accuracy_horizontal></extensions>
</trkpt>
<trkpt lat="-32.235489" lon="115.794013">
<ele>-10.9</ele>
<time>2026-06-24T09:39:32.622+08:00</time>
<extensions>
<gpxtpx:TrackPointExtension>
<gpxtpx:speed>0.86</gpxtpx:speed>
</gpxtpx:TrackPointExtension>
<opentracks:accuracy_horizontal>4.099</opentracks:accuracy_horizontal></extensions>
</trkpt>
<trkpt lat="-32.235487" lon="115.793906">
<ele>-10.3</ele>
<time>2026-06-24T09:39:44.606+08:00</time>
<extensions>
<gpxtpx:TrackPointExtension>
<gpxtpx:speed>0.7</gpxtpx:speed>
</gpxtpx:TrackPointExtension>
<opentracks:accuracy_horizontal>3.506</opentracks:accuracy_horizontal></extensions>
</trkpt>
<trkpt lat="-32.235456" lon="115.793914">
<ele>-9.8</ele>
<time>2026-06-24T09:39:54.607+08:00</time>
<extensions>
<gpxtpx:TrackPointExtension>
<gpxtpx:speed>0.41</gpxtpx:speed>
</gpxtpx:TrackPointExtension>
<opentracks:accuracy_horizontal>3.487</opentracks:accuracy_horizontal></extensions>
</trkpt>
<trkpt lat="-32.235373" lon="115.793861">
<ele>-4.3</ele>
<time>2026-06-24T09:40:52.607+08:00</time>
<extensions>
<gpxtpx:TrackPointExtension>
<gpxtpx:speed>0.07</gpxtpx:speed>
</gpxtpx:TrackPointExtension>
<opentracks:accuracy_horizontal>3.603</opentracks:accuracy_horizontal></extensions>
</trkpt>
<trkpt lat="-32.235362" lon="115.793883">
<ele>-3.7</ele>
<time>2026-06-24T09:41:02.609+08:00</time>
<extensions>
<gpxtpx:TrackPointExtension>
<gpxtpx:speed>0.5</gpxtpx:speed>
</gpxtpx:TrackPointExtension>
<opentracks:accuracy_horizontal>3.97</opentracks:accuracy_horizontal></extensions>
</trkpt>
<trkpt lat="-32.23529" lon="115.793818">
<ele>-2.2</ele>
<time>2026-06-24T09:41:47.621+08:00</time>
<extensions>
<gpxtpx:TrackPointExtension>
<gpxtpx:speed>0.2</gpxtpx:speed>
</gpxtpx:TrackPointExtension>
<opentracks:accuracy_horizontal>3.539</opentracks:accuracy_horizontal></extensions>
</trkpt>
<trkpt lat="-32.235277" lon="115.793784">
<ele>-1.6</ele>
<time>2026-06-24T09:41:57.611+08:00</time>
<extensions>
<gpxtpx:TrackPointExtension>
<gpxtpx:speed>0.52</gpxtpx:speed>
</gpxtpx:TrackPointExtension>
<opentracks:accuracy_horizontal>3.936</opentracks:accuracy_horizontal></extensions>
</trkpt>
<trkpt lat="-32.23519" lon="115.793743">
<ele>3</ele>
<time>2026-06-24T09:42:16.614+08:00</time>
<extensions>
<gpxtpx:TrackPointExtension>
<gpxtpx:speed>0.35</gpxtpx:speed>
</gpxtpx:TrackPointExtension>
<opentracks:accuracy_horizontal>2.366</opentracks:accuracy_horizontal></extensions>
</trkpt>
<trkpt lat="-32.235183" lon="115.793696">
<ele>3.2</ele>
<time>2026-06-24T09:42:26.607+08:00</time>
<extensions>
<gpxtpx:TrackPointExtension>
<gpxtpx:speed>0.89</gpxtpx:speed>
</gpxtpx:TrackPointExtension>
<opentracks:accuracy_horizontal>1.66</opentracks:accuracy_horizontal></extensions>
</trkpt>
<trkpt lat="-32.23518" lon="115.79358">
<ele>3.3</ele>
<time>2026-06-24T09:42:36.615+08:00</time>
<extensions>
<gpxtpx:TrackPointExtension>
<gpxtpx:speed>1.08</gpxtpx:speed>
</gpxtpx:TrackPointExtension>
<opentracks:accuracy_horizontal>2.973</opentracks:accuracy_horizontal></extensions>
</trkpt>
<trkpt lat="-32.235173" lon="115.79347">
<ele>2.9</ele>
<time>2026-06-24T09:42:46.618+08:00</time>
<extensions>
<gpxtpx:TrackPointExtension>
<gpxtpx:speed>1.06</gpxtpx:speed>
</gpxtpx:TrackPointExtension>
<opentracks:accuracy_horizontal>3.267</opentracks:accuracy_horizontal></extensions>
</trkpt>
<trkpt lat="-32.235162" lon="115.793433">
<ele>3.8</ele>
<time>2026-06-24T09:42:56.584+08:00</time>
<extensions>
<gpxtpx:TrackPointExtension>
<gpxtpx:speed>0.07</gpxtpx:speed>
</gpxtpx:TrackPointExtension>
<opentracks:accuracy_horizontal>2.299</opentracks:accuracy_horizontal></extensions>
</trkpt>
<trkpt lat="-32.235126" lon="115.793335">
<ele>3.2</ele>
<time>2026-06-24T09:43:10.584+08:00</time>
<extensions>
<gpxtpx:TrackPointExtension>
<gpxtpx:speed>0.89</gpxtpx:speed>
</gpxtpx:TrackPointExtension>
<opentracks:accuracy_horizontal>1.688</opentracks:accuracy_horizontal></extensions>
</trkpt>
<trkpt lat="-32.235084" lon="115.793236">
<ele>2.4</ele>
<time>2026-06-24T09:43:20.593+08:00</time>
<extensions>
<gpxtpx:TrackPointExtension>
<gpxtpx:speed>1</gpxtpx:speed>
</gpxtpx:TrackPointExtension>
<opentracks:accuracy_horizontal>1.451</opentracks:accuracy_horizontal></extensions>
</trkpt>
<trkpt lat="-32.235058" lon="115.793183">
<ele>3</ele>
<time>2026-06-24T09:43:30.529+08:00</time>
<extensions>
<gpxtpx:TrackPointExtension>
<gpxtpx:speed>0.2</gpxtpx:speed>
</gpxtpx:TrackPointExtension>
<opentracks:accuracy_horizontal>2.325</opentracks:accuracy_horizontal></extensions>
</trkpt>
<trkpt lat="-32.234997" lon="115.793101">
<ele>4.1</ele>
<time>2026-06-24T09:43:47.564+08:00</time>
<extensions>
<gpxtpx:TrackPointExtension>
<gpxtpx:speed>1.06</gpxtpx:speed>
</gpxtpx:TrackPointExtension>
<opentracks:accuracy_horizontal>2.523</opentracks:accuracy_horizontal></extensions>
</trkpt>
<trkpt lat="-32.234928" lon="115.793024">
<ele>3.9</ele>
<time>2026-06-24T09:43:55.553+08:00</time>
<extensions>
<gpxtpx:TrackPointExtension>
<gpxtpx:speed>1.2</gpxtpx:speed>
</gpxtpx:TrackPointExtension>
<opentracks:accuracy_horizontal>2.582</opentracks:accuracy_horizontal></extensions>
</trkpt>
<trkpt lat="-32.234898" lon="115.792975">
<ele>4</ele>
<time>2026-06-24T09:44:05.562+08:00</time>
<extensions>
<gpxtpx:TrackPointExtension>
<gpxtpx:speed>0.13</gpxtpx:speed>
</gpxtpx:TrackPointExtension>
<opentracks:accuracy_horizontal>2.23</opentracks:accuracy_horizontal></extensions>
</trkpt>
<trkpt lat="-32.234821" lon="115.792912">
<ele>3.4</ele>
<time>2026-06-24T09:45:02.557+08:00</time>
<extensions>
<gpxtpx:TrackPointExtension>
<gpxtpx:speed>1.04</gpxtpx:speed>
</gpxtpx:TrackPointExtension>
<opentracks:accuracy_horizontal>2.291</opentracks:accuracy_horizontal></extensions>
</trkpt>
<trkpt lat="-32.234824" lon="115.792922">
<ele>3.3</ele>
<time>2026-06-24T09:45:12.556+08:00</time>
<extensions>
<gpxtpx:TrackPointExtension>
<gpxtpx:speed>0.08</gpxtpx:speed>
</gpxtpx:TrackPointExtension>
<opentracks:accuracy_horizontal>2.291</opentracks:accuracy_horizontal></extensions>
</trkpt>
<trkpt lat="-32.234754" lon="115.792848">
<ele>1.2</ele>
<time>2026-06-24T09:45:43.552+08:00</time>
<extensions>
<gpxtpx:TrackPointExtension>
<gpxtpx:speed>1.16</gpxtpx:speed>
</gpxtpx:TrackPointExtension>
<opentracks:accuracy_horizontal>2.22</opentracks:accuracy_horizontal></extensions>
</trkpt>
<trkpt lat="-32.234699" lon="115.792754">
<ele>0.4</ele>
<time>2026-06-24T09:45:52.556+08:00</time>
<extensions>
<gpxtpx:TrackPointExtension>
<gpxtpx:speed>1.15</gpxtpx:speed>
</gpxtpx:TrackPointExtension>
<opentracks:accuracy_horizontal>2.633</opentracks:accuracy_horizontal></extensions>
</trkpt>
<trkpt lat="-32.23464" lon="115.792671">
<ele>-0.3</ele>
<time>2026-06-24T09:46:00.56+08:00</time>
<extensions>
<gpxtpx:TrackPointExtension>
<gpxtpx:speed>1.15</gpxtpx:speed>
</gpxtpx:TrackPointExtension>
<opentracks:accuracy_horizontal>2.556</opentracks:accuracy_horizontal></extensions>
</trkpt>
<trkpt lat="-32.234563" lon="115.792609">
<ele>-1.4</ele>
<time>2026-06-24T09:46:09.553+08:00</time>
<extensions>
<gpxtpx:TrackPointExtension>
<gpxtpx:speed>1.12</gpxtpx:speed>
</gpxtpx:TrackPointExtension>
<opentracks:accuracy_horizontal>2.55</opentracks:accuracy_horizontal></extensions>
</trkpt>
<trkpt lat="-32.234514" lon="115.792627">
<ele>-0.6</ele>
<time>2026-06-24T09:46:19.54+08:00</time>
<extensions>
<gpxtpx:TrackPointExtension>
<gpxtpx:speed>0.12</gpxtpx:speed>
</gpxtpx:TrackPointExtension>
<opentracks:accuracy_horizontal>2.544</opentracks:accuracy_horizontal></extensions>
</trkpt>
<trkpt lat="-32.234501" lon="115.792513">
<ele>-3.6</ele>
<time>2026-06-24T09:47:32.538+08:00</time>
<extensions>
<gpxtpx:TrackPointExtension>
<gpxtpx:speed>1.05</gpxtpx:speed>
</gpxtpx:TrackPointExtension>
<opentracks:accuracy_horizontal>2.325</opentracks:accuracy_horizontal></extensions>
</trkpt>
<trkpt lat="-32.234496" lon="115.792511">
<ele>-6.2</ele>
<time>2026-06-24T09:47:42.531+08:00</time>
<extensions>
<gpxtpx:TrackPointExtension>
<gpxtpx:speed>0.06</gpxtpx:speed>
</gpxtpx:TrackPointExtension>
<opentracks:accuracy_horizontal>2.436</opentracks:accuracy_horizontal></extensions>
</trkpt>
<trkpt lat="-32.234436" lon="115.792428">
<ele>-3.1</ele>
<time>2026-06-24T09:48:03.552+08:00</time>
<extensions>
<gpxtpx:TrackPointExtension>
<gpxtpx:speed>0.64</gpxtpx:speed>
</gpxtpx:TrackPointExtension>
<opentracks:accuracy_horizontal>3.126</opentracks:accuracy_horizontal></extensions>
</trkpt>
<trkpt lat="-32.23435" lon="115.792429">
<ele>-4.9</ele>
<time>2026-06-24T09:48:13.565+08:00</time>
<extensions>
<gpxtpx:TrackPointExtension>
<gpxtpx:speed>1.03</gpxtpx:speed>
</gpxtpx:TrackPointExtension>
<opentracks:accuracy_horizontal>3.304</opentracks:accuracy_horizontal></extensions>
</trkpt>
<trkpt lat="-32.234254" lon="115.792424">
<ele>-4.6</ele>
<time>2026-06-24T09:48:21.563+08:00</time>
<extensions>
<gpxtpx:TrackPointExtension>
<gpxtpx:speed>1.16</gpxtpx:speed>
</gpxtpx:TrackPointExtension>
<opentracks:accuracy_horizontal>2.557</opentracks:accuracy_horizontal></extensions>
</trkpt>
<trkpt lat="-32.234161" lon="115.792456">
<ele>-5.4</ele>
<time>2026-06-24T09:48:31.564+08:00</time>
<extensions>
<gpxtpx:TrackPointExtension>
<gpxtpx:speed>1.07</gpxtpx:speed>
</gpxtpx:TrackPointExtension>
<opentracks:accuracy_horizontal>2.523</opentracks:accuracy_horizontal></extensions>
</trkpt>
<trkpt lat="-32.234065" lon="115.792473">
<ele>-4.1</ele>
<time>2026-06-24T09:48:41.538+08:00</time>
<extensions>
<gpxtpx:TrackPointExtension>
<gpxtpx:speed>1.09</gpxtpx:speed>
</gpxtpx:TrackPointExtension>
<opentracks:accuracy_horizontal>2.422</opentracks:accuracy_horizontal></extensions>
</trkpt>
<trkpt lat="-32.233985" lon="115.792493">
<ele>-5.5</ele>
<time>2026-06-24T09:48:50.525+08:00</time>
<extensions>
<gpxtpx:TrackPointExtension>
<gpxtpx:speed>1.04</gpxtpx:speed>
</gpxtpx:TrackPointExtension>
<opentracks:accuracy_horizontal>2.355</opentracks:accuracy_horizontal></extensions>
</trkpt>
<trkpt lat="-32.233896" lon="115.792523">
<ele>-6.7</ele>
<time>2026-06-24T09:49:00.541+08:00</time>
<extensions>
<gpxtpx:TrackPointExtension>
<gpxtpx:speed>1.05</gpxtpx:speed>
</gpxtpx:TrackPointExtension>
<opentracks:accuracy_horizontal>2.305</opentracks:accuracy_horizontal></extensions>
</trkpt>
<trkpt lat="-32.233816" lon="115.792545">
<ele>-6.8</ele>
<time>2026-06-24T09:49:10.543+08:00</time>
<extensions>
<gpxtpx:TrackPointExtension>
<gpxtpx:speed>0.85</gpxtpx:speed>
</gpxtpx:TrackPointExtension>
<opentracks:accuracy_horizontal>2.293</opentracks:accuracy_horizontal></extensions>
</trkpt>
<trkpt lat="-32.233727" lon="115.792561">
<ele>-8.7</ele>
<time>2026-06-24T09:50:33.564+08:00</time>
<extensions>
<gpxtpx:TrackPointExtension>
<gpxtpx:speed>1.32</gpxtpx:speed>
</gpxtpx:TrackPointExtension>
<opentracks:accuracy_horizontal>2.263</opentracks:accuracy_horizontal></extensions>
</trkpt>
<trkpt lat="-32.233628" lon="115.792581">
<ele>-8.9</ele>
<time>2026-06-24T09:50:42.556+08:00</time>
<extensions>
<gpxtpx:TrackPointExtension>
<gpxtpx:speed>1.25</gpxtpx:speed>
</gpxtpx:TrackPointExtension>
<opentracks:accuracy_horizontal>2.25</opentracks:accuracy_horizontal></extensions>
</trkpt>
<trkpt lat="-32.233532" lon="115.792598">
<ele>-8.6</ele>
<time>2026-06-24T09:50:51.543+08:00</time>
<extensions>
<gpxtpx:TrackPointExtension>
<gpxtpx:speed>1.22</gpxtpx:speed>
</gpxtpx:TrackPointExtension>
<opentracks:accuracy_horizontal>2.497</opentracks:accuracy_horizontal></extensions>
</trkpt>
<trkpt lat="-32.23344" lon="115.792613">
<ele>-9.6</ele>
<time>2026-06-24T09:51:00.56+08:00</time>
<extensions>
<gpxtpx:TrackPointExtension>
<gpxtpx:speed>1.17</gpxtpx:speed>
</gpxtpx:TrackPointExtension>
<opentracks:accuracy_horizontal>2.529</opentracks:accuracy_horizontal></extensions>
</trkpt>
<trkpt lat="-32.233349" lon="115.792618">
<ele>-9.3</ele>
<time>2026-06-24T09:51:08.557+08:00</time>
<extensions>
<gpxtpx:TrackPointExtension>
<gpxtpx:speed>1.21</gpxtpx:speed>
</gpxtpx:TrackPointExtension>
<opentracks:accuracy_horizontal>2.46</opentracks:accuracy_horizontal></extensions>
</trkpt>
<trkpt lat="-32.23326" lon="115.792634">
<ele>-11.7</ele>
<time>2026-06-24T09:51:17.556+08:00</time>
<extensions>
<gpxtpx:TrackPointExtension>
<gpxtpx:speed>1.16</gpxtpx:speed>
</gpxtpx:TrackPointExtension>
<opentracks:accuracy_horizontal>2.711</opentracks:accuracy_horizontal></extensions>
</trkpt>
<trkpt lat="-32.233166" lon="115.792678">
<ele>-12</ele>
<time>2026-06-24T09:51:27.568+08:00</time>
<extensions>
<gpxtpx:TrackPointExtension>
<gpxtpx:speed>1.11</gpxtpx:speed>
</gpxtpx:TrackPointExtension>
<opentracks:accuracy_horizontal>2.569</opentracks:accuracy_horizontal></extensions>
</trkpt>
<trkpt lat="-32.233074" lon="115.792688">
<ele>-10.8</ele>
<time>2026-06-24T09:51:35.561+08:00</time>
<extensions>
<gpxtpx:TrackPointExtension>
<gpxtpx:speed>1.18</gpxtpx:speed>
</gpxtpx:TrackPointExtension>
<opentracks:accuracy_horizontal>2.772</opentracks:accuracy_horizontal></extensions>
</trkpt>
<trkpt lat="-32.232986" lon="115.792741">
<ele>-10.9</ele>
<time>2026-06-24T09:51:44.57+08:00</time>
<extensions>
<gpxtpx:TrackPointExtension>
<gpxtpx:speed>1.2</gpxtpx:speed>
</gpxtpx:TrackPointExtension>
<opentracks:accuracy_horizontal>2.415</opentracks:accuracy_horizontal></extensions>
</trkpt>
<trkpt lat="-32.232902" lon="115.792797">
<ele>-11.9</ele>
<time>2026-06-24T09:51:53.569+08:00</time>
<extensions>
<gpxtpx:TrackPointExtension>
<gpxtpx:speed>1.19</gpxtpx:speed>
</gpxtpx:TrackPointExtension>
<opentracks:accuracy_horizontal>2.405</opentracks:accuracy_horizontal></extensions>
</trkpt>
<trkpt lat="-32.232831" lon="115.792869">
<ele>-12</ele>
<time>2026-06-24T09:52:02.561+08:00</time>
<extensions>
<gpxtpx:TrackPointExtension>
<gpxtpx:speed>1.15</gpxtpx:speed>
</gpxtpx:TrackPointExtension>
<opentracks:accuracy_horizontal>2.566</opentracks:accuracy_horizontal></extensions>
</trkpt>
<trkpt lat="-32.232753" lon="115.792924">
<ele>-11.4</ele>
<time>2026-06-24T09:52:10.553+08:00</time>
<extensions>
<gpxtpx:TrackPointExtension>
<gpxtpx:speed>1.19</gpxtpx:speed>
</gpxtpx:TrackPointExtension>
<opentracks:accuracy_horizontal>2.503</opentracks:accuracy_horizontal></extensions>
</trkpt>
<trkpt lat="-32.232651" lon="115.792935">
<ele>-13.3</ele>
<time>2026-06-24T09:52:20.564+08:00</time>
<extensions>
<gpxtpx:TrackPointExtension>
<gpxtpx:speed>1.17</gpxtpx:speed>
</gpxtpx:TrackPointExtension>
<opentracks:accuracy_horizontal>2.685</opentracks:accuracy_horizontal></extensions>
</trkpt>
<trkpt lat="-32.232561" lon="115.792947">
<ele>-13.9</ele>
<time>2026-06-24T09:52:28.561+08:00</time>
<extensions>
<gpxtpx:TrackPointExtension>
<gpxtpx:speed>1.22</gpxtpx:speed>
</gpxtpx:TrackPointExtension>
<opentracks:accuracy_horizontal>2.468</opentracks:accuracy_horizontal></extensions>
</trkpt>
<trkpt lat="-32.232482" lon="115.793006">
<ele>-14.6</ele>
<time>2026-06-24T09:52:37.566+08:00</time>
<extensions>
<gpxtpx:TrackPointExtension>
<gpxtpx:speed>1.19</gpxtpx:speed>
</gpxtpx:TrackPointExtension>
<opentracks:accuracy_horizontal>2.424</opentracks:accuracy_horizontal></extensions>
</trkpt>
<trkpt lat="-32.232398" lon="115.793059">
<ele>-14.7</ele>
<time>2026-06-24T09:52:46.544+08:00</time>
<extensions>
<gpxtpx:TrackPointExtension>
<gpxtpx:speed>1.17</gpxtpx:speed>
</gpxtpx:TrackPointExtension>
<opentracks:accuracy_horizontal>2.421</opentracks:accuracy_horizontal></extensions>
</trkpt>
<trkpt lat="-32.23231" lon="115.793086">
<ele>-15.5</ele>
<time>2026-06-24T09:52:54.571+08:00</time>
<extensions>
<gpxtpx:TrackPointExtension>
<gpxtpx:speed>1.2</gpxtpx:speed>
</gpxtpx:TrackPointExtension>
<opentracks:accuracy_horizontal>2.577</opentracks:accuracy_horizontal></extensions>
</trkpt>
<trkpt lat="-32.232213" lon="115.793118">
<ele>-15.9</ele>
<time>2026-06-24T09:53:03.566+08:00</time>
<extensions>
<gpxtpx:TrackPointExtension>
<gpxtpx:speed>1.21</gpxtpx:speed>
</gpxtpx:TrackPointExtension>
<opentracks:accuracy_horizontal>2.405</opentracks:accuracy_horizontal></extensions>
</trkpt>
<trkpt lat="-32.232131" lon="115.79317">
<ele>-16.8</ele>
<time>2026-06-24T09:53:12.565+08:00</time>
<extensions>
<gpxtpx:TrackPointExtension>
<gpxtpx:speed>1.19</gpxtpx:speed>
</gpxtpx:TrackPointExtension>
<opentracks:accuracy_horizontal>2.428</opentracks:accuracy_horizontal></extensions>
</trkpt>
<trkpt lat="-32.232053" lon="115.793229">
<ele>-17.2</ele>
<time>2026-06-24T09:53:20.563+08:00</time>
<extensions>
<gpxtpx:TrackPointExtension>
<gpxtpx:speed>1.2</gpxtpx:speed>
</gpxtpx:TrackPointExtension>
<opentracks:accuracy_horizontal>2.458</opentracks:accuracy_horizontal></extensions>
</trkpt>
<trkpt lat="-32.231969" lon="115.793283">
<ele>-19</ele>
<time>2026-06-24T09:53:29.559+08:00</time>
<extensions>
<gpxtpx:TrackPointExtension>
<gpxtpx:speed>1.18</gpxtpx:speed>
</gpxtpx:TrackPointExtension>
<opentracks:accuracy_horizontal>2.61</opentracks:accuracy_horizontal></extensions>
</trkpt>
<trkpt lat="-32.231891" lon="115.793341">
<ele>-19.2</ele>
<time>2026-06-24T09:53:37.557+08:00</time>
<extensions>
<gpxtpx:TrackPointExtension>
<gpxtpx:speed>1.2</gpxtpx:speed>
</gpxtpx:TrackPointExtension>
<opentracks:accuracy_horizontal>2.417</opentracks:accuracy_horizontal></extensions>
</trkpt>
<trkpt lat="-32.231888" lon="115.793358">
<ele>-18.1</ele>
<time>2026-06-24T09:53:47.563+08:00</time>
<extensions>
<gpxtpx:TrackPointExtension>
<gpxtpx:speed>0.12</gpxtpx:speed>
</gpxtpx:TrackPointExtension>
<opentracks:accuracy_horizontal>2.702</opentracks:accuracy_horizontal></extensions>
</trkpt>
<trkpt lat="-32.231802" lon="115.793392">
<ele>-19.1</ele>
<time>2026-06-24T09:53:56.564+08:00</time>
<extensions>
<gpxtpx:TrackPointExtension>
<gpxtpx:speed>1.08</gpxtpx:speed>
</gpxtpx:TrackPointExtension>
<opentracks:accuracy_horizontal>2.664</opentracks:accuracy_horizontal></extensions>
</trkpt>
<trkpt lat="-32.231732" lon="115.793465">
<ele>-19.4</ele>
<time>2026-06-24T09:54:03.564+08:00</time>
<extensions>
<gpxtpx:TrackPointExtension>
<gpxtpx:speed>1.31</gpxtpx:speed>
</gpxtpx:TrackPointExtension>
<opentracks:accuracy_horizontal>2.73</opentracks:accuracy_horizontal></extensions>
</trkpt>
<trkpt lat="-32.231647" lon="115.793518">
<ele>-18.3</ele>
<time>2026-06-24T09:54:12.569+08:00</time>
<extensions>
<gpxtpx:TrackPointExtension>
<gpxtpx:speed>1.23</gpxtpx:speed>
</gpxtpx:TrackPointExtension>
<opentracks:accuracy_horizontal>2.622</opentracks:accuracy_horizontal></extensions>
</trkpt>
<trkpt lat="-32.231574" lon="115.793585">
<ele>-18.3</ele>
<time>2026-06-24T09:54:20.558+08:00</time>
<extensions>
<gpxtpx:TrackPointExtension>
<gpxtpx:speed>1.24</gpxtpx:speed>
</gpxtpx:TrackPointExtension>
<opentracks:accuracy_horizontal>2.529</opentracks:accuracy_horizontal></extensions>
</trkpt>
<trkpt lat="-32.231507" lon="115.793658">
<ele>-19.5</ele>
<time>2026-06-24T09:54:29.555+08:00</time>
<extensions>
<gpxtpx:TrackPointExtension>
<gpxtpx:speed>1.19</gpxtpx:speed>
</gpxtpx:TrackPointExtension>
<opentracks:accuracy_horizontal>3.043</opentracks:accuracy_horizontal></extensions>
</trkpt>
<trkpt lat="-32.231462" lon="115.793752">
<ele>-19.1</ele>
<time>2026-06-24T09:54:38.575+08:00</time>
<extensions>
<gpxtpx:TrackPointExtension>
<gpxtpx:speed>1.17</gpxtpx:speed>
</gpxtpx:TrackPointExtension>
<opentracks:accuracy_horizontal>2.785</opentracks:accuracy_horizontal></extensions>
</trkpt>
<trkpt lat="-32.231397" lon="115.793833">
<ele>-18.7</ele>
<time>2026-06-24T09:54:47.576+08:00</time>
<extensions>
<gpxtpx:TrackPointExtension>
<gpxtpx:speed>1.16</gpxtpx:speed>
</gpxtpx:TrackPointExtension>
<opentracks:accuracy_horizontal>2.794</opentracks:accuracy_horizontal></extensions>
</trkpt>
<trkpt lat="-32.231373" lon="115.793932">
<ele>-17.4</ele>
<time>2026-06-24T09:54:56.562+08:00</time>
<extensions>
<gpxtpx:TrackPointExtension>
<gpxtpx:speed>1.09</gpxtpx:speed>
</gpxtpx:TrackPointExtension>
<opentracks:accuracy_horizontal>2.753</opentracks:accuracy_horizontal></extensions>
</trkpt>
<trkpt lat="-32.231373" lon="115.794046">
<ele>-18.2</ele>
<time>2026-06-24T09:55:05.579+08:00</time>
<extensions>
<gpxtpx:TrackPointExtension>
<gpxtpx:speed>1.18</gpxtpx:speed>
</gpxtpx:TrackPointExtension>
<opentracks:accuracy_horizontal>2.543</opentracks:accuracy_horizontal></extensions>
</trkpt>
<trkpt lat="-32.231387" lon="115.794144">
<ele>-17.7</ele>
<time>2026-06-24T09:55:13.595+08:00</time>
<extensions>
<gpxtpx:TrackPointExtension>
<gpxtpx:speed>1.18</gpxtpx:speed>
</gpxtpx:TrackPointExtension>
<opentracks:accuracy_horizontal>3.816</opentracks:accuracy_horizontal></extensions>
</trkpt>
<trkpt lat="-32.231436" lon="115.794235">
<ele>-18.9</ele>
<time>2026-06-24T09:55:46.569+08:00</time>
<extensions>
<gpxtpx:TrackPointExtension>
<gpxtpx:speed>1.22</gpxtpx:speed>
</gpxtpx:TrackPointExtension>
<opentracks:accuracy_horizontal>2.773</opentracks:accuracy_horizontal></extensions>
</trkpt>
<trkpt lat="-32.231477" lon="115.794343">
<ele>-20.6</ele>
<time>2026-06-24T09:55:55.556+08:00</time>
<extensions>
<gpxtpx:TrackPointExtension>
<gpxtpx:speed>1.24</gpxtpx:speed>
</gpxtpx:TrackPointExtension>
<opentracks:accuracy_horizontal>2.598</opentracks:accuracy_horizontal></extensions>
</trkpt>
<trkpt lat="-32.231524" lon="115.794445">
<ele>-21.9</ele>
<time>2026-06-24T09:56:04.566+08:00</time>
<extensions>
<gpxtpx:TrackPointExtension>
<gpxtpx:speed>1.22</gpxtpx:speed>
</gpxtpx:TrackPointExtension>
<opentracks:accuracy_horizontal>2.532</opentracks:accuracy_horizontal></extensions>
</trkpt>
<trkpt lat="-32.231554" lon="115.794553">
<ele>-22.8</ele>
<time>2026-06-24T09:56:13.56+08:00</time>
<extensions>
<gpxtpx:TrackPointExtension>
<gpxtpx:speed>1.22</gpxtpx:speed>
</gpxtpx:TrackPointExtension>
<opentracks:accuracy_horizontal>2.425</opentracks:accuracy_horizontal></extensions>
</trkpt>
<trkpt lat="-32.2316" lon="115.794658">
<ele>-24.1</ele>
<time>2026-06-24T09:56:21.557+08:00</time>
<extensions>
<gpxtpx:TrackPointExtension>
<gpxtpx:speed>1.3</gpxtpx:speed>
</gpxtpx:TrackPointExtension>
<opentracks:accuracy_horizontal>2.499</opentracks:accuracy_horizontal></extensions>
</trkpt>
<trkpt lat="-32.231617" lon="115.794776">
<ele>-24.5</ele>
<time>2026-06-24T09:56:30.563+08:00</time>
<extensions>
<gpxtpx:TrackPointExtension>
<gpxtpx:speed>1.27</gpxtpx:speed>
</gpxtpx:TrackPointExtension>
<opentracks:accuracy_horizontal>2.488</opentracks:accuracy_horizontal></extensions>
</trkpt>
<trkpt lat="-32.231665" lon="115.794871">
<ele>-25.2</ele>
<time>2026-06-24T09:56:37.574+08:00</time>
<extensions>
<gpxtpx:TrackPointExtension>
<gpxtpx:speed>1.37</gpxtpx:speed>
</gpxtpx:TrackPointExtension>
<opentracks:accuracy_horizontal>2.463</opentracks:accuracy_horizontal></extensions>
</trkpt>
<trkpt lat="-32.231692" lon="115.794973">
<ele>-25.4</ele>
<time>2026-06-24T09:56:45.556+08:00</time>
<extensions>
<gpxtpx:TrackPointExtension>
<gpxtpx:speed>1.31</gpxtpx:speed>
</gpxtpx:TrackPointExtension>
<opentracks:accuracy_horizontal>2.461</opentracks:accuracy_horizontal></extensions>
</trkpt>
<trkpt lat="-32.231723" lon="115.79508">
<ele>-25.7</ele>
<time>2026-06-24T09:56:53.567+08:00</time>
<extensions>
<gpxtpx:TrackPointExtension>
<gpxtpx:speed>1.33</gpxtpx:speed>
</gpxtpx:TrackPointExtension>
<opentracks:accuracy_horizontal>2.418</opentracks:accuracy_horizontal></extensions>
</trkpt>
<trkpt lat="-32.231772" lon="115.795179">
<ele>-26</ele>
<time>2026-06-24T09:57:01.59+08:00</time>
<extensions>
<gpxtpx:TrackPointExtension>
<gpxtpx:speed>1.32</gpxtpx:speed>
</gpxtpx:TrackPointExtension>
<opentracks:accuracy_horizontal>2.394</opentracks:accuracy_horizontal></extensions>
</trkpt>
<trkpt lat="-32.231819" lon="115.795273">
<ele>-25.6</ele>
<time>2026-06-24T09:57:11.575+08:00</time>
<extensions>
<gpxtpx:TrackPointExtension>
<gpxtpx:speed>1.13</gpxtpx:speed>
</gpxtpx:TrackPointExtension>
<opentracks:accuracy_horizontal>2.596</opentracks:accuracy_horizontal></extensions>
</trkpt>
<trkpt lat="-32.231904" lon="115.795311">
<ele>-25.6</ele>
<time>2026-06-24T09:57:21.566+08:00</time>
<extensions>
<gpxtpx:TrackPointExtension>
<gpxtpx:speed>1.01</gpxtpx:speed>
</gpxtpx:TrackPointExtension>
<opentracks:accuracy_horizontal>2.417</opentracks:accuracy_horizontal></extensions>
</trkpt>
<trkpt lat="-32.231988" lon="115.795362">
<ele>-24</ele>
<time>2026-06-24T09:57:30.562+08:00</time>
<extensions>
<gpxtpx:TrackPointExtension>
<gpxtpx:speed>1.12</gpxtpx:speed>
</gpxtpx:TrackPointExtension>
<opentracks:accuracy_horizontal>2.531</opentracks:accuracy_horizontal></extensions>
</trkpt>
<trkpt lat="-32.232077" lon="115.795404">
<ele>-23.5</ele>
<time>2026-06-24T09:57:38.568+08:00</time>
<extensions>
<gpxtpx:TrackPointExtension>
<gpxtpx:speed>1.24</gpxtpx:speed>
</gpxtpx:TrackPointExtension>
<opentracks:accuracy_horizontal>2.519</opentracks:accuracy_horizontal></extensions>
</trkpt>
<trkpt lat="-32.232166" lon="115.79545">
<ele>-23.5</ele>
<time>2026-06-24T09:57:47.558+08:00</time>
<extensions>
<gpxtpx:TrackPointExtension>
<gpxtpx:speed>1.18</gpxtpx:speed>
</gpxtpx:TrackPointExtension>
<opentracks:accuracy_horizontal>2.505</opentracks:accuracy_horizontal></extensions>
</trkpt>
<trkpt lat="-32.232254" lon="115.795503">
<ele>-24</ele>
<time>2026-06-24T09:57:55.566+08:00</time>
<extensions>
<gpxtpx:TrackPointExtension>
<gpxtpx:speed>1.27</gpxtpx:speed>
</gpxtpx:TrackPointExtension>
<opentracks:accuracy_horizontal>2.436</opentracks:accuracy_horizontal></extensions>
</trkpt>
<trkpt lat="-32.232321" lon="115.79557">
<ele>-24.9</ele>
<time>2026-06-24T09:58:05.571+08:00</time>
<extensions>
<gpxtpx:TrackPointExtension>
<gpxtpx:speed>1.1</gpxtpx:speed>
</gpxtpx:TrackPointExtension>
<opentracks:accuracy_horizontal>2.452</opentracks:accuracy_horizontal></extensions>
</trkpt>
<trkpt lat="-32.232331" lon="115.795685">
<ele>-23.8</ele>
<time>2026-06-24T09:58:13.566+08:00</time>
<extensions>
<gpxtpx:TrackPointExtension>
<gpxtpx:speed>1.21</gpxtpx:speed>
</gpxtpx:TrackPointExtension>
<opentracks:accuracy_horizontal>2.537</opentracks:accuracy_horizontal></extensions>
</trkpt>
<trkpt lat="-32.23236" lon="115.795791">
<ele>-23.8</ele>
<time>2026-06-24T09:58:22.561+08:00</time>
<extensions>
<gpxtpx:TrackPointExtension>
<gpxtpx:speed>1.17</gpxtpx:speed>
</gpxtpx:TrackPointExtension>
<opentracks:accuracy_horizontal>2.681</opentracks:accuracy_horizontal></extensions>
</trkpt>
<trkpt lat="-32.232446" lon="115.795832">
<ele>-23.6</ele>
<time>2026-06-24T09:58:30.574+08:00</time>
<extensions>
<gpxtpx:TrackPointExtension>
<gpxtpx:speed>1.21</gpxtpx:speed>
</gpxtpx:TrackPointExtension>
<opentracks:accuracy_horizontal>2.671</opentracks:accuracy_horizontal></extensions>
</trkpt>
<trkpt lat="-32.232535" lon="115.795884">
<ele>-24.9</ele>
<time>2026-06-24T09:58:38.564+08:00</time>
<extensions>
<gpxtpx:TrackPointExtension>
<gpxtpx:speed>1.28</gpxtpx:speed>
</gpxtpx:TrackPointExtension>
<opentracks:accuracy_horizontal>2.639</opentracks:accuracy_horizontal></extensions>
</trkpt>
<trkpt lat="-32.232613" lon="115.795924">
<ele>-23.8</ele>
<time>2026-06-24T09:58:47.603+08:00</time>
<extensions>
<gpxtpx:TrackPointExtension>
<gpxtpx:speed>1.12</gpxtpx:speed>
</gpxtpx:TrackPointExtension>
<opentracks:accuracy_horizontal>2.553</opentracks:accuracy_horizontal></extensions>
</trkpt>
<trkpt lat="-32.232597" lon="115.79603">
<ele>-22.5</ele>
<time>2026-06-24T09:59:01.562+08:00</time>
<extensions>
<gpxtpx:TrackPointExtension>
<gpxtpx:speed>0.61</gpxtpx:speed>
</gpxtpx:TrackPointExtension>
<opentracks:accuracy_horizontal>2.729</opentracks:accuracy_horizontal></extensions>
</trkpt>
<trkpt lat="-32.232576" lon="115.796142">
<ele>-20.9</ele>
<time>2026-06-24T09:59:11.571+08:00</time>
<extensions>
<gpxtpx:TrackPointExtension>
<gpxtpx:speed>1.15</gpxtpx:speed>
</gpxtpx:TrackPointExtension>
<opentracks:accuracy_horizontal>2.665</opentracks:accuracy_horizontal></extensions>
</trkpt>
<trkpt lat="-32.232563" lon="115.79625">
<ele>-19.7</ele>
<time>2026-06-24T09:59:21.569+08:00</time>
<extensions>
<gpxtpx:TrackPointExtension>
<gpxtpx:speed>1.08</gpxtpx:speed>
</gpxtpx:TrackPointExtension>
<opentracks:accuracy_horizontal>2.532</opentracks:accuracy_horizontal></extensions>
</trkpt>
<trkpt lat="-32.232542" lon="115.796356">
<ele>-18.2</ele>
<time>2026-06-24T09:59:29.57+08:00</time>
<extensions>
<gpxtpx:TrackPointExtension>
<gpxtpx:speed>1.15</gpxtpx:speed>
</gpxtpx:TrackPointExtension>
<opentracks:accuracy_horizontal>2.695</opentracks:accuracy_horizontal></extensions>
</trkpt>
<trkpt lat="-32.232591" lon="115.796426">
<ele>-19.8</ele>
<time>2026-06-24T09:59:39.576+08:00</time>
<extensions>
<gpxtpx:TrackPointExtension>
<gpxtpx:speed>1.14</gpxtpx:speed>
</gpxtpx:TrackPointExtension>
<opentracks:accuracy_horizontal>2.567</opentracks:accuracy_horizontal></extensions>
</trkpt>
<trkpt lat="-32.232588" lon="115.796539">
<ele>-19.9</ele>
<time>2026-06-24T09:59:48.577+08:00</time>
<extensions>
<gpxtpx:TrackPointExtension>
<gpxtpx:speed>1.16</gpxtpx:speed>
</gpxtpx:TrackPointExtension>
<opentracks:accuracy_horizontal>2.51</opentracks:accuracy_horizontal></extensions>
</trkpt>
<trkpt lat="-32.232601" lon="115.796646">
<ele>-20.1</ele>
<time>2026-06-24T09:59:57.565+08:00</time>
<extensions>
<gpxtpx:TrackPointExtension>
<gpxtpx:speed>1.19</gpxtpx:speed>
</gpxtpx:TrackPointExtension>
<opentracks:accuracy_horizontal>2.623</opentracks:accuracy_horizontal></extensions>
</trkpt>
<trkpt lat="-32.23267" lon="115.796722">
<ele>-20.9</ele>
<time>2026-06-24T10:00:05.56+08:00</time>
<extensions>
<gpxtpx:TrackPointExtension>
<gpxtpx:speed>1.23</gpxtpx:speed>
</gpxtpx:TrackPointExtension>
<opentracks:accuracy_horizontal>2.522</opentracks:accuracy_horizontal></extensions>
</trkpt>
<trkpt lat="-32.232692" lon="115.796821">
<ele>-20.9</ele>
<time>2026-06-24T10:00:15.569+08:00</time>
<extensions>
<gpxtpx:TrackPointExtension>
<gpxtpx:speed>1.09</gpxtpx:speed>
</gpxtpx:TrackPointExtension>
<opentracks:accuracy_horizontal>2.397</opentracks:accuracy_horizontal></extensions>
</trkpt>
<trkpt lat="-32.232641" lon="115.796914">
<ele>-21.4</ele>
<time>2026-06-24T10:00:25.58+08:00</time>
<extensions>
<gpxtpx:TrackPointExtension>
<gpxtpx:speed>1.06</gpxtpx:speed>
</gpxtpx:TrackPointExtension>
<opentracks:accuracy_horizontal>2.431</opentracks:accuracy_horizontal></extensions>
</trkpt>
<trkpt lat="-32.23257" lon="115.796986">
<ele>-20.6</ele>
<time>2026-06-24T10:00:34.576+08:00</time>
<extensions>
<gpxtpx:TrackPointExtension>
<gpxtpx:speed>1.07</gpxtpx:speed>
</gpxtpx:TrackPointExtension>
<opentracks:accuracy_horizontal>2.815</opentracks:accuracy_horizontal></extensions>
</trkpt>
<trkpt lat="-32.232541" lon="115.79705">
<ele>-20.9</ele>
<time>2026-06-24T10:00:43.6+08:00</time>
<extensions>
<gpxtpx:TrackPointExtension>
<gpxtpx:speed>1.01</gpxtpx:speed>
</gpxtpx:TrackPointExtension>
<opentracks:accuracy_horizontal>2.901</opentracks:accuracy_horizontal></extensions>
</trkpt>
<trkpt lat="-32.232571" lon="115.797153">
<ele>-21.8</ele>
<time>2026-06-24T10:01:24.604+08:00</time>
<extensions>
<gpxtpx:TrackPointExtension>
<gpxtpx:speed>0.15</gpxtpx:speed>
</gpxtpx:TrackPointExtension>
<opentracks:accuracy_horizontal>2.849</opentracks:accuracy_horizontal></extensions>
</trkpt>
<trkpt lat="-32.232609" lon="115.797151">
<ele>-22.5</ele>
<time>2026-06-24T10:01:34.602+08:00</time>
<extensions>
<gpxtpx:TrackPointExtension>
<gpxtpx:speed>0.31</gpxtpx:speed>
</gpxtpx:TrackPointExtension>
<opentracks:accuracy_horizontal>2.932</opentracks:accuracy_horizontal></extensions>
</trkpt>
<trkpt lat="-32.232558" lon="115.797253">
<ele>-25.3</ele>
<time>2026-06-24T10:03:33.55+08:00</time>
<extensions>
<gpxtpx:TrackPointExtension>
<gpxtpx:speed>1.42</gpxtpx:speed>
</gpxtpx:TrackPointExtension>
<opentracks:accuracy_horizontal>2.816</opentracks:accuracy_horizontal></extensions>
</trkpt>
<trkpt lat="-32.232547" lon="115.797369">
<ele>-26.6</ele>
<time>2026-06-24T10:03:42.57+08:00</time>
<extensions>
<gpxtpx:TrackPointExtension>
<gpxtpx:speed>1.25</gpxtpx:speed>
</gpxtpx:TrackPointExtension>
<opentracks:accuracy_horizontal>2.516</opentracks:accuracy_horizontal></extensions>
</trkpt>
<trkpt lat="-32.232543" lon="115.797485">
<ele>-26.8</ele>
<time>2026-06-24T10:03:51.579+08:00</time>
<extensions>
<gpxtpx:TrackPointExtension>
<gpxtpx:speed>1.25</gpxtpx:speed>
</gpxtpx:TrackPointExtension>
<opentracks:accuracy_horizontal>2.509</opentracks:accuracy_horizontal></extensions>
</trkpt>
<trkpt lat="-32.232552" lon="115.797592">
<ele>-26.5</ele>
<time>2026-06-24T10:03:59.574+08:00</time>
<extensions>
<gpxtpx:TrackPointExtension>
<gpxtpx:speed>1.25</gpxtpx:speed>
</gpxtpx:TrackPointExtension>
<opentracks:accuracy_horizontal>2.529</opentracks:accuracy_horizontal></extensions>
</trkpt>
<trkpt lat="-32.232558" lon="115.797706">
<ele>-27.3</ele>
<time>2026-06-24T10:04:08.571+08:00</time>
<extensions>
<gpxtpx:TrackPointExtension>
<gpxtpx:speed>1.21</gpxtpx:speed>
</gpxtpx:TrackPointExtension>
<opentracks:accuracy_horizontal>2.429</opentracks:accuracy_horizontal></extensions>
</trkpt>
<trkpt lat="-32.232566" lon="115.797821">
<ele>-27.9</ele>
<time>2026-06-24T10:04:17.571+08:00</time>
<extensions>
<gpxtpx:TrackPointExtension>
<gpxtpx:speed>1.19</gpxtpx:speed>
</gpxtpx:TrackPointExtension>
<opentracks:accuracy_horizontal>2.27</opentracks:accuracy_horizontal></extensions>
</trkpt>
<trkpt lat="-32.232558" lon="115.797935">
<ele>-27</ele>
<time>2026-06-24T10:04:25.575+08:00</time>
<extensions>
<gpxtpx:TrackPointExtension>
<gpxtpx:speed>1.28</gpxtpx:speed>
</gpxtpx:TrackPointExtension>
<opentracks:accuracy_horizontal>2.295</opentracks:accuracy_horizontal></extensions>
</trkpt>
<trkpt lat="-32.232571" lon="115.798052">
<ele>-26.2</ele>
<time>2026-06-24T10:04:34.548+08:00</time>
<extensions>
<gpxtpx:TrackPointExtension>
<gpxtpx:speed>1.31</gpxtpx:speed>
</gpxtpx:TrackPointExtension>
<opentracks:accuracy_horizontal>2.178</opentracks:accuracy_horizontal></extensions>
</trkpt>
<trkpt lat="-32.232588" lon="115.798166">
<ele>-25.6</ele>
<time>2026-06-24T10:04:43.559+08:00</time>
<extensions>
<gpxtpx:TrackPointExtension>
<gpxtpx:speed>1.27</gpxtpx:speed>
</gpxtpx:TrackPointExtension>
<opentracks:accuracy_horizontal>2.277</opentracks:accuracy_horizontal></extensions>
</trkpt>
<trkpt lat="-32.232612" lon="115.798275">
<ele>-25.3</ele>
<time>2026-06-24T10:04:52.57+08:00</time>
<extensions>
<gpxtpx:TrackPointExtension>
<gpxtpx:speed>1.23</gpxtpx:speed>
</gpxtpx:TrackPointExtension>
<opentracks:accuracy_horizontal>2.256</opentracks:accuracy_horizontal></extensions>
</trkpt>
<trkpt lat="-32.232635" lon="115.798378">
<ele>-25.2</ele>
<time>2026-06-24T10:05:01.567+08:00</time>
<extensions>
<gpxtpx:TrackPointExtension>
<gpxtpx:speed>1.17</gpxtpx:speed>
</gpxtpx:TrackPointExtension>
<opentracks:accuracy_horizontal>2.187</opentracks:accuracy_horizontal></extensions>
</trkpt>
<trkpt lat="-32.232637" lon="115.798425">
<ele>-26.5</ele>
<time>2026-06-24T10:05:11.564+08:00</time>
<extensions>
<gpxtpx:TrackPointExtension>
<gpxtpx:speed>0.09</gpxtpx:speed>
</gpxtpx:TrackPointExtension>
<opentracks:accuracy_horizontal>2.285</opentracks:accuracy_horizontal></extensions>
</trkpt>
<trkpt lat="-32.232627" lon="115.798537">
<ele>-25.3</ele>
<time>2026-06-24T10:05:36.572+08:00</time>
<extensions>
<gpxtpx:TrackPointExtension>
<gpxtpx:speed>1.12</gpxtpx:speed>
</gpxtpx:TrackPointExtension>
<opentracks:accuracy_horizontal>2.18</opentracks:accuracy_horizontal></extensions>
</trkpt>
<trkpt lat="-32.232618" lon="115.798649">
<ele>-25.8</ele>
<time>2026-06-24T10:05:45.55+08:00</time>
<extensions>
<gpxtpx:TrackPointExtension>
<gpxtpx:speed>1.16</gpxtpx:speed>
</gpxtpx:TrackPointExtension>
<opentracks:accuracy_horizontal>2.187</opentracks:accuracy_horizontal></extensions>
</trkpt>
<trkpt lat="-32.232617" lon="115.798767">
<ele>-26.2</ele>
<time>2026-06-24T10:05:55.551+08:00</time>
<extensions>
<gpxtpx:TrackPointExtension>
<gpxtpx:speed>1.14</gpxtpx:speed>
</gpxtpx:TrackPointExtension>
<opentracks:accuracy_horizontal>2.193</opentracks:accuracy_horizontal></extensions>
</trkpt>
<trkpt lat="-32.232609" lon="115.798803">
<ele>-25.6</ele>
<time>2026-06-24T10:06:05.556+08:00</time>
<extensions>
<gpxtpx:TrackPointExtension>
<gpxtpx:speed>0.09</gpxtpx:speed>
</gpxtpx:TrackPointExtension>
<opentracks:accuracy_horizontal>2.371</opentracks:accuracy_horizontal></extensions>
</trkpt>
<trkpt lat="-32.232589" lon="115.798914">
<ele>-24.7</ele>
<time>2026-06-24T10:06:24.547+08:00</time>
<extensions>
<gpxtpx:TrackPointExtension>
<gpxtpx:speed>1.52</gpxtpx:speed>
</gpxtpx:TrackPointExtension>
<opentracks:accuracy_horizontal>2.395</opentracks:accuracy_horizontal></extensions>
</trkpt>
<trkpt lat="-32.232631" lon="115.799009">
<ele>-24.8</ele>
<time>2026-06-24T10:06:33.571+08:00</time>
<extensions>
<gpxtpx:TrackPointExtension>
<gpxtpx:speed>1.17</gpxtpx:speed>
</gpxtpx:TrackPointExtension>
<opentracks:accuracy_horizontal>2.359</opentracks:accuracy_horizontal></extensions>
</trkpt>
<trkpt lat="-32.232648" lon="115.799102">
<ele>-25.3</ele>
<time>2026-06-24T10:06:43.546+08:00</time>
<extensions>
<gpxtpx:TrackPointExtension>
<gpxtpx:speed>1.03</gpxtpx:speed>
</gpxtpx:TrackPointExtension>
<opentracks:accuracy_horizontal>2.252</opentracks:accuracy_horizontal></extensions>
</trkpt>
<trkpt lat="-32.23264" lon="115.799217">
<ele>-23.5</ele>
<time>2026-06-24T10:07:10.57+08:00</time>
<extensions>
<gpxtpx:TrackPointExtension>
<gpxtpx:speed>1.2</gpxtpx:speed>
</gpxtpx:TrackPointExtension>
<opentracks:accuracy_horizontal>2.198</opentracks:accuracy_horizontal></extensions>
</trkpt>
<trkpt lat="-32.232645" lon="115.799276">
<ele>-24.2</ele>
<time>2026-06-24T10:07:19.566+08:00</time>
<extensions>
<gpxtpx:TrackPointExtension>
<gpxtpx:speed>0.94</gpxtpx:speed>
</gpxtpx:TrackPointExtension>
<opentracks:accuracy_horizontal>2.421</opentracks:accuracy_horizontal></extensions>
</trkpt>
<trkpt lat="-32.232644" lon="115.799168">
<ele>-23</ele>
<time>2026-06-24T10:07:33.57+08:00</time>
<extensions>
<gpxtpx:TrackPointExtension>
<gpxtpx:speed>0.38</gpxtpx:speed>
</gpxtpx:TrackPointExtension>
<opentracks:accuracy_horizontal>2.747</opentracks:accuracy_horizontal></extensions>
</trkpt>
<trkpt lat="-32.232642" lon="115.799216">
<ele>-24.1</ele>
<time>2026-06-24T10:07:42.583+08:00</time>
<extensions>
<gpxtpx:TrackPointExtension>
<gpxtpx:speed>0.47</gpxtpx:speed>
</gpxtpx:TrackPointExtension>
<opentracks:accuracy_horizontal>2.714</opentracks:accuracy_horizontal></extensions>
</trkpt>
<trkpt lat="-32.232633" lon="115.799334">
<ele>-23.3</ele>
<time>2026-06-24T10:07:49.571+08:00</time>
<extensions>
<gpxtpx:TrackPointExtension>
<gpxtpx:speed>1.13</gpxtpx:speed>
</gpxtpx:TrackPointExtension>
<opentracks:accuracy_horizontal>2.785</opentracks:accuracy_horizontal></extensions>
</trkpt>
<trkpt lat="-32.232679" lon="115.799405">
<ele>-23.8</ele>
<time>2026-06-24T10:07:59.578+08:00</time>
<extensions>
<gpxtpx:TrackPointExtension>
<gpxtpx:speed>0.71</gpxtpx:speed>
</gpxtpx:TrackPointExtension>
<opentracks:accuracy_horizontal>2.612</opentracks:accuracy_horizontal></extensions>
</trkpt>
<trkpt lat="-32.23274" lon="115.799497">
<ele>-24.4</ele>
<time>2026-06-24T10:08:19.579+08:00</time>
<extensions>
<gpxtpx:TrackPointExtension>
<gpxtpx:speed>1.17</gpxtpx:speed>
</gpxtpx:TrackPointExtension>
<opentracks:accuracy_horizontal>2.49</opentracks:accuracy_horizontal></extensions>
</trkpt>
<trkpt lat="-32.232717" lon="115.799614">
<ele>-22.4</ele>
<time>2026-06-24T10:08:27.576+08:00</time>
<extensions>
<gpxtpx:TrackPointExtension>
<gpxtpx:speed>1.32</gpxtpx:speed>
</gpxtpx:TrackPointExtension>
<opentracks:accuracy_horizontal>2.473</opentracks:accuracy_horizontal></extensions>
</trkpt>
<trkpt lat="-32.232684" lon="115.799701">
<ele>-22</ele>
<time>2026-06-24T10:08:37.574+08:00</time>
<extensions>
<gpxtpx:TrackPointExtension>
<gpxtpx:speed>1.11</gpxtpx:speed>
</gpxtpx:TrackPointExtension>
<opentracks:accuracy_horizontal>2.657</opentracks:accuracy_horizontal></extensions>
</trkpt>
<trkpt lat="-32.232633" lon="115.799798">
<ele>-20.8</ele>
<time>2026-06-24T10:08:46.576+08:00</time>
<extensions>
<gpxtpx:TrackPointExtension>
<gpxtpx:speed>1.12</gpxtpx:speed>
</gpxtpx:TrackPointExtension>
<opentracks:accuracy_horizontal>2.333</opentracks:accuracy_horizontal></extensions>
</trkpt>
<trkpt lat="-32.232642" lon="115.799897">
<ele>-19.6</ele>
<time>2026-06-24T10:08:56.573+08:00</time>
<extensions>
<gpxtpx:TrackPointExtension>
<gpxtpx:speed>0.99</gpxtpx:speed>
</gpxtpx:TrackPointExtension>
<opentracks:accuracy_horizontal>2.525</opentracks:accuracy_horizontal></extensions>
</trkpt>
<trkpt lat="-32.232674" lon="115.800002">
<ele>-22</ele>
<time>2026-06-24T10:09:05.572+08:00</time>
<extensions>
<gpxtpx:TrackPointExtension>
<gpxtpx:speed>1.11</gpxtpx:speed>
</gpxtpx:TrackPointExtension>
<opentracks:accuracy_horizontal>2.45</opentracks:accuracy_horizontal></extensions>
</trkpt>
<trkpt lat="-32.232744" lon="115.800079">
<ele>-21.9</ele>
<time>2026-06-24T10:09:14.578+08:00</time>
<extensions>
<gpxtpx:TrackPointExtension>
<gpxtpx:speed>1.12</gpxtpx:speed>
</gpxtpx:TrackPointExtension>
<opentracks:accuracy_horizontal>2.367</opentracks:accuracy_horizontal></extensions>
</trkpt>
<trkpt lat="-32.232765" lon="115.800185">
<ele>-21.7</ele>
<time>2026-06-24T10:09:23.583+08:00</time>
<extensions>
<gpxtpx:TrackPointExtension>
<gpxtpx:speed>1.12</gpxtpx:speed>
</gpxtpx:TrackPointExtension>
<opentracks:accuracy_horizontal>2.411</opentracks:accuracy_horizontal></extensions>
</trkpt>
<trkpt lat="-32.232834" lon="115.80025">
<ele>-22.5</ele>
<time>2026-06-24T10:09:33.582+08:00</time>
<extensions>
<gpxtpx:TrackPointExtension>
<gpxtpx:speed>1.06</gpxtpx:speed>
</gpxtpx:TrackPointExtension>
<opentracks:accuracy_horizontal>2.485</opentracks:accuracy_horizontal></extensions>
</trkpt>
<trkpt lat="-32.23274" lon="115.800309">
<ele>-22.2</ele>
<time>2026-06-24T10:10:12.577+08:00</time>
<extensions>
<gpxtpx:TrackPointExtension>
<gpxtpx:speed>1.25</gpxtpx:speed>
</gpxtpx:TrackPointExtension>
<opentracks:accuracy_horizontal>2.296</opentracks:accuracy_horizontal></extensions>
</trkpt>
<trkpt lat="-32.232771" lon="115.800419">
<ele>-22.1</ele>
<time>2026-06-24T10:10:21.561+08:00</time>
<extensions>
<gpxtpx:TrackPointExtension>
<gpxtpx:speed>1.31</gpxtpx:speed>
</gpxtpx:TrackPointExtension>
<opentracks:accuracy_horizontal>2.509</opentracks:accuracy_horizontal></extensions>
</trkpt>
<trkpt lat="-32.232833" lon="115.800499">
<ele>-22.8</ele>
<time>2026-06-24T10:10:29.578+08:00</time>
<extensions>
<gpxtpx:TrackPointExtension>
<gpxtpx:speed>1.28</gpxtpx:speed>
</gpxtpx:TrackPointExtension>
<opentracks:accuracy_horizontal>2.465</opentracks:accuracy_horizontal></extensions>
</trkpt>
<trkpt lat="-32.232869" lon="115.800548">
<ele>-23.3</ele>
<time>2026-06-24T10:10:39.578+08:00</time>
<extensions>
<gpxtpx:TrackPointExtension>
<gpxtpx:speed>0.17</gpxtpx:speed>
</gpxtpx:TrackPointExtension>
<opentracks:accuracy_horizontal>2.495</opentracks:accuracy_horizontal></extensions>
</trkpt>
<trkpt lat="-32.232919" lon="115.800641">
<ele>-23.3</ele>
<time>2026-06-24T10:10:46.581+08:00</time>
<extensions>
<gpxtpx:TrackPointExtension>
<gpxtpx:speed>1.22</gpxtpx:speed>
</gpxtpx:TrackPointExtension>
<opentracks:accuracy_horizontal>2.43</opentracks:accuracy_horizontal></extensions>
</trkpt>
<trkpt lat="-32.232988" lon="115.800718">
<ele>-22</ele>
<time>2026-06-24T10:10:54.578+08:00</time>
<extensions>
<gpxtpx:TrackPointExtension>
<gpxtpx:speed>1.26</gpxtpx:speed>
</gpxtpx:TrackPointExtension>
<opentracks:accuracy_horizontal>2.588</opentracks:accuracy_horizontal></extensions>
</trkpt>
<trkpt lat="-32.233049" lon="115.800802">
<ele>-21.3</ele>
<time>2026-06-24T10:11:03.572+08:00</time>
<extensions>
<gpxtpx:TrackPointExtension>
<gpxtpx:speed>1.17</gpxtpx:speed>
</gpxtpx:TrackPointExtension>
<opentracks:accuracy_horizontal>2.544</opentracks:accuracy_horizontal></extensions>
</trkpt>
<trkpt lat="-32.233098" lon="115.800892">
<ele>-21.8</ele>
<time>2026-06-24T10:11:10.572+08:00</time>
<extensions>
<gpxtpx:TrackPointExtension>
<gpxtpx:speed>1.3</gpxtpx:speed>
</gpxtpx:TrackPointExtension>
<opentracks:accuracy_horizontal>2.793</opentracks:accuracy_horizontal></extensions>
</trkpt>
<trkpt lat="-32.233142" lon="115.800971">
<ele>-22.2</ele>
<time>2026-06-24T10:11:20.576+08:00</time>
<extensions>
<gpxtpx:TrackPointExtension>
<gpxtpx:speed>0.87</gpxtpx:speed>
</gpxtpx:TrackPointExtension>
<opentracks:accuracy_horizontal>2.34</opentracks:accuracy_horizontal></extensions>
</trkpt>
<trkpt lat="-32.233213" lon="115.80104">
<ele>-21.2</ele>
<time>2026-06-24T10:11:33.589+08:00</time>
<extensions>
<gpxtpx:TrackPointExtension>
<gpxtpx:speed>1.22</gpxtpx:speed>
</gpxtpx:TrackPointExtension>
<opentracks:accuracy_horizontal>2.484</opentracks:accuracy_horizontal></extensions>
</trkpt>
<trkpt lat="-32.233266" lon="115.801136">
<ele>-21.8</ele>
<time>2026-06-24T10:11:41.577+08:00</time>
<extensions>
<gpxtpx:TrackPointExtension>
<gpxtpx:speed>1.31</gpxtpx:speed>
</gpxtpx:TrackPointExtension>
<opentracks:accuracy_horizontal>2.473</opentracks:accuracy_horizontal></extensions>
</trkpt>
<trkpt lat="-32.23333" lon="115.80122">
<ele>-21.3</ele>
<time>2026-06-24T10:11:49.575+08:00</time>
<extensions>
<gpxtpx:TrackPointExtension>
<gpxtpx:speed>1.31</gpxtpx:speed>
</gpxtpx:TrackPointExtension>
<opentracks:accuracy_horizontal>2.619</opentracks:accuracy_horizontal></extensions>
</trkpt>
<trkpt lat="-32.233392" lon="115.801309">
<ele>-21.6</ele>
<time>2026-06-24T10:11:57.593+08:00</time>
<extensions>
<gpxtpx:TrackPointExtension>
<gpxtpx:speed>1.29</gpxtpx:speed>
</gpxtpx:TrackPointExtension>
<opentracks:accuracy_horizontal>2.421</opentracks:accuracy_horizontal></extensions>
</trkpt>
<trkpt lat="-32.233433" lon="115.801404">
<ele>-21.4</ele>
<time>2026-06-24T10:12:07.578+08:00</time>
<extensions>
<gpxtpx:TrackPointExtension>
<gpxtpx:speed>1.07</gpxtpx:speed>
</gpxtpx:TrackPointExtension>
<opentracks:accuracy_horizontal>2.573</opentracks:accuracy_horizontal></extensions>
</trkpt>
<trkpt lat="-32.233496" lon="115.801466">
<ele>-23</ele>
<time>2026-06-24T10:12:17.583+08:00</time>
<extensions>
<gpxtpx:TrackPointExtension>
<gpxtpx:speed>1.13</gpxtpx:speed>
</gpxtpx:TrackPointExtension>
<opentracks:accuracy_horizontal>2.576</opentracks:accuracy_horizontal></extensions>
</trkpt>
<trkpt lat="-32.233555" lon="115.801547">
<ele>-21.6</ele>
<time>2026-06-24T10:12:24.578+08:00</time>
<extensions>
<gpxtpx:TrackPointExtension>
<gpxtpx:speed>1.32</gpxtpx:speed>
</gpxtpx:TrackPointExtension>
<opentracks:accuracy_horizontal>2.765</opentracks:accuracy_horizontal></extensions>
</trkpt>
<trkpt lat="-32.233609" lon="115.801643">
<ele>-21.6</ele>
<time>2026-06-24T10:12:33.58+08:00</time>
<extensions>
<gpxtpx:TrackPointExtension>
<gpxtpx:speed>1.23</gpxtpx:speed>
</gpxtpx:TrackPointExtension>
<opentracks:accuracy_horizontal>2.511</opentracks:accuracy_horizontal></extensions>
</trkpt>
<trkpt lat="-32.233672" lon="115.80172">
<ele>-20.2</ele>
<time>2026-06-24T10:12:41.578+08:00</time>
<extensions>
<gpxtpx:TrackPointExtension>
<gpxtpx:speed>1.26</gpxtpx:speed>
</gpxtpx:TrackPointExtension>
<opentracks:accuracy_horizontal>2.592</opentracks:accuracy_horizontal></extensions>
</trkpt>
<trkpt lat="-32.233728" lon="115.801808">
<ele>-22</ele>
<time>2026-06-24T10:12:49.587+08:00</time>
<extensions>
<gpxtpx:TrackPointExtension>
<gpxtpx:speed>1.27</gpxtpx:speed>
</gpxtpx:TrackPointExtension>
<opentracks:accuracy_horizontal>2.787</opentracks:accuracy_horizontal></extensions>
</trkpt>
<trkpt lat="-32.233795" lon="115.801895">
<ele>-22.5</ele>
<time>2026-06-24T10:12:58.605+08:00</time>
<extensions>
<gpxtpx:TrackPointExtension>
<gpxtpx:speed>1.22</gpxtpx:speed>
</gpxtpx:TrackPointExtension>
<opentracks:accuracy_horizontal>2.603</opentracks:accuracy_horizontal></extensions>
</trkpt>
<trkpt lat="-32.233862" lon="115.801975">
<ele>-22.1</ele>
<time>2026-06-24T10:13:06.57+08:00</time>
<extensions>
<gpxtpx:TrackPointExtension>
<gpxtpx:speed>1.23</gpxtpx:speed>
</gpxtpx:TrackPointExtension>
<opentracks:accuracy_horizontal>2.591</opentracks:accuracy_horizontal></extensions>
</trkpt>
<trkpt lat="-32.233871" lon="115.802085">
<ele>-21.6</ele>
<time>2026-06-24T10:13:15.614+08:00</time>
<extensions>
<gpxtpx:TrackPointExtension>
<gpxtpx:speed>1.19</gpxtpx:speed>
</gpxtpx:TrackPointExtension>
<opentracks:accuracy_horizontal>2.507</opentracks:accuracy_horizontal></extensions>
</trkpt>
<trkpt lat="-32.233882" lon="115.802194">
<ele>-20.2</ele>
<time>2026-06-24T10:13:23.621+08:00</time>
<extensions>
<gpxtpx:TrackPointExtension>
<gpxtpx:speed>1.18</gpxtpx:speed>
</gpxtpx:TrackPointExtension>
<opentracks:accuracy_horizontal>2.591</opentracks:accuracy_horizontal></extensions>
</trkpt>
<trkpt lat="-32.233878" lon="115.802313">
<ele>-19.2</ele>
<time>2026-06-24T10:13:32.619+08:00</time>
<extensions>
<gpxtpx:TrackPointExtension>
<gpxtpx:speed>1.15</gpxtpx:speed>
</gpxtpx:TrackPointExtension>
<opentracks:accuracy_horizontal>2.639</opentracks:accuracy_horizontal></extensions>
</trkpt>
<trkpt lat="-32.233874" lon="115.802422">
<ele>-19.1</ele>
<time>2026-06-24T10:13:40.638+08:00</time>
<extensions>
<gpxtpx:TrackPointExtension>
<gpxtpx:speed>1.17</gpxtpx:speed>
</gpxtpx:TrackPointExtension>
<opentracks:accuracy_horizontal>2.659</opentracks:accuracy_horizontal></extensions>
</trkpt>
<trkpt lat="-32.233877" lon="115.802528">
<ele>-18.5</ele>
<time>2026-06-24T10:13:48.576+08:00</time>
<extensions>
<gpxtpx:TrackPointExtension>
<gpxtpx:speed>1.17</gpxtpx:speed>
</gpxtpx:TrackPointExtension>
<opentracks:accuracy_horizontal>2.631</opentracks:accuracy_horizontal></extensions>
</trkpt>
<trkpt lat="-32.233873" lon="115.802642">
<ele>-17.7</ele>
<time>2026-06-24T10:13:57.618+08:00</time>
<extensions>
<gpxtpx:TrackPointExtension>
<gpxtpx:speed>1.12</gpxtpx:speed>
</gpxtpx:TrackPointExtension>
<opentracks:accuracy_horizontal>2.394</opentracks:accuracy_horizontal></extensions>
</trkpt>
<trkpt lat="-32.233873" lon="115.802732">
<ele>-17.4</ele>
<time>2026-06-24T10:14:07.576+08:00</time>
<extensions>
<gpxtpx:TrackPointExtension>
<gpxtpx:speed>1.03</gpxtpx:speed>
</gpxtpx:TrackPointExtension>
<opentracks:accuracy_horizontal>2.499</opentracks:accuracy_horizontal></extensions>
</trkpt>
<trkpt lat="-32.233879" lon="115.802844">
<ele>-16.8</ele>
<time>2026-06-24T10:14:17.566+08:00</time>
<extensions>
<gpxtpx:TrackPointExtension>
<gpxtpx:speed>1.06</gpxtpx:speed>
</gpxtpx:TrackPointExtension>
<opentracks:accuracy_horizontal>2.484</opentracks:accuracy_horizontal></extensions>
</trkpt>
<trkpt lat="-32.233877" lon="115.802966">
<ele>-16.2</ele>
<time>2026-06-24T10:14:26.578+08:00</time>
<extensions>
<gpxtpx:TrackPointExtension>
<gpxtpx:speed>1.14</gpxtpx:speed>
</gpxtpx:TrackPointExtension>
<opentracks:accuracy_horizontal>2.985</opentracks:accuracy_horizontal></extensions>
</trkpt>
<trkpt lat="-32.233872" lon="115.803076">
<ele>-13.5</ele>
<time>2026-06-24T10:14:34.58+08:00</time>
<extensions>
<gpxtpx:TrackPointExtension>
<gpxtpx:speed>1.2</gpxtpx:speed>
</gpxtpx:TrackPointExtension>
<opentracks:accuracy_horizontal>2.671</opentracks:accuracy_horizontal></extensions>
</trkpt>
<trkpt lat="-32.233787" lon="115.803094">
<ele>-13.6</ele>
<time>2026-06-24T10:14:44.598+08:00</time>
<extensions>
<gpxtpx:TrackPointExtension>
<gpxtpx:speed>1.12</gpxtpx:speed>
</gpxtpx:TrackPointExtension>
<opentracks:accuracy_horizontal>2.395</opentracks:accuracy_horizontal></extensions>
</trkpt>
<trkpt lat="-32.233695" lon="115.803058">
<ele>-15.6</ele>
<time>2026-06-24T10:14:56.585+08:00</time>
<extensions>
<gpxtpx:TrackPointExtension>
<gpxtpx:speed>0.48</gpxtpx:speed>
</gpxtpx:TrackPointExtension>
<opentracks:accuracy_horizontal>2.479</opentracks:accuracy_horizontal></extensions>
</trkpt>
<trkpt lat="-32.233647" lon="115.803074">
<ele>-15.9</ele>
<time>2026-06-24T10:15:06.595+08:00</time>
<extensions>
<gpxtpx:TrackPointExtension>
<gpxtpx:speed>0.06</gpxtpx:speed>
</gpxtpx:TrackPointExtension>
<opentracks:accuracy_horizontal>2.546</opentracks:accuracy_horizontal></extensions>
</trkpt>
<trkpt lat="-32.233557" lon="115.803106">
<ele>-16.7</ele>
<time>2026-06-24T10:15:19.593+08:00</time>
<extensions>
<gpxtpx:TrackPointExtension>
<gpxtpx:speed>0.38</gpxtpx:speed>
</gpxtpx:TrackPointExtension>
<opentracks:accuracy_horizontal>2.419</opentracks:accuracy_horizontal></extensions>
</trkpt>
<trkpt lat="-32.233464" lon="115.803108">
<ele>-16.4</ele>
<time>2026-06-24T10:15:26.582+08:00</time>
<extensions>
<gpxtpx:TrackPointExtension>
<gpxtpx:speed>1.22</gpxtpx:speed>
</gpxtpx:TrackPointExtension>
<opentracks:accuracy_horizontal>2.402</opentracks:accuracy_horizontal></extensions>
</trkpt>
<trkpt lat="-32.233371" lon="115.803128">
<ele>-14.8</ele>
<time>2026-06-24T10:15:35.573+08:00</time>
<extensions>
<gpxtpx:TrackPointExtension>
<gpxtpx:speed>1.18</gpxtpx:speed>
</gpxtpx:TrackPointExtension>
<opentracks:accuracy_horizontal>2.484</opentracks:accuracy_horizontal></extensions>
</trkpt>
<trkpt lat="-32.233281" lon="115.803117">
<ele>-15.8</ele>
<time>2026-06-24T10:15:43.586+08:00</time>
<extensions>
<gpxtpx:TrackPointExtension>
<gpxtpx:speed>1.19</gpxtpx:speed>
</gpxtpx:TrackPointExtension>
<opentracks:accuracy_horizontal>2.441</opentracks:accuracy_horizontal></extensions>
</trkpt>
<trkpt lat="-32.233241" lon="115.803067">
<ele>-15.1</ele>
<time>2026-06-24T10:15:53.588+08:00</time>
<extensions>
<gpxtpx:TrackPointExtension>
<gpxtpx:speed>0.57</gpxtpx:speed>
</gpxtpx:TrackPointExtension>
<opentracks:accuracy_horizontal>2.558</opentracks:accuracy_horizontal></extensions>
</trkpt>
<trkpt lat="-32.233236" lon="115.802953">
<ele>-16.3</ele>
<time>2026-06-24T10:16:13.623+08:00</time>
<extensions>
<gpxtpx:TrackPointExtension>
<gpxtpx:speed>0.8</gpxtpx:speed>
</gpxtpx:TrackPointExtension>
<opentracks:accuracy_horizontal>2.543</opentracks:accuracy_horizontal></extensions>
</trkpt>
<trkpt lat="-32.233222" lon="115.802868">
<ele>-13.5</ele>
<time>2026-06-24T10:16:23.583+08:00</time>
<extensions>
<gpxtpx:TrackPointExtension>
<gpxtpx:speed>0.05</gpxtpx:speed>
</gpxtpx:TrackPointExtension>
<opentracks:accuracy_horizontal>2.752</opentracks:accuracy_horizontal></extensions>
</trkpt>
<trkpt lat="-32.233312" lon="115.802896">
<ele>-15.2</ele>
<time>2026-06-24T10:17:33.62+08:00</time>
<extensions>
<gpxtpx:TrackPointExtension>
<gpxtpx:speed>0.19</gpxtpx:speed>
</gpxtpx:TrackPointExtension>
<opentracks:accuracy_horizontal>3.325</opentracks:accuracy_horizontal></extensions>
</trkpt>
<trkpt lat="-32.233284" lon="115.802912">
<ele>-15.8</ele>
<time>2026-06-24T10:17:43.608+08:00</time>
<extensions>
<gpxtpx:TrackPointExtension>
<gpxtpx:speed>0.01</gpxtpx:speed>
</gpxtpx:TrackPointExtension>
<opentracks:accuracy_horizontal>3.447</opentracks:accuracy_horizontal></extensions>
</trkpt>
<trkpt lat="-32.233282" lon="115.802907">
<ele>-15.9</ele>
<time>2026-06-24T10:17:45.602+08:00</time>
<extensions>
<gpxtpx:TrackPointExtension>
<gpxtpx:speed>0.22</gpxtpx:speed>
</gpxtpx:TrackPointExtension>
<opentracks:accuracy_horizontal>3.533</opentracks:accuracy_horizontal></extensions>
</trkpt>
</trkseg>
</trk>
</gpx>
