<?xml version="1.0" encoding="UTF-8"?>
<gpx
version="1.1"
creator="OpenTracks"
xmlns="http://www.topografix.com/GPX/1/1"
xmlns:topografix="http://www.topografix.com/GPX/Private/TopoGrafix/0/1"
xmlns:xsi="http://www.w3.org/2001/XMLSchema-instance"
xmlns:opentracks="http://opentracksapp.com/xmlschemas/v1"
xmlns:gpxtpx="http://www.garmin.com/xmlschemas/TrackPointExtension/v2"
xmlns:gpxtrkx="http://www.garmin.com/xmlschemas/TrackStatsExtension/v1"
xmlns:cluetrust="http://www.cluetrust.com/Schemas/"
xmlns:pwr="http://www.garmin.com/xmlschemas/PowerExtension/v1"
xsi:schemaLocation="http://www.topografix.com/GPX/1/1 http://www.topografix.com/GPX/1/1/gpx.xsd http://www.topografix.com/GPX/Private/TopoGrafix/0/1 http://www.topografix.com/GPX/Private/TopoGrafix/0/1/topografix.xsd http://www.garmin.com/xmlschemas/TrackPointExtension/v2 https://www8.garmin.com/xmlschemas/TrackPointExtensionv2.xsd http://www.garmin.com/xmlschemas/PowerExtension/v1 https://www8.garmin.com/xmlschemas/PowerExtensionv1.xsd http://www.garmin.com/xmlschemas/TrackStatsExtension/v1 https://www8.garmin.com/xmlschemas/TrackStatsExtension.xsd http://www.cluetrust.com/Schemas https://www.cluetrust.com/Schemas/gpxdata10.xsd http://opentracksapp.com/xmlschemas/v1 http://opentracksapp.com/xmlschemas/OpenTracks_v1.xsd">
<trk>
<name><![CDATA[2026-06-23T08:46+08]]></name>
<desc><![CDATA[]]></desc>
<type><![CDATA[cycling]]></type>
<extensions>
<topografix:color>c0c0c0</topografix:color>
<opentracks:trackid>a18cd227-eb96-49c4-89ce-57f59326c75a</opentracks:trackid>
<opentracks:typeTranslated><![CDATA[cycling]]></opentracks:typeTranslated>
<gpxtrkx:TrackStatsExtension>
<gpxtrkx:Distance>2705.868408203125</gpxtrkx:Distance>
<gpxtrkx:TimerTime>3658</gpxtrkx:TimerTime>
<gpxtrkx:MovingTime>1945</gpxtrkx:MovingTime>
<gpxtrkx:StoppedTime>1712</gpxtrkx:StoppedTime>
<gpxtrkx:MaxSpeed>1.440935730934143</gpxtrkx:MaxSpeed>
</gpxtrkx:TrackStatsExtension>
</extensions>
<trkseg>
<trkpt lat="-32.233151" lon="115.803263">
<ele>-27.1</ele>
<time>2026-06-23T08:46:04.188+08:00</time>
<extensions>
<gpxtpx:TrackPointExtension>
<gpxtpx:speed>0</gpxtpx:speed>
</gpxtpx:TrackPointExtension>
<opentracks:accuracy_horizontal>11.611</opentracks:accuracy_horizontal></extensions>
</trkpt>
<trkpt lat="-32.233231" lon="115.803149">
<ele>-8.1</ele>
<time>2026-06-23T08:46:05.207+08:00</time>
<extensions>
<gpxtpx:TrackPointExtension>
<gpxtpx:speed>0</gpxtpx:speed>
</gpxtpx:TrackPointExtension>
<opentracks:accuracy_horizontal>7.358</opentracks:accuracy_horizontal></extensions>
</trkpt>
<trkpt lat="-32.23331" lon="115.803154">
<ele>-22.8</ele>
<time>2026-06-23T08:46:14.256+08:00</time>
<extensions>
<gpxtpx:TrackPointExtension>
<gpxtpx:speed>0.92</gpxtpx:speed>
</gpxtpx:TrackPointExtension>
<opentracks:accuracy_horizontal>2.439</opentracks:accuracy_horizontal></extensions>
</trkpt>
<trkpt lat="-32.233399" lon="115.803136">
<ele>-18</ele>
<time>2026-06-23T08:46:22.233+08:00</time>
<extensions>
<gpxtpx:TrackPointExtension>
<gpxtpx:speed>1.33</gpxtpx:speed>
</gpxtpx:TrackPointExtension>
<opentracks:accuracy_horizontal>2.271</opentracks:accuracy_horizontal></extensions>
</trkpt>
<trkpt lat="-32.233502" lon="115.803132">
<ele>-17.6</ele>
<time>2026-06-23T08:46:30.268+08:00</time>
<extensions>
<gpxtpx:TrackPointExtension>
<gpxtpx:speed>1.41</gpxtpx:speed>
</gpxtpx:TrackPointExtension>
<opentracks:accuracy_horizontal>3.164</opentracks:accuracy_horizontal></extensions>
</trkpt>
<trkpt lat="-32.233602" lon="115.803141">
<ele>-17.2</ele>
<time>2026-06-23T08:46:38.254+08:00</time>
<extensions>
<gpxtpx:TrackPointExtension>
<gpxtpx:speed>1.34</gpxtpx:speed>
</gpxtpx:TrackPointExtension>
<opentracks:accuracy_horizontal>3.431</opentracks:accuracy_horizontal></extensions>
</trkpt>
<trkpt lat="-32.233699" lon="115.803145">
<ele>-17.5</ele>
<time>2026-06-23T08:46:46.262+08:00</time>
<extensions>
<gpxtpx:TrackPointExtension>
<gpxtpx:speed>1.31</gpxtpx:speed>
</gpxtpx:TrackPointExtension>
<opentracks:accuracy_horizontal>3.568</opentracks:accuracy_horizontal></extensions>
</trkpt>
<trkpt lat="-32.2338" lon="115.80315">
<ele>-18.5</ele>
<time>2026-06-23T08:46:54.265+08:00</time>
<extensions>
<gpxtpx:TrackPointExtension>
<gpxtpx:speed>1.34</gpxtpx:speed>
</gpxtpx:TrackPointExtension>
<opentracks:accuracy_horizontal>3.375</opentracks:accuracy_horizontal></extensions>
</trkpt>
<trkpt lat="-32.233896" lon="115.803131">
<ele>-20.6</ele>
<time>2026-06-23T08:47:03.262+08:00</time>
<extensions>
<gpxtpx:TrackPointExtension>
<gpxtpx:speed>1.25</gpxtpx:speed>
</gpxtpx:TrackPointExtension>
<opentracks:accuracy_horizontal>2.986</opentracks:accuracy_horizontal></extensions>
</trkpt>
<trkpt lat="-32.233905" lon="115.803022">
<ele>-21.4</ele>
<time>2026-06-23T08:47:11.266+08:00</time>
<extensions>
<gpxtpx:TrackPointExtension>
<gpxtpx:speed>1.28</gpxtpx:speed>
</gpxtpx:TrackPointExtension>
<opentracks:accuracy_horizontal>3.13</opentracks:accuracy_horizontal></extensions>
</trkpt>
<trkpt lat="-32.2339" lon="115.802906">
<ele>-21.8</ele>
<time>2026-06-23T08:47:20.271+08:00</time>
<extensions>
<gpxtpx:TrackPointExtension>
<gpxtpx:speed>1.23</gpxtpx:speed>
</gpxtpx:TrackPointExtension>
<opentracks:accuracy_horizontal>3.463</opentracks:accuracy_horizontal></extensions>
</trkpt>
<trkpt lat="-32.233901" lon="115.802804">
<ele>-21.4</ele>
<time>2026-06-23T08:47:30.255+08:00</time>
<extensions>
<gpxtpx:TrackPointExtension>
<gpxtpx:speed>1.08</gpxtpx:speed>
</gpxtpx:TrackPointExtension>
<opentracks:accuracy_horizontal>3.654</opentracks:accuracy_horizontal></extensions>
</trkpt>
<trkpt lat="-32.233898" lon="115.802697">
<ele>-23.3</ele>
<time>2026-06-23T08:47:44.253+08:00</time>
<extensions>
<gpxtpx:TrackPointExtension>
<gpxtpx:speed>1.12</gpxtpx:speed>
</gpxtpx:TrackPointExtension>
<opentracks:accuracy_horizontal>3.648</opentracks:accuracy_horizontal></extensions>
</trkpt>
<trkpt lat="-32.233897" lon="115.80259">
<ele>-23.5</ele>
<time>2026-06-23T08:47:52.262+08:00</time>
<extensions>
<gpxtpx:TrackPointExtension>
<gpxtpx:speed>1.21</gpxtpx:speed>
</gpxtpx:TrackPointExtension>
<opentracks:accuracy_horizontal>3.627</opentracks:accuracy_horizontal></extensions>
</trkpt>
<trkpt lat="-32.233896" lon="115.802483">
<ele>-22.5</ele>
<time>2026-06-23T08:48:02.264+08:00</time>
<extensions>
<gpxtpx:TrackPointExtension>
<gpxtpx:speed>1.07</gpxtpx:speed>
</gpxtpx:TrackPointExtension>
<opentracks:accuracy_horizontal>3.633</opentracks:accuracy_horizontal></extensions>
</trkpt>
<trkpt lat="-32.233894" lon="115.802375">
<ele>-22.5</ele>
<time>2026-06-23T08:48:11.272+08:00</time>
<extensions>
<gpxtpx:TrackPointExtension>
<gpxtpx:speed>1.08</gpxtpx:speed>
</gpxtpx:TrackPointExtension>
<opentracks:accuracy_horizontal>3.55</opentracks:accuracy_horizontal></extensions>
</trkpt>
<trkpt lat="-32.233894" lon="115.802297">
<ele>-20.4</ele>
<time>2026-06-23T08:48:21.269+08:00</time>
<extensions>
<gpxtpx:TrackPointExtension>
<gpxtpx:speed>0.13</gpxtpx:speed>
</gpxtpx:TrackPointExtension>
<opentracks:accuracy_horizontal>2.484</opentracks:accuracy_horizontal></extensions>
</trkpt>
<trkpt lat="-32.233893" lon="115.802184">
<ele>-21.5</ele>
<time>2026-06-23T08:48:32.267+08:00</time>
<extensions>
<gpxtpx:TrackPointExtension>
<gpxtpx:speed>0.96</gpxtpx:speed>
</gpxtpx:TrackPointExtension>
<opentracks:accuracy_horizontal>3.35</opentracks:accuracy_horizontal></extensions>
</trkpt>
<trkpt lat="-32.233891" lon="115.802061">
<ele>-22.8</ele>
<time>2026-06-23T08:48:41.265+08:00</time>
<extensions>
<gpxtpx:TrackPointExtension>
<gpxtpx:speed>1.15</gpxtpx:speed>
</gpxtpx:TrackPointExtension>
<opentracks:accuracy_horizontal>3.349</opentracks:accuracy_horizontal></extensions>
</trkpt>
<trkpt lat="-32.233886" lon="115.80201">
<ele>-22.5</ele>
<time>2026-06-23T08:48:51.271+08:00</time>
<extensions>
<gpxtpx:TrackPointExtension>
<gpxtpx:speed>0.04</gpxtpx:speed>
</gpxtpx:TrackPointExtension>
<opentracks:accuracy_horizontal>2.233</opentracks:accuracy_horizontal></extensions>
</trkpt>
<trkpt lat="-32.233834" lon="115.801913">
<ele>-23.8</ele>
<time>2026-06-23T08:49:11.269+08:00</time>
<extensions>
<gpxtpx:TrackPointExtension>
<gpxtpx:speed>1.04</gpxtpx:speed>
</gpxtpx:TrackPointExtension>
<opentracks:accuracy_horizontal>2.885</opentracks:accuracy_horizontal></extensions>
</trkpt>
<trkpt lat="-32.233772" lon="115.801822">
<ele>-25.4</ele>
<time>2026-06-23T08:49:21.274+08:00</time>
<extensions>
<gpxtpx:TrackPointExtension>
<gpxtpx:speed>1.09</gpxtpx:speed>
</gpxtpx:TrackPointExtension>
<opentracks:accuracy_horizontal>2.929</opentracks:accuracy_horizontal></extensions>
</trkpt>
<trkpt lat="-32.233757" lon="115.801746">
<ele>-24.8</ele>
<time>2026-06-23T08:49:31.27+08:00</time>
<extensions>
<gpxtpx:TrackPointExtension>
<gpxtpx:speed>0.2</gpxtpx:speed>
</gpxtpx:TrackPointExtension>
<opentracks:accuracy_horizontal>2.544</opentracks:accuracy_horizontal></extensions>
</trkpt>
<trkpt lat="-32.233776" lon="115.801639">
<ele>-25.6</ele>
<time>2026-06-23T08:50:28.278+08:00</time>
<extensions>
<gpxtpx:TrackPointExtension>
<gpxtpx:speed>1.11</gpxtpx:speed>
</gpxtpx:TrackPointExtension>
<opentracks:accuracy_horizontal>3.642</opentracks:accuracy_horizontal></extensions>
</trkpt>
<trkpt lat="-32.233816" lon="115.801537">
<ele>-25.3</ele>
<time>2026-06-23T08:50:36.268+08:00</time>
<extensions>
<gpxtpx:TrackPointExtension>
<gpxtpx:speed>1.23</gpxtpx:speed>
</gpxtpx:TrackPointExtension>
<opentracks:accuracy_horizontal>4.097</opentracks:accuracy_horizontal></extensions>
</trkpt>
<trkpt lat="-32.233882" lon="115.801447">
<ele>-26.4</ele>
<time>2026-06-23T08:50:43.28+08:00</time>
<extensions>
<gpxtpx:TrackPointExtension>
<gpxtpx:speed>1.36</gpxtpx:speed>
</gpxtpx:TrackPointExtension>
<opentracks:accuracy_horizontal>3.714</opentracks:accuracy_horizontal></extensions>
</trkpt>
<trkpt lat="-32.233935" lon="115.801349">
<ele>-26</ele>
<time>2026-06-23T08:50:51.279+08:00</time>
<extensions>
<gpxtpx:TrackPointExtension>
<gpxtpx:speed>1.35</gpxtpx:speed>
</gpxtpx:TrackPointExtension>
<opentracks:accuracy_horizontal>3.418</opentracks:accuracy_horizontal></extensions>
</trkpt>
<trkpt lat="-32.233941" lon="115.801233">
<ele>-26.5</ele>
<time>2026-06-23T08:51:00.267+08:00</time>
<extensions>
<gpxtpx:TrackPointExtension>
<gpxtpx:speed>1.28</gpxtpx:speed>
</gpxtpx:TrackPointExtension>
<opentracks:accuracy_horizontal>3.253</opentracks:accuracy_horizontal></extensions>
</trkpt>
<trkpt lat="-32.233935" lon="115.801224">
<ele>-27.4</ele>
<time>2026-06-23T08:51:10.269+08:00</time>
<extensions>
<gpxtpx:TrackPointExtension>
<gpxtpx:speed>0.22</gpxtpx:speed>
</gpxtpx:TrackPointExtension>
<opentracks:accuracy_horizontal>2.294</opentracks:accuracy_horizontal></extensions>
</trkpt>
<trkpt lat="-32.233938" lon="115.801112">
<ele>-27.8</ele>
<time>2026-06-23T08:51:31.271+08:00</time>
<extensions>
<gpxtpx:TrackPointExtension>
<gpxtpx:speed>1.16</gpxtpx:speed>
</gpxtpx:TrackPointExtension>
<opentracks:accuracy_horizontal>3.738</opentracks:accuracy_horizontal></extensions>
</trkpt>
<trkpt lat="-32.233949" lon="115.801006">
<ele>-27.4</ele>
<time>2026-06-23T08:51:39.266+08:00</time>
<extensions>
<gpxtpx:TrackPointExtension>
<gpxtpx:speed>1.21</gpxtpx:speed>
</gpxtpx:TrackPointExtension>
<opentracks:accuracy_horizontal>3.77</opentracks:accuracy_horizontal></extensions>
</trkpt>
<trkpt lat="-32.233952" lon="115.800886">
<ele>-27.1</ele>
<time>2026-06-23T08:51:48.273+08:00</time>
<extensions>
<gpxtpx:TrackPointExtension>
<gpxtpx:speed>1.22</gpxtpx:speed>
</gpxtpx:TrackPointExtension>
<opentracks:accuracy_horizontal>3.608</opentracks:accuracy_horizontal></extensions>
</trkpt>
<trkpt lat="-32.233947" lon="115.800771">
<ele>-26.7</ele>
<time>2026-06-23T08:51:56.275+08:00</time>
<extensions>
<gpxtpx:TrackPointExtension>
<gpxtpx:speed>1.26</gpxtpx:speed>
</gpxtpx:TrackPointExtension>
<opentracks:accuracy_horizontal>3.398</opentracks:accuracy_horizontal></extensions>
</trkpt>
<trkpt lat="-32.233951" lon="115.800656">
<ele>-26.7</ele>
<time>2026-06-23T08:52:05.283+08:00</time>
<extensions>
<gpxtpx:TrackPointExtension>
<gpxtpx:speed>1.23</gpxtpx:speed>
</gpxtpx:TrackPointExtension>
<opentracks:accuracy_horizontal>3.196</opentracks:accuracy_horizontal></extensions>
</trkpt>
<trkpt lat="-32.233948" lon="115.800624">
<ele>-26.2</ele>
<time>2026-06-23T08:52:15.271+08:00</time>
<extensions>
<gpxtpx:TrackPointExtension>
<gpxtpx:speed>0.04</gpxtpx:speed>
</gpxtpx:TrackPointExtension>
<opentracks:accuracy_horizontal>2.225</opentracks:accuracy_horizontal></extensions>
</trkpt>
<trkpt lat="-32.233938" lon="115.800508">
<ele>-27.1</ele>
<time>2026-06-23T08:52:35.269+08:00</time>
<extensions>
<gpxtpx:TrackPointExtension>
<gpxtpx:speed>1.35</gpxtpx:speed>
</gpxtpx:TrackPointExtension>
<opentracks:accuracy_horizontal>3.671</opentracks:accuracy_horizontal></extensions>
</trkpt>
<trkpt lat="-32.233943" lon="115.800389">
<ele>-27.4</ele>
<time>2026-06-23T08:52:43.282+08:00</time>
<extensions>
<gpxtpx:TrackPointExtension>
<gpxtpx:speed>1.34</gpxtpx:speed>
</gpxtpx:TrackPointExtension>
<opentracks:accuracy_horizontal>3.421</opentracks:accuracy_horizontal></extensions>
</trkpt>
<trkpt lat="-32.233938" lon="115.800312">
<ele>-25.9</ele>
<time>2026-06-23T08:52:53.274+08:00</time>
<extensions>
<gpxtpx:TrackPointExtension>
<gpxtpx:speed>0.14</gpxtpx:speed>
</gpxtpx:TrackPointExtension>
<opentracks:accuracy_horizontal>2.848</opentracks:accuracy_horizontal></extensions>
</trkpt>
<trkpt lat="-32.234025" lon="115.800261">
<ele>-25.8</ele>
<time>2026-06-23T08:53:15.275+08:00</time>
<extensions>
<gpxtpx:TrackPointExtension>
<gpxtpx:speed>1.33</gpxtpx:speed>
</gpxtpx:TrackPointExtension>
<opentracks:accuracy_horizontal>3.117</opentracks:accuracy_horizontal></extensions>
</trkpt>
<trkpt lat="-32.234011" lon="115.80014">
<ele>-26.1</ele>
<time>2026-06-23T08:53:25.281+08:00</time>
<extensions>
<gpxtpx:TrackPointExtension>
<gpxtpx:speed>1.28</gpxtpx:speed>
</gpxtpx:TrackPointExtension>
<opentracks:accuracy_horizontal>3.225</opentracks:accuracy_horizontal></extensions>
</trkpt>
<trkpt lat="-32.233969" lon="115.800041">
<ele>-26.4</ele>
<time>2026-06-23T08:53:32.275+08:00</time>
<extensions>
<gpxtpx:TrackPointExtension>
<gpxtpx:speed>1.35</gpxtpx:speed>
</gpxtpx:TrackPointExtension>
<opentracks:accuracy_horizontal>2.785</opentracks:accuracy_horizontal></extensions>
</trkpt>
<trkpt lat="-32.233933" lon="115.799938">
<ele>-26.1</ele>
<time>2026-06-23T08:53:41.261+08:00</time>
<extensions>
<gpxtpx:TrackPointExtension>
<gpxtpx:speed>1.24</gpxtpx:speed>
</gpxtpx:TrackPointExtension>
<opentracks:accuracy_horizontal>2.989</opentracks:accuracy_horizontal></extensions>
</trkpt>
<trkpt lat="-32.233882" lon="115.799842">
<ele>-26</ele>
<time>2026-06-23T08:53:49.275+08:00</time>
<extensions>
<gpxtpx:TrackPointExtension>
<gpxtpx:speed>1.28</gpxtpx:speed>
</gpxtpx:TrackPointExtension>
<opentracks:accuracy_horizontal>3.262</opentracks:accuracy_horizontal></extensions>
</trkpt>
<trkpt lat="-32.233845" lon="115.79973">
<ele>-26.3</ele>
<time>2026-06-23T08:53:58.257+08:00</time>
<extensions>
<gpxtpx:TrackPointExtension>
<gpxtpx:speed>1.25</gpxtpx:speed>
</gpxtpx:TrackPointExtension>
<opentracks:accuracy_horizontal>3.122</opentracks:accuracy_horizontal></extensions>
</trkpt>
<trkpt lat="-32.233812" lon="115.799631">
<ele>-27.4</ele>
<time>2026-06-23T08:54:06.275+08:00</time>
<extensions>
<gpxtpx:TrackPointExtension>
<gpxtpx:speed>1.22</gpxtpx:speed>
</gpxtpx:TrackPointExtension>
<opentracks:accuracy_horizontal>3.291</opentracks:accuracy_horizontal></extensions>
</trkpt>
<trkpt lat="-32.233774" lon="115.799552">
<ele>-28.2</ele>
<time>2026-06-23T08:54:16.275+08:00</time>
<extensions>
<gpxtpx:TrackPointExtension>
<gpxtpx:speed>1.06</gpxtpx:speed>
</gpxtpx:TrackPointExtension>
<opentracks:accuracy_horizontal>3.186</opentracks:accuracy_horizontal></extensions>
</trkpt>
<trkpt lat="-32.233735" lon="115.799449">
<ele>-28.7</ele>
<time>2026-06-23T08:54:24.279+08:00</time>
<extensions>
<gpxtpx:TrackPointExtension>
<gpxtpx:speed>1.24</gpxtpx:speed>
</gpxtpx:TrackPointExtension>
<opentracks:accuracy_horizontal>3.227</opentracks:accuracy_horizontal></extensions>
</trkpt>
<trkpt lat="-32.233696" lon="115.799347">
<ele>-28</ele>
<time>2026-06-23T08:54:33.275+08:00</time>
<extensions>
<gpxtpx:TrackPointExtension>
<gpxtpx:speed>1.19</gpxtpx:speed>
</gpxtpx:TrackPointExtension>
<opentracks:accuracy_horizontal>3.045</opentracks:accuracy_horizontal></extensions>
</trkpt>
<trkpt lat="-32.233695" lon="115.799336">
<ele>-28.9</ele>
<time>2026-06-23T08:54:43.271+08:00</time>
<extensions>
<gpxtpx:TrackPointExtension>
<gpxtpx:speed>0.03</gpxtpx:speed>
</gpxtpx:TrackPointExtension>
<opentracks:accuracy_horizontal>2.096</opentracks:accuracy_horizontal></extensions>
</trkpt>
<trkpt lat="-32.233777" lon="115.799288">
<ele>-28.4</ele>
<time>2026-06-23T08:55:00.278+08:00</time>
<extensions>
<gpxtpx:TrackPointExtension>
<gpxtpx:speed>1.23</gpxtpx:speed>
</gpxtpx:TrackPointExtension>
<opentracks:accuracy_horizontal>3.377</opentracks:accuracy_horizontal></extensions>
</trkpt>
<trkpt lat="-32.233866" lon="115.799243">
<ele>-27.6</ele>
<time>2026-06-23T08:55:08.277+08:00</time>
<extensions>
<gpxtpx:TrackPointExtension>
<gpxtpx:speed>1.26</gpxtpx:speed>
</gpxtpx:TrackPointExtension>
<opentracks:accuracy_horizontal>3.235</opentracks:accuracy_horizontal></extensions>
</trkpt>
<trkpt lat="-32.233949" lon="115.799196">
<ele>-26.8</ele>
<time>2026-06-23T08:55:16.274+08:00</time>
<extensions>
<gpxtpx:TrackPointExtension>
<gpxtpx:speed>1.24</gpxtpx:speed>
</gpxtpx:TrackPointExtension>
<opentracks:accuracy_horizontal>3.503</opentracks:accuracy_horizontal></extensions>
</trkpt>
<trkpt lat="-32.234029" lon="115.799154">
<ele>-26.9</ele>
<time>2026-06-23T08:55:26.289+08:00</time>
<extensions>
<gpxtpx:TrackPointExtension>
<gpxtpx:speed>1.15</gpxtpx:speed>
</gpxtpx:TrackPointExtension>
<opentracks:accuracy_horizontal>3.253</opentracks:accuracy_horizontal></extensions>
</trkpt>
<trkpt lat="-32.234111" lon="115.799105">
<ele>-27.1</ele>
<time>2026-06-23T08:55:34.279+08:00</time>
<extensions>
<gpxtpx:TrackPointExtension>
<gpxtpx:speed>1.2</gpxtpx:speed>
</gpxtpx:TrackPointExtension>
<opentracks:accuracy_horizontal>3.264</opentracks:accuracy_horizontal></extensions>
</trkpt>
<trkpt lat="-32.234188" lon="115.799048">
<ele>-24.7</ele>
<time>2026-06-23T08:55:42.28+08:00</time>
<extensions>
<gpxtpx:TrackPointExtension>
<gpxtpx:speed>1.25</gpxtpx:speed>
</gpxtpx:TrackPointExtension>
<opentracks:accuracy_horizontal>2.44</opentracks:accuracy_horizontal></extensions>
</trkpt>
<trkpt lat="-32.234176" lon="115.798999">
<ele>-23</ele>
<time>2026-06-23T08:55:52.217+08:00</time>
<extensions>
<gpxtpx:TrackPointExtension>
<gpxtpx:speed>0.08</gpxtpx:speed>
</gpxtpx:TrackPointExtension>
<opentracks:accuracy_horizontal>2.434</opentracks:accuracy_horizontal></extensions>
</trkpt>
<trkpt lat="-32.234153" lon="115.798894">
<ele>-24.2</ele>
<time>2026-06-23T08:56:08.278+08:00</time>
<extensions>
<gpxtpx:TrackPointExtension>
<gpxtpx:speed>1.31</gpxtpx:speed>
</gpxtpx:TrackPointExtension>
<opentracks:accuracy_horizontal>2.991</opentracks:accuracy_horizontal></extensions>
</trkpt>
<trkpt lat="-32.234141" lon="115.798804">
<ele>-25.6</ele>
<time>2026-06-23T08:56:18.269+08:00</time>
<extensions>
<gpxtpx:TrackPointExtension>
<gpxtpx:speed>0.82</gpxtpx:speed>
</gpxtpx:TrackPointExtension>
<opentracks:accuracy_horizontal>2.613</opentracks:accuracy_horizontal></extensions>
</trkpt>
<trkpt lat="-32.234094" lon="115.798708">
<ele>-26.7</ele>
<time>2026-06-23T08:56:31.29+08:00</time>
<extensions>
<gpxtpx:TrackPointExtension>
<gpxtpx:speed>1.19</gpxtpx:speed>
</gpxtpx:TrackPointExtension>
<opentracks:accuracy_horizontal>3.12</opentracks:accuracy_horizontal></extensions>
</trkpt>
<trkpt lat="-32.234093" lon="115.798598">
<ele>-27</ele>
<time>2026-06-23T08:56:39.271+08:00</time>
<extensions>
<gpxtpx:TrackPointExtension>
<gpxtpx:speed>1.25</gpxtpx:speed>
</gpxtpx:TrackPointExtension>
<opentracks:accuracy_horizontal>3.17</opentracks:accuracy_horizontal></extensions>
</trkpt>
<trkpt lat="-32.234094" lon="115.798488">
<ele>-27.7</ele>
<time>2026-06-23T08:56:47.28+08:00</time>
<extensions>
<gpxtpx:TrackPointExtension>
<gpxtpx:speed>1.25</gpxtpx:speed>
</gpxtpx:TrackPointExtension>
<opentracks:accuracy_horizontal>3.084</opentracks:accuracy_horizontal></extensions>
</trkpt>
<trkpt lat="-32.234102" lon="115.798379">
<ele>-26.2</ele>
<time>2026-06-23T08:56:54.275+08:00</time>
<extensions>
<gpxtpx:TrackPointExtension>
<gpxtpx:speed>1.32</gpxtpx:speed>
</gpxtpx:TrackPointExtension>
<opentracks:accuracy_horizontal>2.66</opentracks:accuracy_horizontal></extensions>
</trkpt>
<trkpt lat="-32.234104" lon="115.798268">
<ele>-25.8</ele>
<time>2026-06-23T08:57:03.212+08:00</time>
<extensions>
<gpxtpx:TrackPointExtension>
<gpxtpx:speed>1.23</gpxtpx:speed>
</gpxtpx:TrackPointExtension>
<opentracks:accuracy_horizontal>2.832</opentracks:accuracy_horizontal></extensions>
</trkpt>
<trkpt lat="-32.234128" lon="115.79816">
<ele>-25.6</ele>
<time>2026-06-23T08:57:11.22+08:00</time>
<extensions>
<gpxtpx:TrackPointExtension>
<gpxtpx:speed>1.28</gpxtpx:speed>
</gpxtpx:TrackPointExtension>
<opentracks:accuracy_horizontal>2.507</opentracks:accuracy_horizontal></extensions>
</trkpt>
<trkpt lat="-32.234148" lon="115.798106">
<ele>-24.8</ele>
<time>2026-06-23T08:57:21.219+08:00</time>
<extensions>
<gpxtpx:TrackPointExtension>
<gpxtpx:speed>1.09</gpxtpx:speed>
</gpxtpx:TrackPointExtension>
<opentracks:accuracy_horizontal>2.64</opentracks:accuracy_horizontal></extensions>
</trkpt>
<trkpt lat="-32.234189" lon="115.798008">
<ele>-26.3</ele>
<time>2026-06-23T08:57:32.206+08:00</time>
<extensions>
<gpxtpx:TrackPointExtension>
<gpxtpx:speed>1</gpxtpx:speed>
</gpxtpx:TrackPointExtension>
<opentracks:accuracy_horizontal>2.811</opentracks:accuracy_horizontal></extensions>
</trkpt>
<trkpt lat="-32.234208" lon="115.797982">
<ele>-29.1</ele>
<time>2026-06-23T08:57:42.214+08:00</time>
<extensions>
<gpxtpx:TrackPointExtension>
<gpxtpx:speed>0.62</gpxtpx:speed>
</gpxtpx:TrackPointExtension>
<opentracks:accuracy_horizontal>2.631</opentracks:accuracy_horizontal></extensions>
</trkpt>
<trkpt lat="-32.234265" lon="115.797896">
<ele>-28.3</ele>
<time>2026-06-23T08:57:49.234+08:00</time>
<extensions>
<gpxtpx:TrackPointExtension>
<gpxtpx:speed>1.31</gpxtpx:speed>
</gpxtpx:TrackPointExtension>
<opentracks:accuracy_horizontal>2.646</opentracks:accuracy_horizontal></extensions>
</trkpt>
<trkpt lat="-32.234339" lon="115.79782">
<ele>-27.9</ele>
<time>2026-06-23T08:57:57.218+08:00</time>
<extensions>
<gpxtpx:TrackPointExtension>
<gpxtpx:speed>1.32</gpxtpx:speed>
</gpxtpx:TrackPointExtension>
<opentracks:accuracy_horizontal>2.586</opentracks:accuracy_horizontal></extensions>
</trkpt>
<trkpt lat="-32.234419" lon="115.797749">
<ele>-27.6</ele>
<time>2026-06-23T08:58:05.221+08:00</time>
<extensions>
<gpxtpx:TrackPointExtension>
<gpxtpx:speed>1.31</gpxtpx:speed>
</gpxtpx:TrackPointExtension>
<opentracks:accuracy_horizontal>2.588</opentracks:accuracy_horizontal></extensions>
</trkpt>
<trkpt lat="-32.234494" lon="115.797688">
<ele>-27.8</ele>
<time>2026-06-23T08:58:13.231+08:00</time>
<extensions>
<gpxtpx:TrackPointExtension>
<gpxtpx:speed>1.27</gpxtpx:speed>
</gpxtpx:TrackPointExtension>
<opentracks:accuracy_horizontal>2.523</opentracks:accuracy_horizontal></extensions>
</trkpt>
<trkpt lat="-32.234554" lon="115.797604">
<ele>-29.1</ele>
<time>2026-06-23T08:58:21.215+08:00</time>
<extensions>
<gpxtpx:TrackPointExtension>
<gpxtpx:speed>1.28</gpxtpx:speed>
</gpxtpx:TrackPointExtension>
<opentracks:accuracy_horizontal>2.498</opentracks:accuracy_horizontal></extensions>
</trkpt>
<trkpt lat="-32.234617" lon="115.797524">
<ele>-28.8</ele>
<time>2026-06-23T08:58:30.216+08:00</time>
<extensions>
<gpxtpx:TrackPointExtension>
<gpxtpx:speed>1.16</gpxtpx:speed>
</gpxtpx:TrackPointExtension>
<opentracks:accuracy_horizontal>2.502</opentracks:accuracy_horizontal></extensions>
</trkpt>
<trkpt lat="-32.234693" lon="115.797445">
<ele>-28.4</ele>
<time>2026-06-23T08:58:39.202+08:00</time>
<extensions>
<gpxtpx:TrackPointExtension>
<gpxtpx:speed>1.2</gpxtpx:speed>
</gpxtpx:TrackPointExtension>
<opentracks:accuracy_horizontal>2.526</opentracks:accuracy_horizontal></extensions>
</trkpt>
<trkpt lat="-32.234778" lon="115.797402">
<ele>-27.6</ele>
<time>2026-06-23T08:58:48.217+08:00</time>
<extensions>
<gpxtpx:TrackPointExtension>
<gpxtpx:speed>1.16</gpxtpx:speed>
</gpxtpx:TrackPointExtension>
<opentracks:accuracy_horizontal>2.609</opentracks:accuracy_horizontal></extensions>
</trkpt>
<trkpt lat="-32.234866" lon="115.79735">
<ele>-27.5</ele>
<time>2026-06-23T08:58:56.227+08:00</time>
<extensions>
<gpxtpx:TrackPointExtension>
<gpxtpx:speed>1.25</gpxtpx:speed>
</gpxtpx:TrackPointExtension>
<opentracks:accuracy_horizontal>2.576</opentracks:accuracy_horizontal></extensions>
</trkpt>
<trkpt lat="-32.234891" lon="115.797339">
<ele>-25.2</ele>
<time>2026-06-23T08:59:06.222+08:00</time>
<extensions>
<gpxtpx:TrackPointExtension>
<gpxtpx:speed>0.02</gpxtpx:speed>
</gpxtpx:TrackPointExtension>
<opentracks:accuracy_horizontal>2.854</opentracks:accuracy_horizontal></extensions>
</trkpt>
<trkpt lat="-32.234837" lon="115.79724">
<ele>-26.1</ele>
<time>2026-06-23T08:59:48.229+08:00</time>
<extensions>
<gpxtpx:TrackPointExtension>
<gpxtpx:speed>1.34</gpxtpx:speed>
</gpxtpx:TrackPointExtension>
<opentracks:accuracy_horizontal>2.8</opentracks:accuracy_horizontal></extensions>
</trkpt>
<trkpt lat="-32.234815" lon="115.797128">
<ele>-28.3</ele>
<time>2026-06-23T08:59:57.222+08:00</time>
<extensions>
<gpxtpx:TrackPointExtension>
<gpxtpx:speed>1.19</gpxtpx:speed>
</gpxtpx:TrackPointExtension>
<opentracks:accuracy_horizontal>2.637</opentracks:accuracy_horizontal></extensions>
</trkpt>
<trkpt lat="-32.234807" lon="115.797019">
<ele>-27</ele>
<time>2026-06-23T09:00:06.219+08:00</time>
<extensions>
<gpxtpx:TrackPointExtension>
<gpxtpx:speed>1.15</gpxtpx:speed>
</gpxtpx:TrackPointExtension>
<opentracks:accuracy_horizontal>2.6</opentracks:accuracy_horizontal></extensions>
</trkpt>
<trkpt lat="-32.234815" lon="115.797015">
<ele>-27</ele>
<time>2026-06-23T09:00:16.225+08:00</time>
<extensions>
<gpxtpx:TrackPointExtension>
<gpxtpx:speed>0.05</gpxtpx:speed>
</gpxtpx:TrackPointExtension>
<opentracks:accuracy_horizontal>2.912</opentracks:accuracy_horizontal></extensions>
</trkpt>
<trkpt lat="-32.234816" lon="115.796895">
<ele>-27.5</ele>
<time>2026-06-23T09:00:36.232+08:00</time>
<extensions>
<gpxtpx:TrackPointExtension>
<gpxtpx:speed>0.24</gpxtpx:speed>
</gpxtpx:TrackPointExtension>
<opentracks:accuracy_horizontal>2.901</opentracks:accuracy_horizontal></extensions>
</trkpt>
<trkpt lat="-32.234848" lon="115.796916">
<ele>-26.8</ele>
<time>2026-06-23T09:00:46.217+08:00</time>
<extensions>
<gpxtpx:TrackPointExtension>
<gpxtpx:speed>0.77</gpxtpx:speed>
</gpxtpx:TrackPointExtension>
<opentracks:accuracy_horizontal>3.234</opentracks:accuracy_horizontal></extensions>
</trkpt>
<trkpt lat="-32.234952" lon="115.796904">
<ele>-28.3</ele>
<time>2026-06-23T09:01:52.284+08:00</time>
<extensions>
<gpxtpx:TrackPointExtension>
<gpxtpx:speed>1.19</gpxtpx:speed>
</gpxtpx:TrackPointExtension>
<opentracks:accuracy_horizontal>6.188</opentracks:accuracy_horizontal></extensions>
</trkpt>
<trkpt lat="-32.235007" lon="115.79688">
<ele>-28</ele>
<time>2026-06-23T09:02:02.266+08:00</time>
<extensions>
<gpxtpx:TrackPointExtension>
<gpxtpx:speed>0.73</gpxtpx:speed>
</gpxtpx:TrackPointExtension>
<opentracks:accuracy_horizontal>5.19</opentracks:accuracy_horizontal></extensions>
</trkpt>
<trkpt lat="-32.235026" lon="115.796774">
<ele>-28.9</ele>
<time>2026-06-23T09:02:15.285+08:00</time>
<extensions>
<gpxtpx:TrackPointExtension>
<gpxtpx:speed>0.8</gpxtpx:speed>
</gpxtpx:TrackPointExtension>
<opentracks:accuracy_horizontal>3.821</opentracks:accuracy_horizontal></extensions>
</trkpt>
<trkpt lat="-32.235051" lon="115.796721">
<ele>-29.1</ele>
<time>2026-06-23T09:02:25.288+08:00</time>
<extensions>
<gpxtpx:TrackPointExtension>
<gpxtpx:speed>0.21</gpxtpx:speed>
</gpxtpx:TrackPointExtension>
<opentracks:accuracy_horizontal>3.992</opentracks:accuracy_horizontal></extensions>
</trkpt>
<trkpt lat="-32.235044" lon="115.796612">
<ele>-29.7</ele>
<time>2026-06-23T09:02:42.286+08:00</time>
<extensions>
<gpxtpx:TrackPointExtension>
<gpxtpx:speed>0.61</gpxtpx:speed>
</gpxtpx:TrackPointExtension>
<opentracks:accuracy_horizontal>3.38</opentracks:accuracy_horizontal></extensions>
</trkpt>
<trkpt lat="-32.235035" lon="115.796506">
<ele>-29.9</ele>
<time>2026-06-23T09:02:50.271+08:00</time>
<extensions>
<gpxtpx:TrackPointExtension>
<gpxtpx:speed>1.2</gpxtpx:speed>
</gpxtpx:TrackPointExtension>
<opentracks:accuracy_horizontal>3.429</opentracks:accuracy_horizontal></extensions>
</trkpt>
<trkpt lat="-32.235087" lon="115.796414">
<ele>-29</ele>
<time>2026-06-23T09:03:00.284+08:00</time>
<extensions>
<gpxtpx:TrackPointExtension>
<gpxtpx:speed>1.13</gpxtpx:speed>
</gpxtpx:TrackPointExtension>
<opentracks:accuracy_horizontal>3.57</opentracks:accuracy_horizontal></extensions>
</trkpt>
<trkpt lat="-32.235159" lon="115.796391">
<ele>-28</ele>
<time>2026-06-23T09:03:10.266+08:00</time>
<extensions>
<gpxtpx:TrackPointExtension>
<gpxtpx:speed>0.99</gpxtpx:speed>
</gpxtpx:TrackPointExtension>
<opentracks:accuracy_horizontal>3.321</opentracks:accuracy_horizontal></extensions>
</trkpt>
<trkpt lat="-32.235249" lon="115.796376">
<ele>-27.4</ele>
<time>2026-06-23T09:03:27.281+08:00</time>
<extensions>
<gpxtpx:TrackPointExtension>
<gpxtpx:speed>0.87</gpxtpx:speed>
</gpxtpx:TrackPointExtension>
<opentracks:accuracy_horizontal>3.207</opentracks:accuracy_horizontal></extensions>
</trkpt>
<trkpt lat="-32.235304" lon="115.796411">
<ele>-27.4</ele>
<time>2026-06-23T09:03:37.272+08:00</time>
<extensions>
<gpxtpx:TrackPointExtension>
<gpxtpx:speed>0.43</gpxtpx:speed>
</gpxtpx:TrackPointExtension>
<opentracks:accuracy_horizontal>2.22</opentracks:accuracy_horizontal></extensions>
</trkpt>
<trkpt lat="-32.235287" lon="115.796307">
<ele>-29</ele>
<time>2026-06-23T09:04:24.256+08:00</time>
<extensions>
<gpxtpx:TrackPointExtension>
<gpxtpx:speed>0.39</gpxtpx:speed>
</gpxtpx:TrackPointExtension>
<opentracks:accuracy_horizontal>2.128</opentracks:accuracy_horizontal></extensions>
</trkpt>
<trkpt lat="-32.235287" lon="115.796285">
<ele>-29.5</ele>
<time>2026-06-23T09:04:34.267+08:00</time>
<extensions>
<gpxtpx:TrackPointExtension>
<gpxtpx:speed>0.04</gpxtpx:speed>
</gpxtpx:TrackPointExtension>
<opentracks:accuracy_horizontal>2.278</opentracks:accuracy_horizontal></extensions>
</trkpt>
<trkpt lat="-32.235294" lon="115.796179">
<ele>-30.2</ele>
<time>2026-06-23T09:04:57.278+08:00</time>
<extensions>
<gpxtpx:TrackPointExtension>
<gpxtpx:speed>0.97</gpxtpx:speed>
</gpxtpx:TrackPointExtension>
<opentracks:accuracy_horizontal>4.198</opentracks:accuracy_horizontal></extensions>
</trkpt>
<trkpt lat="-32.235324" lon="115.796093">
<ele>-28.7</ele>
<time>2026-06-23T09:05:07.274+08:00</time>
<extensions>
<gpxtpx:TrackPointExtension>
<gpxtpx:speed>0.83</gpxtpx:speed>
</gpxtpx:TrackPointExtension>
<opentracks:accuracy_horizontal>4.61</opentracks:accuracy_horizontal></extensions>
</trkpt>
<trkpt lat="-32.235389" lon="115.796015">
<ele>-22</ele>
<time>2026-06-23T09:05:35.28+08:00</time>
<extensions>
<gpxtpx:TrackPointExtension>
<gpxtpx:speed>0.23</gpxtpx:speed>
</gpxtpx:TrackPointExtension>
<opentracks:accuracy_horizontal>4.064</opentracks:accuracy_horizontal></extensions>
</trkpt>
<trkpt lat="-32.235388" lon="115.796013">
<ele>-21.5</ele>
<time>2026-06-23T09:05:45.282+08:00</time>
<extensions>
<gpxtpx:TrackPointExtension>
<gpxtpx:speed>0.03</gpxtpx:speed>
</gpxtpx:TrackPointExtension>
<opentracks:accuracy_horizontal>2.363</opentracks:accuracy_horizontal></extensions>
</trkpt>
<trkpt lat="-32.235473" lon="115.795973">
<ele>-23.2</ele>
<time>2026-06-23T09:06:05.294+08:00</time>
<extensions>
<gpxtpx:TrackPointExtension>
<gpxtpx:speed>0.99</gpxtpx:speed>
</gpxtpx:TrackPointExtension>
<opentracks:accuracy_horizontal>3.387</opentracks:accuracy_horizontal></extensions>
</trkpt>
<trkpt lat="-32.235552" lon="115.795939">
<ele>-23.2</ele>
<time>2026-06-23T09:06:15.29+08:00</time>
<extensions>
<gpxtpx:TrackPointExtension>
<gpxtpx:speed>0.93</gpxtpx:speed>
</gpxtpx:TrackPointExtension>
<opentracks:accuracy_horizontal>3.74</opentracks:accuracy_horizontal></extensions>
</trkpt>
<trkpt lat="-32.235642" lon="115.795901">
<ele>-21.8</ele>
<time>2026-06-23T09:06:24.295+08:00</time>
<extensions>
<gpxtpx:TrackPointExtension>
<gpxtpx:speed>1.02</gpxtpx:speed>
</gpxtpx:TrackPointExtension>
<opentracks:accuracy_horizontal>3.449</opentracks:accuracy_horizontal></extensions>
</trkpt>
<trkpt lat="-32.235716" lon="115.795865">
<ele>-22.1</ele>
<time>2026-06-23T09:06:34.286+08:00</time>
<extensions>
<gpxtpx:TrackPointExtension>
<gpxtpx:speed>0.93</gpxtpx:speed>
</gpxtpx:TrackPointExtension>
<opentracks:accuracy_horizontal>3.493</opentracks:accuracy_horizontal></extensions>
</trkpt>
<trkpt lat="-32.235799" lon="115.795815">
<ele>-21.4</ele>
<time>2026-06-23T09:06:47.297+08:00</time>
<extensions>
<gpxtpx:TrackPointExtension>
<gpxtpx:speed>0.81</gpxtpx:speed>
</gpxtpx:TrackPointExtension>
<opentracks:accuracy_horizontal>3.969</opentracks:accuracy_horizontal></extensions>
</trkpt>
<trkpt lat="-32.235819" lon="115.795797">
<ele>-20.6</ele>
<time>2026-06-23T09:06:57.277+08:00</time>
<extensions>
<gpxtpx:TrackPointExtension>
<gpxtpx:speed>0.05</gpxtpx:speed>
</gpxtpx:TrackPointExtension>
<opentracks:accuracy_horizontal>2.346</opentracks:accuracy_horizontal></extensions>
</trkpt>
<trkpt lat="-32.235905" lon="115.795757">
<ele>-19.8</ele>
<time>2026-06-23T09:07:28.293+08:00</time>
<extensions>
<gpxtpx:TrackPointExtension>
<gpxtpx:speed>0.89</gpxtpx:speed>
</gpxtpx:TrackPointExtension>
<opentracks:accuracy_horizontal>4.367</opentracks:accuracy_horizontal></extensions>
</trkpt>
<trkpt lat="-32.235963" lon="115.79574">
<ele>-18.2</ele>
<time>2026-06-23T09:07:38.289+08:00</time>
<extensions>
<gpxtpx:TrackPointExtension>
<gpxtpx:speed>0.52</gpxtpx:speed>
</gpxtpx:TrackPointExtension>
<opentracks:accuracy_horizontal>3.769</opentracks:accuracy_horizontal></extensions>
</trkpt>
<trkpt lat="-32.235915" lon="115.795643">
<ele>-18.9</ele>
<time>2026-06-23T09:08:15.288+08:00</time>
<extensions>
<gpxtpx:TrackPointExtension>
<gpxtpx:speed>1.11</gpxtpx:speed>
</gpxtpx:TrackPointExtension>
<opentracks:accuracy_horizontal>3.512</opentracks:accuracy_horizontal></extensions>
</trkpt>
<trkpt lat="-32.235879" lon="115.795544">
<ele>-20.2</ele>
<time>2026-06-23T09:08:25.293+08:00</time>
<extensions>
<gpxtpx:TrackPointExtension>
<gpxtpx:speed>1.03</gpxtpx:speed>
</gpxtpx:TrackPointExtension>
<opentracks:accuracy_horizontal>3.045</opentracks:accuracy_horizontal></extensions>
</trkpt>
<trkpt lat="-32.235836" lon="115.795447">
<ele>-19.2</ele>
<time>2026-06-23T09:08:34.282+08:00</time>
<extensions>
<gpxtpx:TrackPointExtension>
<gpxtpx:speed>1.07</gpxtpx:speed>
</gpxtpx:TrackPointExtension>
<opentracks:accuracy_horizontal>3.37</opentracks:accuracy_horizontal></extensions>
</trkpt>
<trkpt lat="-32.23581" lon="115.795342">
<ele>-17.7</ele>
<time>2026-06-23T09:08:43.278+08:00</time>
<extensions>
<gpxtpx:TrackPointExtension>
<gpxtpx:speed>1.09</gpxtpx:speed>
</gpxtpx:TrackPointExtension>
<opentracks:accuracy_horizontal>3.139</opentracks:accuracy_horizontal></extensions>
</trkpt>
<trkpt lat="-32.235808" lon="115.795245">
<ele>-18.6</ele>
<time>2026-06-23T09:08:53.282+08:00</time>
<extensions>
<gpxtpx:TrackPointExtension>
<gpxtpx:speed>0.98</gpxtpx:speed>
</gpxtpx:TrackPointExtension>
<opentracks:accuracy_horizontal>3.346</opentracks:accuracy_horizontal></extensions>
</trkpt>
<trkpt lat="-32.23582" lon="115.795136">
<ele>-16.6</ele>
<time>2026-06-23T09:09:04.284+08:00</time>
<extensions>
<gpxtpx:TrackPointExtension>
<gpxtpx:speed>0.96</gpxtpx:speed>
</gpxtpx:TrackPointExtension>
<opentracks:accuracy_horizontal>2.949</opentracks:accuracy_horizontal></extensions>
</trkpt>
<trkpt lat="-32.235853" lon="115.795053">
<ele>-16.2</ele>
<time>2026-06-23T09:09:14.272+08:00</time>
<extensions>
<gpxtpx:TrackPointExtension>
<gpxtpx:speed>0.89</gpxtpx:speed>
</gpxtpx:TrackPointExtension>
<opentracks:accuracy_horizontal>3.17</opentracks:accuracy_horizontal></extensions>
</trkpt>
<trkpt lat="-32.235885" lon="115.794946">
<ele>-16.3</ele>
<time>2026-06-23T09:09:26.283+08:00</time>
<extensions>
<gpxtpx:TrackPointExtension>
<gpxtpx:speed>0.88</gpxtpx:speed>
</gpxtpx:TrackPointExtension>
<opentracks:accuracy_horizontal>3.251</opentracks:accuracy_horizontal></extensions>
</trkpt>
<trkpt lat="-32.2359" lon="115.794854">
<ele>-16.3</ele>
<time>2026-06-23T09:09:36.292+08:00</time>
<extensions>
<gpxtpx:TrackPointExtension>
<gpxtpx:speed>0.78</gpxtpx:speed>
</gpxtpx:TrackPointExtension>
<opentracks:accuracy_horizontal>2.952</opentracks:accuracy_horizontal></extensions>
</trkpt>
<trkpt lat="-32.235908" lon="115.794741">
<ele>-15.6</ele>
<time>2026-06-23T09:09:48.283+08:00</time>
<extensions>
<gpxtpx:TrackPointExtension>
<gpxtpx:speed>1.01</gpxtpx:speed>
</gpxtpx:TrackPointExtension>
<opentracks:accuracy_horizontal>2.998</opentracks:accuracy_horizontal></extensions>
</trkpt>
<trkpt lat="-32.235881" lon="115.794632">
<ele>-15</ele>
<time>2026-06-23T09:09:58.286+08:00</time>
<extensions>
<gpxtpx:TrackPointExtension>
<gpxtpx:speed>1.02</gpxtpx:speed>
</gpxtpx:TrackPointExtension>
<opentracks:accuracy_horizontal>2.849</opentracks:accuracy_horizontal></extensions>
</trkpt>
<trkpt lat="-32.235861" lon="115.794532">
<ele>-15.5</ele>
<time>2026-06-23T09:10:08.275+08:00</time>
<extensions>
<gpxtpx:TrackPointExtension>
<gpxtpx:speed>0.98</gpxtpx:speed>
</gpxtpx:TrackPointExtension>
<opentracks:accuracy_horizontal>3.323</opentracks:accuracy_horizontal></extensions>
</trkpt>
<trkpt lat="-32.235784" lon="115.794476">
<ele>-14.7</ele>
<time>2026-06-23T09:10:17.286+08:00</time>
<extensions>
<gpxtpx:TrackPointExtension>
<gpxtpx:speed>1.04</gpxtpx:speed>
</gpxtpx:TrackPointExtension>
<opentracks:accuracy_horizontal>3.048</opentracks:accuracy_horizontal></extensions>
</trkpt>
<trkpt lat="-32.235697" lon="115.794487">
<ele>-14</ele>
<time>2026-06-23T09:10:27.284+08:00</time>
<extensions>
<gpxtpx:TrackPointExtension>
<gpxtpx:speed>1</gpxtpx:speed>
</gpxtpx:TrackPointExtension>
<opentracks:accuracy_horizontal>3.088</opentracks:accuracy_horizontal></extensions>
</trkpt>
<trkpt lat="-32.235607" lon="115.794503">
<ele>-14.1</ele>
<time>2026-06-23T09:10:37.297+08:00</time>
<extensions>
<gpxtpx:TrackPointExtension>
<gpxtpx:speed>0.98</gpxtpx:speed>
</gpxtpx:TrackPointExtension>
<opentracks:accuracy_horizontal>2.983</opentracks:accuracy_horizontal></extensions>
</trkpt>
<trkpt lat="-32.235555" lon="115.794489">
<ele>-12.4</ele>
<time>2026-06-23T09:10:47.299+08:00</time>
<extensions>
<gpxtpx:TrackPointExtension>
<gpxtpx:speed>0.33</gpxtpx:speed>
</gpxtpx:TrackPointExtension>
<opentracks:accuracy_horizontal>2.107</opentracks:accuracy_horizontal></extensions>
</trkpt>
<trkpt lat="-32.235501" lon="115.7944">
<ele>-13.8</ele>
<time>2026-06-23T09:11:00.287+08:00</time>
<extensions>
<gpxtpx:TrackPointExtension>
<gpxtpx:speed>0.9</gpxtpx:speed>
</gpxtpx:TrackPointExtension>
<opentracks:accuracy_horizontal>2.999</opentracks:accuracy_horizontal></extensions>
</trkpt>
<trkpt lat="-32.235492" lon="115.794297">
<ele>-11.9</ele>
<time>2026-06-23T09:11:10.293+08:00</time>
<extensions>
<gpxtpx:TrackPointExtension>
<gpxtpx:speed>0.93</gpxtpx:speed>
</gpxtpx:TrackPointExtension>
<opentracks:accuracy_horizontal>2.646</opentracks:accuracy_horizontal></extensions>
</trkpt>
<trkpt lat="-32.235485" lon="115.794186">
<ele>-5.4</ele>
<time>2026-06-23T09:12:17.199+08:00</time>
<extensions>
<gpxtpx:TrackPointExtension>
<gpxtpx:speed>0.26</gpxtpx:speed>
</gpxtpx:TrackPointExtension>
<opentracks:accuracy_horizontal>2.597</opentracks:accuracy_horizontal></extensions>
</trkpt>
<trkpt lat="-32.235489" lon="115.794084">
<ele>-7.3</ele>
<time>2026-06-23T09:12:26.218+08:00</time>
<extensions>
<gpxtpx:TrackPointExtension>
<gpxtpx:speed>0.87</gpxtpx:speed>
</gpxtpx:TrackPointExtension>
<opentracks:accuracy_horizontal>2.512</opentracks:accuracy_horizontal></extensions>
</trkpt>
<trkpt lat="-32.235505" lon="115.79397">
<ele>-7.5</ele>
<time>2026-06-23T09:12:38.223+08:00</time>
<extensions>
<gpxtpx:TrackPointExtension>
<gpxtpx:speed>1.08</gpxtpx:speed>
</gpxtpx:TrackPointExtension>
<opentracks:accuracy_horizontal>2.55</opentracks:accuracy_horizontal></extensions>
</trkpt>
<trkpt lat="-32.235507" lon="115.793885">
<ele>-5.9</ele>
<time>2026-06-23T09:12:48.228+08:00</time>
<extensions>
<gpxtpx:TrackPointExtension>
<gpxtpx:speed>0.78</gpxtpx:speed>
</gpxtpx:TrackPointExtension>
<opentracks:accuracy_horizontal>2.839</opentracks:accuracy_horizontal></extensions>
</trkpt>
<trkpt lat="-32.235445" lon="115.793805">
<ele>-3.5</ele>
<time>2026-06-23T09:13:07.237+08:00</time>
<extensions>
<gpxtpx:TrackPointExtension>
<gpxtpx:speed>0.51</gpxtpx:speed>
</gpxtpx:TrackPointExtension>
<opentracks:accuracy_horizontal>3.126</opentracks:accuracy_horizontal></extensions>
</trkpt>
<trkpt lat="-32.235414" lon="115.79379">
<ele>-1.5</ele>
<time>2026-06-23T09:13:17.249+08:00</time>
<extensions>
<gpxtpx:TrackPointExtension>
<gpxtpx:speed>0.12</gpxtpx:speed>
</gpxtpx:TrackPointExtension>
<opentracks:accuracy_horizontal>3.029</opentracks:accuracy_horizontal></extensions>
</trkpt>
<trkpt lat="-32.235329" lon="115.793747">
<ele>0.1</ele>
<time>2026-06-23T09:13:32.225+08:00</time>
<extensions>
<gpxtpx:TrackPointExtension>
<gpxtpx:speed>0.83</gpxtpx:speed>
</gpxtpx:TrackPointExtension>
<opentracks:accuracy_horizontal>3.199</opentracks:accuracy_horizontal></extensions>
</trkpt>
<trkpt lat="-32.235318" lon="115.793766">
<ele>-2.5</ele>
<time>2026-06-23T09:13:42.239+08:00</time>
<extensions>
<gpxtpx:TrackPointExtension>
<gpxtpx:speed>0.03</gpxtpx:speed>
</gpxtpx:TrackPointExtension>
<opentracks:accuracy_horizontal>2.844</opentracks:accuracy_horizontal></extensions>
</trkpt>
<trkpt lat="-32.235255" lon="115.793682">
<ele>1</ele>
<time>2026-06-23T09:14:06.228+08:00</time>
<extensions>
<gpxtpx:TrackPointExtension>
<gpxtpx:speed>0.56</gpxtpx:speed>
</gpxtpx:TrackPointExtension>
<opentracks:accuracy_horizontal>2.921</opentracks:accuracy_horizontal></extensions>
</trkpt>
<trkpt lat="-32.235202" lon="115.793638">
<ele>4.5</ele>
<time>2026-06-23T09:14:16.234+08:00</time>
<extensions>
<gpxtpx:TrackPointExtension>
<gpxtpx:speed>0.79</gpxtpx:speed>
</gpxtpx:TrackPointExtension>
<opentracks:accuracy_horizontal>2.537</opentracks:accuracy_horizontal></extensions>
</trkpt>
<trkpt lat="-32.235132" lon="115.793711">
<ele>7.2</ele>
<time>2026-06-23T09:14:34.23+08:00</time>
<extensions>
<gpxtpx:TrackPointExtension>
<gpxtpx:speed>0.97</gpxtpx:speed>
</gpxtpx:TrackPointExtension>
<opentracks:accuracy_horizontal>2.406</opentracks:accuracy_horizontal></extensions>
</trkpt>
<trkpt lat="-32.235131" lon="115.793716">
<ele>7</ele>
<time>2026-06-23T09:14:43.269+08:00</time>
<extensions>
<gpxtpx:TrackPointExtension>
<gpxtpx:speed>0.02</gpxtpx:speed>
</gpxtpx:TrackPointExtension>
<opentracks:accuracy_horizontal>2.944</opentracks:accuracy_horizontal></extensions>
</trkpt>
<trkpt lat="-32.235052" lon="115.793657">
<ele>5.7</ele>
<time>2026-06-23T09:15:16.232+08:00</time>
<extensions>
<gpxtpx:TrackPointExtension>
<gpxtpx:speed>0.6</gpxtpx:speed>
</gpxtpx:TrackPointExtension>
<opentracks:accuracy_horizontal>2.42</opentracks:accuracy_horizontal></extensions>
</trkpt>
<trkpt lat="-32.234994" lon="115.793647">
<ele>4.9</ele>
<time>2026-06-23T09:15:26.224+08:00</time>
<extensions>
<gpxtpx:TrackPointExtension>
<gpxtpx:speed>0.51</gpxtpx:speed>
</gpxtpx:TrackPointExtension>
<opentracks:accuracy_horizontal>2.628</opentracks:accuracy_horizontal></extensions>
</trkpt>
<trkpt lat="-32.234904" lon="115.793689">
<ele>5.3</ele>
<time>2026-06-23T09:16:05.23+08:00</time>
<extensions>
<gpxtpx:TrackPointExtension>
<gpxtpx:speed>1.11</gpxtpx:speed>
</gpxtpx:TrackPointExtension>
<opentracks:accuracy_horizontal>2.199</opentracks:accuracy_horizontal></extensions>
</trkpt>
<trkpt lat="-32.234829" lon="115.793689">
<ele>3</ele>
<time>2026-06-23T09:16:15.234+08:00</time>
<extensions>
<gpxtpx:TrackPointExtension>
<gpxtpx:speed>0.88</gpxtpx:speed>
</gpxtpx:TrackPointExtension>
<opentracks:accuracy_horizontal>2.448</opentracks:accuracy_horizontal></extensions>
</trkpt>
<trkpt lat="-32.234738" lon="115.793672">
<ele>-0.4</ele>
<time>2026-06-23T09:17:01.206+08:00</time>
<extensions>
<gpxtpx:TrackPointExtension>
<gpxtpx:speed>0.68</gpxtpx:speed>
</gpxtpx:TrackPointExtension>
<opentracks:accuracy_horizontal>2.249</opentracks:accuracy_horizontal></extensions>
</trkpt>
<trkpt lat="-32.234674" lon="115.793654">
<ele>-0.5</ele>
<time>2026-06-23T09:17:11.21+08:00</time>
<extensions>
<gpxtpx:TrackPointExtension>
<gpxtpx:speed>0.74</gpxtpx:speed>
</gpxtpx:TrackPointExtension>
<opentracks:accuracy_horizontal>2.259</opentracks:accuracy_horizontal></extensions>
</trkpt>
<trkpt lat="-32.234582" lon="115.793651">
<ele>-2</ele>
<time>2026-06-23T09:17:24.198+08:00</time>
<extensions>
<gpxtpx:TrackPointExtension>
<gpxtpx:speed>0.8</gpxtpx:speed>
</gpxtpx:TrackPointExtension>
<opentracks:accuracy_horizontal>2.161</opentracks:accuracy_horizontal></extensions>
</trkpt>
<trkpt lat="-32.234535" lon="115.793662">
<ele>-2.4</ele>
<time>2026-06-23T09:17:33.226+08:00</time>
<extensions>
<gpxtpx:TrackPointExtension>
<gpxtpx:speed>0.64</gpxtpx:speed>
</gpxtpx:TrackPointExtension>
<opentracks:accuracy_horizontal>2.21</opentracks:accuracy_horizontal></extensions>
</trkpt>
<trkpt lat="-32.234449" lon="115.793708">
<ele>-4.2</ele>
<time>2026-06-23T09:17:59.244+08:00</time>
<extensions>
<gpxtpx:TrackPointExtension>
<gpxtpx:speed>0.87</gpxtpx:speed>
</gpxtpx:TrackPointExtension>
<opentracks:accuracy_horizontal>2.218</opentracks:accuracy_horizontal></extensions>
</trkpt>
<trkpt lat="-32.234401" lon="115.793767">
<ele>-5.5</ele>
<time>2026-06-23T09:18:09.23+08:00</time>
<extensions>
<gpxtpx:TrackPointExtension>
<gpxtpx:speed>0.83</gpxtpx:speed>
</gpxtpx:TrackPointExtension>
<opentracks:accuracy_horizontal>2.522</opentracks:accuracy_horizontal></extensions>
</trkpt>
<trkpt lat="-32.23433" lon="115.793847">
<ele>-7.2</ele>
<time>2026-06-23T09:18:21.235+08:00</time>
<extensions>
<gpxtpx:TrackPointExtension>
<gpxtpx:speed>0.91</gpxtpx:speed>
</gpxtpx:TrackPointExtension>
<opentracks:accuracy_horizontal>2.547</opentracks:accuracy_horizontal></extensions>
</trkpt>
<trkpt lat="-32.234277" lon="115.793922">
<ele>-8.3</ele>
<time>2026-06-23T09:18:31.241+08:00</time>
<extensions>
<gpxtpx:TrackPointExtension>
<gpxtpx:speed>0.93</gpxtpx:speed>
</gpxtpx:TrackPointExtension>
<opentracks:accuracy_horizontal>2.479</opentracks:accuracy_horizontal></extensions>
</trkpt>
<trkpt lat="-32.234192" lon="115.793969">
<ele>-10.5</ele>
<time>2026-06-23T09:19:56.281+08:00</time>
<extensions>
<gpxtpx:TrackPointExtension>
<gpxtpx:speed>0.85</gpxtpx:speed>
</gpxtpx:TrackPointExtension>
<opentracks:accuracy_horizontal>1.358</opentracks:accuracy_horizontal></extensions>
</trkpt>
<trkpt lat="-32.234137" lon="115.794039">
<ele>-10.3</ele>
<time>2026-06-23T09:20:06.212+08:00</time>
<extensions>
<gpxtpx:TrackPointExtension>
<gpxtpx:speed>0.91</gpxtpx:speed>
</gpxtpx:TrackPointExtension>
<opentracks:accuracy_horizontal>2.317</opentracks:accuracy_horizontal></extensions>
</trkpt>
<trkpt lat="-32.234064" lon="115.794103">
<ele>-11.6</ele>
<time>2026-06-23T09:20:47.206+08:00</time>
<extensions>
<gpxtpx:TrackPointExtension>
<gpxtpx:speed>0.82</gpxtpx:speed>
</gpxtpx:TrackPointExtension>
<opentracks:accuracy_horizontal>2.175</opentracks:accuracy_horizontal></extensions>
</trkpt>
<trkpt lat="-32.234031" lon="115.794127">
<ele>-11.5</ele>
<time>2026-06-23T09:20:57.207+08:00</time>
<extensions>
<gpxtpx:TrackPointExtension>
<gpxtpx:speed>0.24</gpxtpx:speed>
</gpxtpx:TrackPointExtension>
<opentracks:accuracy_horizontal>2.378</opentracks:accuracy_horizontal></extensions>
</trkpt>
<trkpt lat="-32.233957" lon="115.794191">
<ele>-12.3</ele>
<time>2026-06-23T09:21:10.204+08:00</time>
<extensions>
<gpxtpx:TrackPointExtension>
<gpxtpx:speed>0.89</gpxtpx:speed>
</gpxtpx:TrackPointExtension>
<opentracks:accuracy_horizontal>2.179</opentracks:accuracy_horizontal></extensions>
</trkpt>
<trkpt lat="-32.233935" lon="115.794226">
<ele>-11.7</ele>
<time>2026-06-23T09:21:19.235+08:00</time>
<extensions>
<gpxtpx:TrackPointExtension>
<gpxtpx:speed>0.25</gpxtpx:speed>
</gpxtpx:TrackPointExtension>
<opentracks:accuracy_horizontal>2.22</opentracks:accuracy_horizontal></extensions>
</trkpt>
<trkpt lat="-32.233847" lon="115.79427">
<ele>-15.6</ele>
<time>2026-06-23T09:22:17.21+08:00</time>
<extensions>
<gpxtpx:TrackPointExtension>
<gpxtpx:speed>1.08</gpxtpx:speed>
</gpxtpx:TrackPointExtension>
<opentracks:accuracy_horizontal>2.24</opentracks:accuracy_horizontal></extensions>
</trkpt>
<trkpt lat="-32.233762" lon="115.794267">
<ele>-15.2</ele>
<time>2026-06-23T09:22:26.243+08:00</time>
<extensions>
<gpxtpx:TrackPointExtension>
<gpxtpx:speed>1.07</gpxtpx:speed>
</gpxtpx:TrackPointExtension>
<opentracks:accuracy_horizontal>2.489</opentracks:accuracy_horizontal></extensions>
</trkpt>
<trkpt lat="-32.233679" lon="115.794319">
<ele>-16.5</ele>
<time>2026-06-23T09:22:35.237+08:00</time>
<extensions>
<gpxtpx:TrackPointExtension>
<gpxtpx:speed>1.12</gpxtpx:speed>
</gpxtpx:TrackPointExtension>
<opentracks:accuracy_horizontal>2.436</opentracks:accuracy_horizontal></extensions>
</trkpt>
<trkpt lat="-32.233588" lon="115.794335">
<ele>-17.5</ele>
<time>2026-06-23T09:22:45.241+08:00</time>
<extensions>
<gpxtpx:TrackPointExtension>
<gpxtpx:speed>0.95</gpxtpx:speed>
</gpxtpx:TrackPointExtension>
<opentracks:accuracy_horizontal>2.38</opentracks:accuracy_horizontal></extensions>
</trkpt>
<trkpt lat="-32.233587" lon="115.794354">
<ele>-16.6</ele>
<time>2026-06-23T09:22:55.249+08:00</time>
<extensions>
<gpxtpx:TrackPointExtension>
<gpxtpx:speed>0.05</gpxtpx:speed>
</gpxtpx:TrackPointExtension>
<opentracks:accuracy_horizontal>2.53</opentracks:accuracy_horizontal></extensions>
</trkpt>
<trkpt lat="-32.2335" lon="115.794305">
<ele>-17.4</ele>
<time>2026-06-23T09:23:22.242+08:00</time>
<extensions>
<gpxtpx:TrackPointExtension>
<gpxtpx:speed>1.15</gpxtpx:speed>
</gpxtpx:TrackPointExtension>
<opentracks:accuracy_horizontal>2.531</opentracks:accuracy_horizontal></extensions>
</trkpt>
<trkpt lat="-32.233424" lon="115.794231">
<ele>-17.9</ele>
<time>2026-06-23T09:23:31.252+08:00</time>
<extensions>
<gpxtpx:TrackPointExtension>
<gpxtpx:speed>1.15</gpxtpx:speed>
</gpxtpx:TrackPointExtension>
<opentracks:accuracy_horizontal>2.501</opentracks:accuracy_horizontal></extensions>
</trkpt>
<trkpt lat="-32.233341" lon="115.79418">
<ele>-18.3</ele>
<time>2026-06-23T09:23:40.243+08:00</time>
<extensions>
<gpxtpx:TrackPointExtension>
<gpxtpx:speed>1.16</gpxtpx:speed>
</gpxtpx:TrackPointExtension>
<opentracks:accuracy_horizontal>2.612</opentracks:accuracy_horizontal></extensions>
</trkpt>
<trkpt lat="-32.233262" lon="115.794126">
<ele>-17.2</ele>
<time>2026-06-23T09:23:48.239+08:00</time>
<extensions>
<gpxtpx:TrackPointExtension>
<gpxtpx:speed>1.19</gpxtpx:speed>
</gpxtpx:TrackPointExtension>
<opentracks:accuracy_horizontal>2.61</opentracks:accuracy_horizontal></extensions>
</trkpt>
<trkpt lat="-32.233183" lon="115.794081">
<ele>-19</ele>
<time>2026-06-23T09:23:58.228+08:00</time>
<extensions>
<gpxtpx:TrackPointExtension>
<gpxtpx:speed>1.05</gpxtpx:speed>
</gpxtpx:TrackPointExtension>
<opentracks:accuracy_horizontal>2.486</opentracks:accuracy_horizontal></extensions>
</trkpt>
<trkpt lat="-32.233107" lon="115.79402">
<ele>-21.4</ele>
<time>2026-06-23T09:24:06.238+08:00</time>
<extensions>
<gpxtpx:TrackPointExtension>
<gpxtpx:speed>1.15</gpxtpx:speed>
</gpxtpx:TrackPointExtension>
<opentracks:accuracy_horizontal>2.532</opentracks:accuracy_horizontal></extensions>
</trkpt>
<trkpt lat="-32.233012" lon="115.793994">
<ele>-23</ele>
<time>2026-06-23T09:24:15.245+08:00</time>
<extensions>
<gpxtpx:TrackPointExtension>
<gpxtpx:speed>1.26</gpxtpx:speed>
</gpxtpx:TrackPointExtension>
<opentracks:accuracy_horizontal>2.789</opentracks:accuracy_horizontal></extensions>
</trkpt>
<trkpt lat="-32.23292" lon="115.793969">
<ele>-23.5</ele>
<time>2026-06-23T09:24:25.233+08:00</time>
<extensions>
<gpxtpx:TrackPointExtension>
<gpxtpx:speed>1.12</gpxtpx:speed>
</gpxtpx:TrackPointExtension>
<opentracks:accuracy_horizontal>2.734</opentracks:accuracy_horizontal></extensions>
</trkpt>
<trkpt lat="-32.232844" lon="115.794035">
<ele>-22.3</ele>
<time>2026-06-23T09:24:33.217+08:00</time>
<extensions>
<gpxtpx:TrackPointExtension>
<gpxtpx:speed>1.24</gpxtpx:speed>
</gpxtpx:TrackPointExtension>
<opentracks:accuracy_horizontal>2.662</opentracks:accuracy_horizontal></extensions>
</trkpt>
<trkpt lat="-32.232812" lon="115.794136">
<ele>-22.5</ele>
<time>2026-06-23T09:24:42.222+08:00</time>
<extensions>
<gpxtpx:TrackPointExtension>
<gpxtpx:speed>1.19</gpxtpx:speed>
</gpxtpx:TrackPointExtension>
<opentracks:accuracy_horizontal>2.787</opentracks:accuracy_horizontal></extensions>
</trkpt>
<trkpt lat="-32.232824" lon="115.794133">
<ele>-25</ele>
<time>2026-06-23T09:24:52.225+08:00</time>
<extensions>
<gpxtpx:TrackPointExtension>
<gpxtpx:speed>0.46</gpxtpx:speed>
</gpxtpx:TrackPointExtension>
<opentracks:accuracy_horizontal>3.007</opentracks:accuracy_horizontal></extensions>
</trkpt>
<trkpt lat="-32.23274" lon="115.794083">
<ele>-26.4</ele>
<time>2026-06-23T09:27:00.247+08:00</time>
<extensions>
<gpxtpx:TrackPointExtension>
<gpxtpx:speed>1.28</gpxtpx:speed>
</gpxtpx:TrackPointExtension>
<opentracks:accuracy_horizontal>2.84</opentracks:accuracy_horizontal></extensions>
</trkpt>
<trkpt lat="-32.232657" lon="115.794135">
<ele>-25.5</ele>
<time>2026-06-23T09:27:10.221+08:00</time>
<extensions>
<gpxtpx:TrackPointExtension>
<gpxtpx:speed>1.12</gpxtpx:speed>
</gpxtpx:TrackPointExtension>
<opentracks:accuracy_horizontal>2.938</opentracks:accuracy_horizontal></extensions>
</trkpt>
<trkpt lat="-32.232583" lon="115.794156">
<ele>-26</ele>
<time>2026-06-23T09:27:20.243+08:00</time>
<extensions>
<gpxtpx:TrackPointExtension>
<gpxtpx:speed>0.92</gpxtpx:speed>
</gpxtpx:TrackPointExtension>
<opentracks:accuracy_horizontal>2.539</opentracks:accuracy_horizontal></extensions>
</trkpt>
<trkpt lat="-32.232489" lon="115.79416">
<ele>-26.2</ele>
<time>2026-06-23T09:27:28.238+08:00</time>
<extensions>
<gpxtpx:TrackPointExtension>
<gpxtpx:speed>1.23</gpxtpx:speed>
</gpxtpx:TrackPointExtension>
<opentracks:accuracy_horizontal>2.418</opentracks:accuracy_horizontal></extensions>
</trkpt>
<trkpt lat="-32.232394" lon="115.794172">
<ele>-25.7</ele>
<time>2026-06-23T09:27:36.258+08:00</time>
<extensions>
<gpxtpx:TrackPointExtension>
<gpxtpx:speed>1.29</gpxtpx:speed>
</gpxtpx:TrackPointExtension>
<opentracks:accuracy_horizontal>2.418</opentracks:accuracy_horizontal></extensions>
</trkpt>
<trkpt lat="-32.232301" lon="115.794151">
<ele>-25.6</ele>
<time>2026-06-23T09:27:44.237+08:00</time>
<extensions>
<gpxtpx:TrackPointExtension>
<gpxtpx:speed>1.31</gpxtpx:speed>
</gpxtpx:TrackPointExtension>
<opentracks:accuracy_horizontal>2.443</opentracks:accuracy_horizontal></extensions>
</trkpt>
<trkpt lat="-32.232254" lon="115.794224">
<ele>-25.3</ele>
<time>2026-06-23T09:27:54.25+08:00</time>
<extensions>
<gpxtpx:TrackPointExtension>
<gpxtpx:speed>0.24</gpxtpx:speed>
</gpxtpx:TrackPointExtension>
<opentracks:accuracy_horizontal>2.556</opentracks:accuracy_horizontal></extensions>
</trkpt>
<trkpt lat="-32.232287" lon="115.794326">
<ele>-24.8</ele>
<time>2026-06-23T09:28:13.249+08:00</time>
<extensions>
<gpxtpx:TrackPointExtension>
<gpxtpx:speed>1.33</gpxtpx:speed>
</gpxtpx:TrackPointExtension>
<opentracks:accuracy_horizontal>2.465</opentracks:accuracy_horizontal></extensions>
</trkpt>
<trkpt lat="-32.232318" lon="115.79444">
<ele>-24.7</ele>
<time>2026-06-23T09:28:23.244+08:00</time>
<extensions>
<gpxtpx:TrackPointExtension>
<gpxtpx:speed>1.16</gpxtpx:speed>
</gpxtpx:TrackPointExtension>
<opentracks:accuracy_horizontal>2.6</opentracks:accuracy_horizontal></extensions>
</trkpt>
<trkpt lat="-32.232331" lon="115.794546">
<ele>-23.6</ele>
<time>2026-06-23T09:28:30.243+08:00</time>
<extensions>
<gpxtpx:TrackPointExtension>
<gpxtpx:speed>1.27</gpxtpx:speed>
</gpxtpx:TrackPointExtension>
<opentracks:accuracy_horizontal>2.512</opentracks:accuracy_horizontal></extensions>
</trkpt>
<trkpt lat="-32.232342" lon="115.794659">
<ele>-24.1</ele>
<time>2026-06-23T09:28:39.249+08:00</time>
<extensions>
<gpxtpx:TrackPointExtension>
<gpxtpx:speed>1.24</gpxtpx:speed>
</gpxtpx:TrackPointExtension>
<opentracks:accuracy_horizontal>2.527</opentracks:accuracy_horizontal></extensions>
</trkpt>
<trkpt lat="-32.23237" lon="115.794765">
<ele>-24.7</ele>
<time>2026-06-23T09:28:48.24+08:00</time>
<extensions>
<gpxtpx:TrackPointExtension>
<gpxtpx:speed>1.19</gpxtpx:speed>
</gpxtpx:TrackPointExtension>
<opentracks:accuracy_horizontal>2.473</opentracks:accuracy_horizontal></extensions>
</trkpt>
<trkpt lat="-32.232409" lon="115.794873">
<ele>-24.3</ele>
<time>2026-06-23T09:28:57.237+08:00</time>
<extensions>
<gpxtpx:TrackPointExtension>
<gpxtpx:speed>1.23</gpxtpx:speed>
</gpxtpx:TrackPointExtension>
<opentracks:accuracy_horizontal>2.471</opentracks:accuracy_horizontal></extensions>
</trkpt>
<trkpt lat="-32.232428" lon="115.794983">
<ele>-24.3</ele>
<time>2026-06-23T09:29:06.241+08:00</time>
<extensions>
<gpxtpx:TrackPointExtension>
<gpxtpx:speed>1.23</gpxtpx:speed>
</gpxtpx:TrackPointExtension>
<opentracks:accuracy_horizontal>2.511</opentracks:accuracy_horizontal></extensions>
</trkpt>
<trkpt lat="-32.232444" lon="115.795089">
<ele>-24.4</ele>
<time>2026-06-23T09:29:14.243+08:00</time>
<extensions>
<gpxtpx:TrackPointExtension>
<gpxtpx:speed>1.25</gpxtpx:speed>
</gpxtpx:TrackPointExtension>
<opentracks:accuracy_horizontal>2.499</opentracks:accuracy_horizontal></extensions>
</trkpt>
<trkpt lat="-32.232456" lon="115.795196">
<ele>-23.6</ele>
<time>2026-06-23T09:29:22.259+08:00</time>
<extensions>
<gpxtpx:TrackPointExtension>
<gpxtpx:speed>1.26</gpxtpx:speed>
</gpxtpx:TrackPointExtension>
<opentracks:accuracy_horizontal>2.496</opentracks:accuracy_horizontal></extensions>
</trkpt>
<trkpt lat="-32.232475" lon="115.7953">
<ele>-24</ele>
<time>2026-06-23T09:29:31.237+08:00</time>
<extensions>
<gpxtpx:TrackPointExtension>
<gpxtpx:speed>1.2</gpxtpx:speed>
</gpxtpx:TrackPointExtension>
<opentracks:accuracy_horizontal>2.522</opentracks:accuracy_horizontal></extensions>
</trkpt>
<trkpt lat="-32.232471" lon="115.795417">
<ele>-24.6</ele>
<time>2026-06-23T09:29:40.26+08:00</time>
<extensions>
<gpxtpx:TrackPointExtension>
<gpxtpx:speed>1.22</gpxtpx:speed>
</gpxtpx:TrackPointExtension>
<opentracks:accuracy_horizontal>2.737</opentracks:accuracy_horizontal></extensions>
</trkpt>
<trkpt lat="-32.232475" lon="115.795526">
<ele>-24.2</ele>
<time>2026-06-23T09:29:48.237+08:00</time>
<extensions>
<gpxtpx:TrackPointExtension>
<gpxtpx:speed>1.22</gpxtpx:speed>
</gpxtpx:TrackPointExtension>
<opentracks:accuracy_horizontal>2.652</opentracks:accuracy_horizontal></extensions>
</trkpt>
<trkpt lat="-32.232537" lon="115.795505">
<ele>-24.9</ele>
<time>2026-06-23T09:29:58.247+08:00</time>
<extensions>
<gpxtpx:TrackPointExtension>
<gpxtpx:speed>1.3</gpxtpx:speed>
</gpxtpx:TrackPointExtension>
<opentracks:accuracy_horizontal>2.517</opentracks:accuracy_horizontal></extensions>
</trkpt>
<trkpt lat="-32.232595" lon="115.795424">
<ele>-26</ele>
<time>2026-06-23T09:30:07.222+08:00</time>
<extensions>
<gpxtpx:TrackPointExtension>
<gpxtpx:speed>1.2</gpxtpx:speed>
</gpxtpx:TrackPointExtension>
<opentracks:accuracy_horizontal>2.48</opentracks:accuracy_horizontal></extensions>
</trkpt>
<trkpt lat="-32.232667" lon="115.795464">
<ele>-24.8</ele>
<time>2026-06-23T09:30:17.234+08:00</time>
<extensions>
<gpxtpx:TrackPointExtension>
<gpxtpx:speed>1.01</gpxtpx:speed>
</gpxtpx:TrackPointExtension>
<opentracks:accuracy_horizontal>2.533</opentracks:accuracy_horizontal></extensions>
</trkpt>
<trkpt lat="-32.232752" lon="115.795522">
<ele>-24.5</ele>
<time>2026-06-23T09:30:28.249+08:00</time>
<extensions>
<gpxtpx:TrackPointExtension>
<gpxtpx:speed>1</gpxtpx:speed>
</gpxtpx:TrackPointExtension>
<opentracks:accuracy_horizontal>3.262</opentracks:accuracy_horizontal></extensions>
</trkpt>
<trkpt lat="-32.23283" lon="115.79557">
<ele>-20.7</ele>
<time>2026-06-23T09:30:38.241+08:00</time>
<extensions>
<gpxtpx:TrackPointExtension>
<gpxtpx:speed>0.97</gpxtpx:speed>
</gpxtpx:TrackPointExtension>
<opentracks:accuracy_horizontal>4.073</opentracks:accuracy_horizontal></extensions>
</trkpt>
<trkpt lat="-32.232918" lon="115.795604">
<ele>-23.2</ele>
<time>2026-06-23T09:30:47.234+08:00</time>
<extensions>
<gpxtpx:TrackPointExtension>
<gpxtpx:speed>1.08</gpxtpx:speed>
</gpxtpx:TrackPointExtension>
<opentracks:accuracy_horizontal>2.53</opentracks:accuracy_horizontal></extensions>
</trkpt>
<trkpt lat="-32.232979" lon="115.795639">
<ele>-24.5</ele>
<time>2026-06-23T09:30:56.241+08:00</time>
<extensions>
<gpxtpx:TrackPointExtension>
<gpxtpx:speed>0.92</gpxtpx:speed>
</gpxtpx:TrackPointExtension>
<opentracks:accuracy_horizontal>2.456</opentracks:accuracy_horizontal></extensions>
</trkpt>
<trkpt lat="-32.233071" lon="115.795658">
<ele>-24.9</ele>
<time>2026-06-23T09:31:12.247+08:00</time>
<extensions>
<gpxtpx:TrackPointExtension>
<gpxtpx:speed>0.93</gpxtpx:speed>
</gpxtpx:TrackPointExtension>
<opentracks:accuracy_horizontal>2.23</opentracks:accuracy_horizontal></extensions>
</trkpt>
<trkpt lat="-32.233121" lon="115.795751">
<ele>-27</ele>
<time>2026-06-23T09:31:21.209+08:00</time>
<extensions>
<gpxtpx:TrackPointExtension>
<gpxtpx:speed>1.13</gpxtpx:speed>
</gpxtpx:TrackPointExtension>
<opentracks:accuracy_horizontal>2.252</opentracks:accuracy_horizontal></extensions>
</trkpt>
<trkpt lat="-32.233142" lon="115.795854">
<ele>-27.4</ele>
<time>2026-06-23T09:31:30.226+08:00</time>
<extensions>
<gpxtpx:TrackPointExtension>
<gpxtpx:speed>1.13</gpxtpx:speed>
</gpxtpx:TrackPointExtension>
<opentracks:accuracy_horizontal>2.232</opentracks:accuracy_horizontal></extensions>
</trkpt>
<trkpt lat="-32.233171" lon="115.795965">
<ele>-27.2</ele>
<time>2026-06-23T09:31:40.226+08:00</time>
<extensions>
<gpxtpx:TrackPointExtension>
<gpxtpx:speed>1.13</gpxtpx:speed>
</gpxtpx:TrackPointExtension>
<opentracks:accuracy_horizontal>2.451</opentracks:accuracy_horizontal></extensions>
</trkpt>
<trkpt lat="-32.233171" lon="115.796028">
<ele>-27.9</ele>
<time>2026-06-23T09:31:50.231+08:00</time>
<extensions>
<gpxtpx:TrackPointExtension>
<gpxtpx:speed>1.25</gpxtpx:speed>
</gpxtpx:TrackPointExtension>
<opentracks:accuracy_horizontal>2.454</opentracks:accuracy_horizontal></extensions>
</trkpt>
<trkpt lat="-32.233162" lon="115.796139">
<ele>-26.3</ele>
<time>2026-06-23T09:31:58.231+08:00</time>
<extensions>
<gpxtpx:TrackPointExtension>
<gpxtpx:speed>1.24</gpxtpx:speed>
</gpxtpx:TrackPointExtension>
<opentracks:accuracy_horizontal>2.238</opentracks:accuracy_horizontal></extensions>
</trkpt>
<trkpt lat="-32.233158" lon="115.796248">
<ele>-27.3</ele>
<time>2026-06-23T09:32:07.242+08:00</time>
<extensions>
<gpxtpx:TrackPointExtension>
<gpxtpx:speed>1.19</gpxtpx:speed>
</gpxtpx:TrackPointExtension>
<opentracks:accuracy_horizontal>2.171</opentracks:accuracy_horizontal></extensions>
</trkpt>
<trkpt lat="-32.233158" lon="115.796359">
<ele>-27.2</ele>
<time>2026-06-23T09:32:17.242+08:00</time>
<extensions>
<gpxtpx:TrackPointExtension>
<gpxtpx:speed>1.1</gpxtpx:speed>
</gpxtpx:TrackPointExtension>
<opentracks:accuracy_horizontal>2.147</opentracks:accuracy_horizontal></extensions>
</trkpt>
<trkpt lat="-32.233169" lon="115.796425">
<ele>-26.5</ele>
<time>2026-06-23T09:32:27.249+08:00</time>
<extensions>
<gpxtpx:TrackPointExtension>
<gpxtpx:speed>0.85</gpxtpx:speed>
</gpxtpx:TrackPointExtension>
<opentracks:accuracy_horizontal>2.549</opentracks:accuracy_horizontal></extensions>
</trkpt>
<trkpt lat="-32.233137" lon="115.79653">
<ele>-27.3</ele>
<time>2026-06-23T09:32:36.241+08:00</time>
<extensions>
<gpxtpx:TrackPointExtension>
<gpxtpx:speed>1.07</gpxtpx:speed>
</gpxtpx:TrackPointExtension>
<opentracks:accuracy_horizontal>2.334</opentracks:accuracy_horizontal></extensions>
</trkpt>
<trkpt lat="-32.233099" lon="115.796635">
<ele>-27.3</ele>
<time>2026-06-23T09:32:45.26+08:00</time>
<extensions>
<gpxtpx:TrackPointExtension>
<gpxtpx:speed>1.12</gpxtpx:speed>
</gpxtpx:TrackPointExtension>
<opentracks:accuracy_horizontal>2.293</opentracks:accuracy_horizontal></extensions>
</trkpt>
<trkpt lat="-32.233066" lon="115.796735">
<ele>-26.8</ele>
<time>2026-06-23T09:32:54.225+08:00</time>
<extensions>
<gpxtpx:TrackPointExtension>
<gpxtpx:speed>1.1</gpxtpx:speed>
</gpxtpx:TrackPointExtension>
<opentracks:accuracy_horizontal>2.368</opentracks:accuracy_horizontal></extensions>
</trkpt>
<trkpt lat="-32.233041" lon="115.796849">
<ele>-27</ele>
<time>2026-06-23T09:33:03.243+08:00</time>
<extensions>
<gpxtpx:TrackPointExtension>
<gpxtpx:speed>1.15</gpxtpx:speed>
</gpxtpx:TrackPointExtension>
<opentracks:accuracy_horizontal>2.356</opentracks:accuracy_horizontal></extensions>
</trkpt>
<trkpt lat="-32.233017" lon="115.796959">
<ele>-26.8</ele>
<time>2026-06-23T09:33:12.254+08:00</time>
<extensions>
<gpxtpx:TrackPointExtension>
<gpxtpx:speed>1.13</gpxtpx:speed>
</gpxtpx:TrackPointExtension>
<opentracks:accuracy_horizontal>2.381</opentracks:accuracy_horizontal></extensions>
</trkpt>
<trkpt lat="-32.232985" lon="115.797043">
<ele>-27</ele>
<time>2026-06-23T09:33:22.245+08:00</time>
<extensions>
<gpxtpx:TrackPointExtension>
<gpxtpx:speed>1.07</gpxtpx:speed>
</gpxtpx:TrackPointExtension>
<opentracks:accuracy_horizontal>2.405</opentracks:accuracy_horizontal></extensions>
</trkpt>
<trkpt lat="-32.232952" lon="115.797145">
<ele>-26.9</ele>
<time>2026-06-23T09:33:31.241+08:00</time>
<extensions>
<gpxtpx:TrackPointExtension>
<gpxtpx:speed>1.11</gpxtpx:speed>
</gpxtpx:TrackPointExtension>
<opentracks:accuracy_horizontal>2.287</opentracks:accuracy_horizontal></extensions>
</trkpt>
<trkpt lat="-32.232916" lon="115.79725">
<ele>-26.3</ele>
<time>2026-06-23T09:33:40.246+08:00</time>
<extensions>
<gpxtpx:TrackPointExtension>
<gpxtpx:speed>1.14</gpxtpx:speed>
</gpxtpx:TrackPointExtension>
<opentracks:accuracy_horizontal>2.289</opentracks:accuracy_horizontal></extensions>
</trkpt>
<trkpt lat="-32.2329" lon="115.797357">
<ele>-26.7</ele>
<time>2026-06-23T09:33:49.269+08:00</time>
<extensions>
<gpxtpx:TrackPointExtension>
<gpxtpx:speed>1.13</gpxtpx:speed>
</gpxtpx:TrackPointExtension>
<opentracks:accuracy_horizontal>2.306</opentracks:accuracy_horizontal></extensions>
</trkpt>
<trkpt lat="-32.232884" lon="115.797462">
<ele>-26.4</ele>
<time>2026-06-23T09:33:57.256+08:00</time>
<extensions>
<gpxtpx:TrackPointExtension>
<gpxtpx:speed>1.2</gpxtpx:speed>
</gpxtpx:TrackPointExtension>
<opentracks:accuracy_horizontal>2.339</opentracks:accuracy_horizontal></extensions>
</trkpt>
<trkpt lat="-32.232852" lon="115.797571">
<ele>-25.7</ele>
<time>2026-06-23T09:34:07.247+08:00</time>
<extensions>
<gpxtpx:TrackPointExtension>
<gpxtpx:speed>1.13</gpxtpx:speed>
</gpxtpx:TrackPointExtension>
<opentracks:accuracy_horizontal>2.344</opentracks:accuracy_horizontal></extensions>
</trkpt>
<trkpt lat="-32.232818" lon="115.797674">
<ele>-26.3</ele>
<time>2026-06-23T09:34:16.233+08:00</time>
<extensions>
<gpxtpx:TrackPointExtension>
<gpxtpx:speed>1.12</gpxtpx:speed>
</gpxtpx:TrackPointExtension>
<opentracks:accuracy_horizontal>2.314</opentracks:accuracy_horizontal></extensions>
</trkpt>
<trkpt lat="-32.232786" lon="115.797782">
<ele>-25.9</ele>
<time>2026-06-23T09:34:25.249+08:00</time>
<extensions>
<gpxtpx:TrackPointExtension>
<gpxtpx:speed>1.14</gpxtpx:speed>
</gpxtpx:TrackPointExtension>
<opentracks:accuracy_horizontal>2.3</opentracks:accuracy_horizontal></extensions>
</trkpt>
<trkpt lat="-32.232752" lon="115.797886">
<ele>-26.6</ele>
<time>2026-06-23T09:34:34.243+08:00</time>
<extensions>
<gpxtpx:TrackPointExtension>
<gpxtpx:speed>1.14</gpxtpx:speed>
</gpxtpx:TrackPointExtension>
<opentracks:accuracy_horizontal>2.301</opentracks:accuracy_horizontal></extensions>
</trkpt>
<trkpt lat="-32.23272" lon="115.798">
<ele>-26.5</ele>
<time>2026-06-23T09:34:43.244+08:00</time>
<extensions>
<gpxtpx:TrackPointExtension>
<gpxtpx:speed>1.19</gpxtpx:speed>
</gpxtpx:TrackPointExtension>
<opentracks:accuracy_horizontal>2.31</opentracks:accuracy_horizontal></extensions>
</trkpt>
<trkpt lat="-32.232695" lon="115.798109">
<ele>-27.1</ele>
<time>2026-06-23T09:34:52.245+08:00</time>
<extensions>
<gpxtpx:TrackPointExtension>
<gpxtpx:speed>1.15</gpxtpx:speed>
</gpxtpx:TrackPointExtension>
<opentracks:accuracy_horizontal>2.321</opentracks:accuracy_horizontal></extensions>
</trkpt>
<trkpt lat="-32.23268" lon="115.798225">
<ele>-26.7</ele>
<time>2026-06-23T09:35:01.249+08:00</time>
<extensions>
<gpxtpx:TrackPointExtension>
<gpxtpx:speed>1.17</gpxtpx:speed>
</gpxtpx:TrackPointExtension>
<opentracks:accuracy_horizontal>2.372</opentracks:accuracy_horizontal></extensions>
</trkpt>
<trkpt lat="-32.232661" lon="115.79833">
<ele>-26.9</ele>
<time>2026-06-23T09:35:10.251+08:00</time>
<extensions>
<gpxtpx:TrackPointExtension>
<gpxtpx:speed>1.14</gpxtpx:speed>
</gpxtpx:TrackPointExtension>
<opentracks:accuracy_horizontal>2.292</opentracks:accuracy_horizontal></extensions>
</trkpt>
<trkpt lat="-32.232635" lon="115.798438">
<ele>-26.6</ele>
<time>2026-06-23T09:35:19.256+08:00</time>
<extensions>
<gpxtpx:TrackPointExtension>
<gpxtpx:speed>1.12</gpxtpx:speed>
</gpxtpx:TrackPointExtension>
<opentracks:accuracy_horizontal>2.293</opentracks:accuracy_horizontal></extensions>
</trkpt>
<trkpt lat="-32.232614" lon="115.798546">
<ele>-26.5</ele>
<time>2026-06-23T09:35:27.254+08:00</time>
<extensions>
<gpxtpx:TrackPointExtension>
<gpxtpx:speed>1.19</gpxtpx:speed>
</gpxtpx:TrackPointExtension>
<opentracks:accuracy_horizontal>2.336</opentracks:accuracy_horizontal></extensions>
</trkpt>
<trkpt lat="-32.232621" lon="115.798662">
<ele>-27.1</ele>
<time>2026-06-23T09:35:36.247+08:00</time>
<extensions>
<gpxtpx:TrackPointExtension>
<gpxtpx:speed>1.19</gpxtpx:speed>
</gpxtpx:TrackPointExtension>
<opentracks:accuracy_horizontal>2.439</opentracks:accuracy_horizontal></extensions>
</trkpt>
<trkpt lat="-32.23262" lon="115.798769">
<ele>-26.7</ele>
<time>2026-06-23T09:35:44.251+08:00</time>
<extensions>
<gpxtpx:TrackPointExtension>
<gpxtpx:speed>1.2</gpxtpx:speed>
</gpxtpx:TrackPointExtension>
<opentracks:accuracy_horizontal>2.5</opentracks:accuracy_horizontal></extensions>
</trkpt>
<trkpt lat="-32.232642" lon="115.798873">
<ele>-25.9</ele>
<time>2026-06-23T09:35:54.251+08:00</time>
<extensions>
<gpxtpx:TrackPointExtension>
<gpxtpx:speed>1.05</gpxtpx:speed>
</gpxtpx:TrackPointExtension>
<opentracks:accuracy_horizontal>2.466</opentracks:accuracy_horizontal></extensions>
</trkpt>
<trkpt lat="-32.232653" lon="115.798989">
<ele>-24.7</ele>
<time>2026-06-23T09:36:03.252+08:00</time>
<extensions>
<gpxtpx:TrackPointExtension>
<gpxtpx:speed>1.1</gpxtpx:speed>
</gpxtpx:TrackPointExtension>
<opentracks:accuracy_horizontal>2.8</opentracks:accuracy_horizontal></extensions>
</trkpt>
<trkpt lat="-32.232658" lon="115.799098">
<ele>-24.1</ele>
<time>2026-06-23T09:36:11.239+08:00</time>
<extensions>
<gpxtpx:TrackPointExtension>
<gpxtpx:speed>1.22</gpxtpx:speed>
</gpxtpx:TrackPointExtension>
<opentracks:accuracy_horizontal>2.814</opentracks:accuracy_horizontal></extensions>
</trkpt>
<trkpt lat="-32.232649" lon="115.799205">
<ele>-21.7</ele>
<time>2026-06-23T09:36:21.252+08:00</time>
<extensions>
<gpxtpx:TrackPointExtension>
<gpxtpx:speed>1.05</gpxtpx:speed>
</gpxtpx:TrackPointExtension>
<opentracks:accuracy_horizontal>2.767</opentracks:accuracy_horizontal></extensions>
</trkpt>
<trkpt lat="-32.232667" lon="115.79928">
<ele>-22.7</ele>
<time>2026-06-23T09:36:31.233+08:00</time>
<extensions>
<gpxtpx:TrackPointExtension>
<gpxtpx:speed>0.95</gpxtpx:speed>
</gpxtpx:TrackPointExtension>
<opentracks:accuracy_horizontal>2.725</opentracks:accuracy_horizontal></extensions>
</trkpt>
<trkpt lat="-32.232662" lon="115.799165">
<ele>-24.7</ele>
<time>2026-06-23T09:36:58.248+08:00</time>
<extensions>
<gpxtpx:TrackPointExtension>
<gpxtpx:speed>1.44</gpxtpx:speed>
</gpxtpx:TrackPointExtension>
<opentracks:accuracy_horizontal>2.762</opentracks:accuracy_horizontal></extensions>
</trkpt>
<trkpt lat="-32.232649" lon="115.799162">
<ele>-24.2</ele>
<time>2026-06-23T09:37:08.241+08:00</time>
<extensions>
<gpxtpx:TrackPointExtension>
<gpxtpx:speed>0.03</gpxtpx:speed>
</gpxtpx:TrackPointExtension>
<opentracks:accuracy_horizontal>3.137</opentracks:accuracy_horizontal></extensions>
</trkpt>
<trkpt lat="-32.232661" lon="115.799278">
<ele>-26.2</ele>
<time>2026-06-23T09:37:22.309+08:00</time>
<extensions>
<gpxtpx:TrackPointExtension>
<gpxtpx:speed>1.09</gpxtpx:speed>
</gpxtpx:TrackPointExtension>
<opentracks:accuracy_horizontal>3.129</opentracks:accuracy_horizontal></extensions>
</trkpt>
<trkpt lat="-32.232655" lon="115.799278">
<ele>-27.2</ele>
<time>2026-06-23T09:37:32.308+08:00</time>
<extensions>
<gpxtpx:TrackPointExtension>
<gpxtpx:speed>0.07</gpxtpx:speed>
</gpxtpx:TrackPointExtension>
<opentracks:accuracy_horizontal>1.998</opentracks:accuracy_horizontal></extensions>
</trkpt>
<trkpt lat="-32.232629" lon="115.799379">
<ele>-29.4</ele>
<time>2026-06-23T09:37:54.298+08:00</time>
<extensions>
<gpxtpx:TrackPointExtension>
<gpxtpx:speed>0.91</gpxtpx:speed>
</gpxtpx:TrackPointExtension>
<opentracks:accuracy_horizontal>3.493</opentracks:accuracy_horizontal></extensions>
</trkpt>
<trkpt lat="-32.232609" lon="115.79946">
<ele>-30.4</ele>
<time>2026-06-23T09:38:04.301+08:00</time>
<extensions>
<gpxtpx:TrackPointExtension>
<gpxtpx:speed>0.81</gpxtpx:speed>
</gpxtpx:TrackPointExtension>
<opentracks:accuracy_horizontal>6.38</opentracks:accuracy_horizontal></extensions>
</trkpt>
<trkpt lat="-32.23262" lon="115.799569">
<ele>-31</ele>
<time>2026-06-23T09:38:15.306+08:00</time>
<extensions>
<gpxtpx:TrackPointExtension>
<gpxtpx:speed>0.91</gpxtpx:speed>
</gpxtpx:TrackPointExtension>
<opentracks:accuracy_horizontal>3.171</opentracks:accuracy_horizontal></extensions>
</trkpt>
<trkpt lat="-32.23264" lon="115.799676">
<ele>-31.3</ele>
<time>2026-06-23T09:38:24.313+08:00</time>
<extensions>
<gpxtpx:TrackPointExtension>
<gpxtpx:speed>1.05</gpxtpx:speed>
</gpxtpx:TrackPointExtension>
<opentracks:accuracy_horizontal>3.502</opentracks:accuracy_horizontal></extensions>
</trkpt>
<trkpt lat="-32.232667" lon="115.79978">
<ele>-29.6</ele>
<time>2026-06-23T09:38:33.311+08:00</time>
<extensions>
<gpxtpx:TrackPointExtension>
<gpxtpx:speed>1.07</gpxtpx:speed>
</gpxtpx:TrackPointExtension>
<opentracks:accuracy_horizontal>3.375</opentracks:accuracy_horizontal></extensions>
</trkpt>
<trkpt lat="-32.232684" lon="115.799887">
<ele>-28.5</ele>
<time>2026-06-23T09:38:42.307+08:00</time>
<extensions>
<gpxtpx:TrackPointExtension>
<gpxtpx:speed>1.1</gpxtpx:speed>
</gpxtpx:TrackPointExtension>
<opentracks:accuracy_horizontal>3.409</opentracks:accuracy_horizontal></extensions>
</trkpt>
<trkpt lat="-32.232711" lon="115.799996">
<ele>-27.4</ele>
<time>2026-06-23T09:38:51.309+08:00</time>
<extensions>
<gpxtpx:TrackPointExtension>
<gpxtpx:speed>1.11</gpxtpx:speed>
</gpxtpx:TrackPointExtension>
<opentracks:accuracy_horizontal>2.949</opentracks:accuracy_horizontal></extensions>
</trkpt>
<trkpt lat="-32.232779" lon="115.80008">
<ele>-27.4</ele>
<time>2026-06-23T09:39:00.301+08:00</time>
<extensions>
<gpxtpx:TrackPointExtension>
<gpxtpx:speed>1.14</gpxtpx:speed>
</gpxtpx:TrackPointExtension>
<opentracks:accuracy_horizontal>3.455</opentracks:accuracy_horizontal></extensions>
</trkpt>
<trkpt lat="-32.232847" lon="115.800152">
<ele>-27.2</ele>
<time>2026-06-23T09:39:09.309+08:00</time>
<extensions>
<gpxtpx:TrackPointExtension>
<gpxtpx:speed>1.13</gpxtpx:speed>
</gpxtpx:TrackPointExtension>
<opentracks:accuracy_horizontal>3.335</opentracks:accuracy_horizontal></extensions>
</trkpt>
<trkpt lat="-32.232902" lon="115.800245">
<ele>-27.4</ele>
<time>2026-06-23T09:39:18.321+08:00</time>
<extensions>
<gpxtpx:TrackPointExtension>
<gpxtpx:speed>1.16</gpxtpx:speed>
</gpxtpx:TrackPointExtension>
<opentracks:accuracy_horizontal>3.065</opentracks:accuracy_horizontal></extensions>
</trkpt>
<trkpt lat="-32.232929" lon="115.800277">
<ele>-28.2</ele>
<time>2026-06-23T09:39:28.328+08:00</time>
<extensions>
<gpxtpx:TrackPointExtension>
<gpxtpx:speed>0.32</gpxtpx:speed>
</gpxtpx:TrackPointExtension>
<opentracks:accuracy_horizontal>3.229</opentracks:accuracy_horizontal></extensions>
</trkpt>
<trkpt lat="-32.232994" lon="115.800365">
<ele>-27.4</ele>
<time>2026-06-23T09:39:37.314+08:00</time>
<extensions>
<gpxtpx:TrackPointExtension>
<gpxtpx:speed>1.19</gpxtpx:speed>
</gpxtpx:TrackPointExtension>
<opentracks:accuracy_horizontal>3.383</opentracks:accuracy_horizontal></extensions>
</trkpt>
<trkpt lat="-32.233016" lon="115.800406">
<ele>-26.4</ele>
<time>2026-06-23T09:39:47.312+08:00</time>
<extensions>
<gpxtpx:TrackPointExtension>
<gpxtpx:speed>0.08</gpxtpx:speed>
</gpxtpx:TrackPointExtension>
<opentracks:accuracy_horizontal>2.19</opentracks:accuracy_horizontal></extensions>
</trkpt>
<trkpt lat="-32.233078" lon="115.800494">
<ele>-27.8</ele>
<time>2026-06-23T09:40:12.306+08:00</time>
<extensions>
<gpxtpx:TrackPointExtension>
<gpxtpx:speed>1.15</gpxtpx:speed>
</gpxtpx:TrackPointExtension>
<opentracks:accuracy_horizontal>3.66</opentracks:accuracy_horizontal></extensions>
</trkpt>
<trkpt lat="-32.233158" lon="115.800552">
<ele>-27.9</ele>
<time>2026-06-23T09:40:20.294+08:00</time>
<extensions>
<gpxtpx:TrackPointExtension>
<gpxtpx:speed>1.19</gpxtpx:speed>
</gpxtpx:TrackPointExtension>
<opentracks:accuracy_horizontal>3.507</opentracks:accuracy_horizontal></extensions>
</trkpt>
<trkpt lat="-32.233232" lon="115.800619">
<ele>-28</ele>
<time>2026-06-23T09:40:28.309+08:00</time>
<extensions>
<gpxtpx:TrackPointExtension>
<gpxtpx:speed>1.2</gpxtpx:speed>
</gpxtpx:TrackPointExtension>
<opentracks:accuracy_horizontal>3.24</opentracks:accuracy_horizontal></extensions>
</trkpt>
<trkpt lat="-32.2333" lon="115.800697">
<ele>-28.6</ele>
<time>2026-06-23T09:40:37.293+08:00</time>
<extensions>
<gpxtpx:TrackPointExtension>
<gpxtpx:speed>1.16</gpxtpx:speed>
</gpxtpx:TrackPointExtension>
<opentracks:accuracy_horizontal>3.283</opentracks:accuracy_horizontal></extensions>
</trkpt>
<trkpt lat="-32.233341" lon="115.800796">
<ele>-28.5</ele>
<time>2026-06-23T09:40:45.308+08:00</time>
<extensions>
<gpxtpx:TrackPointExtension>
<gpxtpx:speed>1.17</gpxtpx:speed>
</gpxtpx:TrackPointExtension>
<opentracks:accuracy_horizontal>3.174</opentracks:accuracy_horizontal></extensions>
</trkpt>
<trkpt lat="-32.233348" lon="115.800814">
<ele>-28.6</ele>
<time>2026-06-23T09:40:55.312+08:00</time>
<extensions>
<gpxtpx:TrackPointExtension>
<gpxtpx:speed>0.08</gpxtpx:speed>
</gpxtpx:TrackPointExtension>
<opentracks:accuracy_horizontal>3.28</opentracks:accuracy_horizontal></extensions>
</trkpt>
<trkpt lat="-32.233342" lon="115.800923">
<ele>-28.5</ele>
<time>2026-06-23T09:41:55.309+08:00</time>
<extensions>
<gpxtpx:TrackPointExtension>
<gpxtpx:speed>0.9</gpxtpx:speed>
</gpxtpx:TrackPointExtension>
<opentracks:accuracy_horizontal>3.738</opentracks:accuracy_horizontal></extensions>
</trkpt>
<trkpt lat="-32.233354" lon="115.800994">
<ele>-28.2</ele>
<time>2026-06-23T09:42:05.312+08:00</time>
<extensions>
<gpxtpx:TrackPointExtension>
<gpxtpx:speed>0.63</gpxtpx:speed>
</gpxtpx:TrackPointExtension>
<opentracks:accuracy_horizontal>3.87</opentracks:accuracy_horizontal></extensions>
</trkpt>
<trkpt lat="-32.233406" lon="115.801093">
<ele>-29.3</ele>
<time>2026-06-23T09:42:14.313+08:00</time>
<extensions>
<gpxtpx:TrackPointExtension>
<gpxtpx:speed>1.13</gpxtpx:speed>
</gpxtpx:TrackPointExtension>
<opentracks:accuracy_horizontal>2.96</opentracks:accuracy_horizontal></extensions>
</trkpt>
<trkpt lat="-32.233467" lon="115.801184">
<ele>-28.5</ele>
<time>2026-06-23T09:42:23.309+08:00</time>
<extensions>
<gpxtpx:TrackPointExtension>
<gpxtpx:speed>1.15</gpxtpx:speed>
</gpxtpx:TrackPointExtension>
<opentracks:accuracy_horizontal>3.002</opentracks:accuracy_horizontal></extensions>
</trkpt>
<trkpt lat="-32.233524" lon="115.801278">
<ele>-28.1</ele>
<time>2026-06-23T09:42:33.311+08:00</time>
<extensions>
<gpxtpx:TrackPointExtension>
<gpxtpx:speed>1.07</gpxtpx:speed>
</gpxtpx:TrackPointExtension>
<opentracks:accuracy_horizontal>2.995</opentracks:accuracy_horizontal></extensions>
</trkpt>
<trkpt lat="-32.23359" lon="115.801364">
<ele>-28.2</ele>
<time>2026-06-23T09:42:43.305+08:00</time>
<extensions>
<gpxtpx:TrackPointExtension>
<gpxtpx:speed>1.07</gpxtpx:speed>
</gpxtpx:TrackPointExtension>
<opentracks:accuracy_horizontal>3.168</opentracks:accuracy_horizontal></extensions>
</trkpt>
<trkpt lat="-32.23362" lon="115.801393">
<ele>-27.1</ele>
<time>2026-06-23T09:42:53.313+08:00</time>
<extensions>
<gpxtpx:TrackPointExtension>
<gpxtpx:speed>0.24</gpxtpx:speed>
</gpxtpx:TrackPointExtension>
<opentracks:accuracy_horizontal>3.202</opentracks:accuracy_horizontal></extensions>
</trkpt>
<trkpt lat="-32.233674" lon="115.801488">
<ele>-26.2</ele>
<time>2026-06-23T09:43:07.308+08:00</time>
<extensions>
<gpxtpx:TrackPointExtension>
<gpxtpx:speed>0.97</gpxtpx:speed>
</gpxtpx:TrackPointExtension>
<opentracks:accuracy_horizontal>3.054</opentracks:accuracy_horizontal></extensions>
</trkpt>
<trkpt lat="-32.233741" lon="115.801564">
<ele>-27</ele>
<time>2026-06-23T09:43:17.302+08:00</time>
<extensions>
<gpxtpx:TrackPointExtension>
<gpxtpx:speed>0.98</gpxtpx:speed>
</gpxtpx:TrackPointExtension>
<opentracks:accuracy_horizontal>3.314</opentracks:accuracy_horizontal></extensions>
</trkpt>
<trkpt lat="-32.233757" lon="115.801674">
<ele>-28.2</ele>
<time>2026-06-23T09:43:27.311+08:00</time>
<extensions>
<gpxtpx:TrackPointExtension>
<gpxtpx:speed>1.04</gpxtpx:speed>
</gpxtpx:TrackPointExtension>
<opentracks:accuracy_horizontal>4.058</opentracks:accuracy_horizontal></extensions>
</trkpt>
<trkpt lat="-32.233749" lon="115.801789">
<ele>-28</ele>
<time>2026-06-23T09:43:36.309+08:00</time>
<extensions>
<gpxtpx:TrackPointExtension>
<gpxtpx:speed>1.1</gpxtpx:speed>
</gpxtpx:TrackPointExtension>
<opentracks:accuracy_horizontal>3.949</opentracks:accuracy_horizontal></extensions>
</trkpt>
<trkpt lat="-32.233802" lon="115.801887">
<ele>-28.2</ele>
<time>2026-06-23T09:43:45.31+08:00</time>
<extensions>
<gpxtpx:TrackPointExtension>
<gpxtpx:speed>1.15</gpxtpx:speed>
</gpxtpx:TrackPointExtension>
<opentracks:accuracy_horizontal>3.366</opentracks:accuracy_horizontal></extensions>
</trkpt>
<trkpt lat="-32.233862" lon="115.801979">
<ele>-27.6</ele>
<time>2026-06-23T09:43:54.315+08:00</time>
<extensions>
<gpxtpx:TrackPointExtension>
<gpxtpx:speed>1.19</gpxtpx:speed>
</gpxtpx:TrackPointExtension>
<opentracks:accuracy_horizontal>3.345</opentracks:accuracy_horizontal></extensions>
</trkpt>
<trkpt lat="-32.233878" lon="115.80208">
<ele>-26.5</ele>
<time>2026-06-23T09:44:04.308+08:00</time>
<extensions>
<gpxtpx:TrackPointExtension>
<gpxtpx:speed>1.04</gpxtpx:speed>
</gpxtpx:TrackPointExtension>
<opentracks:accuracy_horizontal>3.359</opentracks:accuracy_horizontal></extensions>
</trkpt>
<trkpt lat="-32.233878" lon="115.80219">
<ele>-26.9</ele>
<time>2026-06-23T09:44:13.314+08:00</time>
<extensions>
<gpxtpx:TrackPointExtension>
<gpxtpx:speed>1.07</gpxtpx:speed>
</gpxtpx:TrackPointExtension>
<opentracks:accuracy_horizontal>3.819</opentracks:accuracy_horizontal></extensions>
</trkpt>
<trkpt lat="-32.233881" lon="115.802306">
<ele>-26.8</ele>
<time>2026-06-23T09:44:21.317+08:00</time>
<extensions>
<gpxtpx:TrackPointExtension>
<gpxtpx:speed>1.2</gpxtpx:speed>
</gpxtpx:TrackPointExtension>
<opentracks:accuracy_horizontal>3.812</opentracks:accuracy_horizontal></extensions>
</trkpt>
<trkpt lat="-32.23388" lon="115.802422">
<ele>-26</ele>
<time>2026-06-23T09:44:31.31+08:00</time>
<extensions>
<gpxtpx:TrackPointExtension>
<gpxtpx:speed>1.11</gpxtpx:speed>
</gpxtpx:TrackPointExtension>
<opentracks:accuracy_horizontal>4.134</opentracks:accuracy_horizontal></extensions>
</trkpt>
<trkpt lat="-32.23388" lon="115.802533">
<ele>-25.5</ele>
<time>2026-06-23T09:44:38.31+08:00</time>
<extensions>
<gpxtpx:TrackPointExtension>
<gpxtpx:speed>1.22</gpxtpx:speed>
</gpxtpx:TrackPointExtension>
<opentracks:accuracy_horizontal>3.616</opentracks:accuracy_horizontal></extensions>
</trkpt>
<trkpt lat="-32.233885" lon="115.802642">
<ele>-24.3</ele>
<time>2026-06-23T09:44:48.31+08:00</time>
<extensions>
<gpxtpx:TrackPointExtension>
<gpxtpx:speed>1.07</gpxtpx:speed>
</gpxtpx:TrackPointExtension>
<opentracks:accuracy_horizontal>3.661</opentracks:accuracy_horizontal></extensions>
</trkpt>
<trkpt lat="-32.233887" lon="115.80276">
<ele>-24.5</ele>
<time>2026-06-23T09:44:57.311+08:00</time>
<extensions>
<gpxtpx:TrackPointExtension>
<gpxtpx:speed>1.16</gpxtpx:speed>
</gpxtpx:TrackPointExtension>
<opentracks:accuracy_horizontal>3.451</opentracks:accuracy_horizontal></extensions>
</trkpt>
<trkpt lat="-32.233882" lon="115.802875">
<ele>-24.3</ele>
<time>2026-06-23T09:45:07.311+08:00</time>
<extensions>
<gpxtpx:TrackPointExtension>
<gpxtpx:speed>1.09</gpxtpx:speed>
</gpxtpx:TrackPointExtension>
<opentracks:accuracy_horizontal>3.753</opentracks:accuracy_horizontal></extensions>
</trkpt>
<trkpt lat="-32.233883" lon="115.80299">
<ele>-22.4</ele>
<time>2026-06-23T09:45:16.314+08:00</time>
<extensions>
<gpxtpx:TrackPointExtension>
<gpxtpx:speed>1.12</gpxtpx:speed>
</gpxtpx:TrackPointExtension>
<opentracks:accuracy_horizontal>3.788</opentracks:accuracy_horizontal></extensions>
</trkpt>
<trkpt lat="-32.233857" lon="115.803089">
<ele>-21.4</ele>
<time>2026-06-23T09:45:26.312+08:00</time>
<extensions>
<gpxtpx:TrackPointExtension>
<gpxtpx:speed>1.07</gpxtpx:speed>
</gpxtpx:TrackPointExtension>
<opentracks:accuracy_horizontal>3.203</opentracks:accuracy_horizontal></extensions>
</trkpt>
<trkpt lat="-32.233764" lon="115.803104">
<ele>-20.6</ele>
<time>2026-06-23T09:45:36.304+08:00</time>
<extensions>
<gpxtpx:TrackPointExtension>
<gpxtpx:speed>1.03</gpxtpx:speed>
</gpxtpx:TrackPointExtension>
<opentracks:accuracy_horizontal>3.386</opentracks:accuracy_horizontal></extensions>
</trkpt>
<trkpt lat="-32.233668" lon="115.803126">
<ele>-20</ele>
<time>2026-06-23T09:45:46.309+08:00</time>
<extensions>
<gpxtpx:TrackPointExtension>
<gpxtpx:speed>1.03</gpxtpx:speed>
</gpxtpx:TrackPointExtension>
<opentracks:accuracy_horizontal>3.509</opentracks:accuracy_horizontal></extensions>
</trkpt>
<trkpt lat="-32.233571" lon="115.80312">
<ele>-19.7</ele>
<time>2026-06-23T09:45:55.331+08:00</time>
<extensions>
<gpxtpx:TrackPointExtension>
<gpxtpx:speed>1.11</gpxtpx:speed>
</gpxtpx:TrackPointExtension>
<opentracks:accuracy_horizontal>3.316</opentracks:accuracy_horizontal></extensions>
</trkpt>
<trkpt lat="-32.233473" lon="115.803119">
<ele>-19.6</ele>
<time>2026-06-23T09:46:04.311+08:00</time>
<extensions>
<gpxtpx:TrackPointExtension>
<gpxtpx:speed>1.12</gpxtpx:speed>
</gpxtpx:TrackPointExtension>
<opentracks:accuracy_horizontal>3.762</opentracks:accuracy_horizontal></extensions>
</trkpt>
<trkpt lat="-32.233374" lon="115.803119">
<ele>-15.6</ele>
<time>2026-06-23T09:46:13.314+08:00</time>
<extensions>
<gpxtpx:TrackPointExtension>
<gpxtpx:speed>1.13</gpxtpx:speed>
</gpxtpx:TrackPointExtension>
<opentracks:accuracy_horizontal>2.463</opentracks:accuracy_horizontal></extensions>
</trkpt>
<trkpt lat="-32.233281" lon="115.803101">
<ele>-15.6</ele>
<time>2026-06-23T09:46:22.252+08:00</time>
<extensions>
<gpxtpx:TrackPointExtension>
<gpxtpx:speed>1.11</gpxtpx:speed>
</gpxtpx:TrackPointExtension>
<opentracks:accuracy_horizontal>2.487</opentracks:accuracy_horizontal></extensions>
</trkpt>
<trkpt lat="-32.233232" lon="115.80304">
<ele>-15.9</ele>
<time>2026-06-23T09:46:32.26+08:00</time>
<extensions>
<gpxtpx:TrackPointExtension>
<gpxtpx:speed>0.86</gpxtpx:speed>
</gpxtpx:TrackPointExtension>
<opentracks:accuracy_horizontal>2.669</opentracks:accuracy_horizontal></extensions>
</trkpt>
<trkpt lat="-32.233237" lon="115.802926">
<ele>-12.8</ele>
<time>2026-06-23T09:46:41.316+08:00</time>
<extensions>
<gpxtpx:TrackPointExtension>
<gpxtpx:speed>0.95</gpxtpx:speed>
</gpxtpx:TrackPointExtension>
<opentracks:accuracy_horizontal>2.506</opentracks:accuracy_horizontal></extensions>
</trkpt>
<trkpt lat="-32.233222" lon="115.802873">
<ele>-12.9</ele>
<time>2026-06-23T09:46:51.239+08:00</time>
<extensions>
<gpxtpx:TrackPointExtension>
<gpxtpx:speed>0.26</gpxtpx:speed>
</gpxtpx:TrackPointExtension>
<opentracks:accuracy_horizontal>2.609</opentracks:accuracy_horizontal></extensions>
</trkpt>
<trkpt lat="-32.233216" lon="115.802857">
<ele>-13.2</ele>
<time>2026-06-23T09:46:59.229+08:00</time>
<extensions>
<gpxtpx:TrackPointExtension>
<gpxtpx:speed>0.14</gpxtpx:speed>
</gpxtpx:TrackPointExtension>
<opentracks:accuracy_horizontal>2.947</opentracks:accuracy_horizontal></extensions>
</trkpt>
</trkseg>
</trk>
</gpx>
