<?xml version="1.0" encoding="UTF-8"?>
<gpx
version="1.1"
creator="OpenTracks"
xmlns="http://www.topografix.com/GPX/1/1"
xmlns:topografix="http://www.topografix.com/GPX/Private/TopoGrafix/0/1"
xmlns:xsi="http://www.w3.org/2001/XMLSchema-instance"
xmlns:opentracks="http://opentracksapp.com/xmlschemas/v1"
xmlns:gpxtpx="http://www.garmin.com/xmlschemas/TrackPointExtension/v2"
xmlns:gpxtrkx="http://www.garmin.com/xmlschemas/TrackStatsExtension/v1"
xmlns:cluetrust="http://www.cluetrust.com/Schemas/"
xmlns:pwr="http://www.garmin.com/xmlschemas/PowerExtension/v1"
xsi:schemaLocation="http://www.topografix.com/GPX/1/1 http://www.topografix.com/GPX/1/1/gpx.xsd http://www.topografix.com/GPX/Private/TopoGrafix/0/1 http://www.topografix.com/GPX/Private/TopoGrafix/0/1/topografix.xsd http://www.garmin.com/xmlschemas/TrackPointExtension/v2 https://www8.garmin.com/xmlschemas/TrackPointExtensionv2.xsd http://www.garmin.com/xmlschemas/PowerExtension/v1 https://www8.garmin.com/xmlschemas/PowerExtensionv1.xsd http://www.garmin.com/xmlschemas/TrackStatsExtension/v1 https://www8.garmin.com/xmlschemas/TrackStatsExtension.xsd http://www.cluetrust.com/Schemas https://www.cluetrust.com/Schemas/gpxdata10.xsd http://opentracksapp.com/xmlschemas/v1 http://opentracksapp.com/xmlschemas/OpenTracks_v1.xsd">
<trk>
<name><![CDATA[2026-06-18T10:03+08]]></name>
<desc><![CDATA[]]></desc>
<type><![CDATA[cycling]]></type>
<extensions>
<topografix:color>c0c0c0</topografix:color>
<opentracks:trackid>f68117ff-0fc7-4c00-ac01-09c898fb7747</opentracks:trackid>
<opentracks:typeTranslated><![CDATA[cycling]]></opentracks:typeTranslated>
<gpxtrkx:TrackStatsExtension>
<gpxtrkx:Distance>3026.468505859375</gpxtrkx:Distance>
<gpxtrkx:TimerTime>3992</gpxtrkx:TimerTime>
<gpxtrkx:MovingTime>2087</gpxtrkx:MovingTime>
<gpxtrkx:StoppedTime>1905</gpxtrkx:StoppedTime>
<gpxtrkx:MaxSpeed>1.4785367250442505</gpxtrkx:MaxSpeed>
</gpxtrkx:TrackStatsExtension>
</extensions>
<trkseg>
<trkpt lat="-32.233138" lon="115.80288">
<ele>12.2</ele>
<time>2026-06-18T10:03:20.923+08:00</time>
<extensions>
<gpxtpx:TrackPointExtension>
<gpxtpx:speed>0</gpxtpx:speed>
</gpxtpx:TrackPointExtension>
<opentracks:accuracy_horizontal>21.801</opentracks:accuracy_horizontal></extensions>
</trkpt>
<trkpt lat="-32.233192" lon="115.802974">
<ele>0.7</ele>
<time>2026-06-18T10:03:27.063+08:00</time>
<extensions>
<gpxtpx:TrackPointExtension>
<gpxtpx:speed>0</gpxtpx:speed>
</gpxtpx:TrackPointExtension>
<opentracks:accuracy_horizontal>17.536</opentracks:accuracy_horizontal></extensions>
</trkpt>
<trkpt lat="-32.2332" lon="115.803146">
<ele>6.5</ele>
<time>2026-06-18T10:03:30.076+08:00</time>
<extensions>
<gpxtpx:TrackPointExtension>
<gpxtpx:speed>0</gpxtpx:speed>
</gpxtpx:TrackPointExtension>
<opentracks:accuracy_horizontal>22.503</opentracks:accuracy_horizontal></extensions>
</trkpt>
<trkpt lat="-32.233242" lon="115.803233">
<ele>-8.6</ele>
<time>2026-06-18T10:03:40.078+08:00</time>
<extensions>
<gpxtpx:TrackPointExtension>
<gpxtpx:speed>0</gpxtpx:speed>
</gpxtpx:TrackPointExtension>
<opentracks:accuracy_horizontal>14.78</opentracks:accuracy_horizontal></extensions>
</trkpt>
<trkpt lat="-32.233255" lon="115.803128">
<ele>-14.3</ele>
<time>2026-06-18T10:03:51.709+08:00</time>
<extensions>
<gpxtpx:TrackPointExtension>
<gpxtpx:speed>0</gpxtpx:speed>
</gpxtpx:TrackPointExtension>
<opentracks:accuracy_horizontal>2.721</opentracks:accuracy_horizontal></extensions>
</trkpt>
<trkpt lat="-32.233272" lon="115.803091">
<ele>-16.3</ele>
<time>2026-06-18T10:04:01.722+08:00</time>
<extensions>
<gpxtpx:TrackPointExtension>
<gpxtpx:speed>0.83</gpxtpx:speed>
</gpxtpx:TrackPointExtension>
<opentracks:accuracy_horizontal>2.964</opentracks:accuracy_horizontal></extensions>
</trkpt>
<trkpt lat="-32.233366" lon="115.803136">
<ele>-15.5</ele>
<time>2026-06-18T10:04:08.722+08:00</time>
<extensions>
<gpxtpx:TrackPointExtension>
<gpxtpx:speed>1.48</gpxtpx:speed>
</gpxtpx:TrackPointExtension>
<opentracks:accuracy_horizontal>2.676</opentracks:accuracy_horizontal></extensions>
</trkpt>
<trkpt lat="-32.233461" lon="115.803145">
<ele>-16.7</ele>
<time>2026-06-18T10:04:16.727+08:00</time>
<extensions>
<gpxtpx:TrackPointExtension>
<gpxtpx:speed>1.3</gpxtpx:speed>
</gpxtpx:TrackPointExtension>
<opentracks:accuracy_horizontal>3.003</opentracks:accuracy_horizontal></extensions>
</trkpt>
<trkpt lat="-32.233558" lon="115.80313">
<ele>-18.2</ele>
<time>2026-06-18T10:04:26.721+08:00</time>
<extensions>
<gpxtpx:TrackPointExtension>
<gpxtpx:speed>1.15</gpxtpx:speed>
</gpxtpx:TrackPointExtension>
<opentracks:accuracy_horizontal>3.478</opentracks:accuracy_horizontal></extensions>
</trkpt>
<trkpt lat="-32.233637" lon="115.803142">
<ele>-18.9</ele>
<time>2026-06-18T10:04:36.711+08:00</time>
<extensions>
<gpxtpx:TrackPointExtension>
<gpxtpx:speed>1.21</gpxtpx:speed>
</gpxtpx:TrackPointExtension>
<opentracks:accuracy_horizontal>3.484</opentracks:accuracy_horizontal></extensions>
</trkpt>
<trkpt lat="-32.233735" lon="115.803139">
<ele>-19.6</ele>
<time>2026-06-18T10:04:44.735+08:00</time>
<extensions>
<gpxtpx:TrackPointExtension>
<gpxtpx:speed>1.29</gpxtpx:speed>
</gpxtpx:TrackPointExtension>
<opentracks:accuracy_horizontal>2.931</opentracks:accuracy_horizontal></extensions>
</trkpt>
<trkpt lat="-32.233814" lon="115.803088">
<ele>-19.9</ele>
<time>2026-06-18T10:04:53.732+08:00</time>
<extensions>
<gpxtpx:TrackPointExtension>
<gpxtpx:speed>1.16</gpxtpx:speed>
</gpxtpx:TrackPointExtension>
<opentracks:accuracy_horizontal>3.115</opentracks:accuracy_horizontal></extensions>
</trkpt>
<trkpt lat="-32.233887" lon="115.803066">
<ele>-20</ele>
<time>2026-06-18T10:05:03.697+08:00</time>
<extensions>
<gpxtpx:TrackPointExtension>
<gpxtpx:speed>0.2</gpxtpx:speed>
</gpxtpx:TrackPointExtension>
<opentracks:accuracy_horizontal>2.407</opentracks:accuracy_horizontal></extensions>
</trkpt>
<trkpt lat="-32.233889" lon="115.802958">
<ele>-20.4</ele>
<time>2026-06-18T10:05:17.724+08:00</time>
<extensions>
<gpxtpx:TrackPointExtension>
<gpxtpx:speed>1.28</gpxtpx:speed>
</gpxtpx:TrackPointExtension>
<opentracks:accuracy_horizontal>3.408</opentracks:accuracy_horizontal></extensions>
</trkpt>
<trkpt lat="-32.233883" lon="115.802838">
<ele>-22.6</ele>
<time>2026-06-18T10:05:27.725+08:00</time>
<extensions>
<gpxtpx:TrackPointExtension>
<gpxtpx:speed>1.14</gpxtpx:speed>
</gpxtpx:TrackPointExtension>
<opentracks:accuracy_horizontal>3.715</opentracks:accuracy_horizontal></extensions>
</trkpt>
<trkpt lat="-32.233887" lon="115.802736">
<ele>-24.2</ele>
<time>2026-06-18T10:05:37.72+08:00</time>
<extensions>
<gpxtpx:TrackPointExtension>
<gpxtpx:speed>1.07</gpxtpx:speed>
</gpxtpx:TrackPointExtension>
<opentracks:accuracy_horizontal>3.894</opentracks:accuracy_horizontal></extensions>
</trkpt>
<trkpt lat="-32.233892" lon="115.802617">
<ele>-27.9</ele>
<time>2026-06-18T10:05:53.717+08:00</time>
<extensions>
<gpxtpx:TrackPointExtension>
<gpxtpx:speed>0.99</gpxtpx:speed>
</gpxtpx:TrackPointExtension>
<opentracks:accuracy_horizontal>4.182</opentracks:accuracy_horizontal></extensions>
</trkpt>
<trkpt lat="-32.233883" lon="115.802503">
<ele>-28.6</ele>
<time>2026-06-18T10:06:03.718+08:00</time>
<extensions>
<gpxtpx:TrackPointExtension>
<gpxtpx:speed>1.02</gpxtpx:speed>
</gpxtpx:TrackPointExtension>
<opentracks:accuracy_horizontal>4.427</opentracks:accuracy_horizontal></extensions>
</trkpt>
<trkpt lat="-32.233879" lon="115.802388">
<ele>-30.2</ele>
<time>2026-06-18T10:06:12.727+08:00</time>
<extensions>
<gpxtpx:TrackPointExtension>
<gpxtpx:speed>1.09</gpxtpx:speed>
</gpxtpx:TrackPointExtension>
<opentracks:accuracy_horizontal>4.369</opentracks:accuracy_horizontal></extensions>
</trkpt>
<trkpt lat="-32.23388" lon="115.802273">
<ele>-30.9</ele>
<time>2026-06-18T10:06:20.72+08:00</time>
<extensions>
<gpxtpx:TrackPointExtension>
<gpxtpx:speed>1.18</gpxtpx:speed>
</gpxtpx:TrackPointExtension>
<opentracks:accuracy_horizontal>4.176</opentracks:accuracy_horizontal></extensions>
</trkpt>
<trkpt lat="-32.233875" lon="115.802254">
<ele>-29.6</ele>
<time>2026-06-18T10:06:30.723+08:00</time>
<extensions>
<gpxtpx:TrackPointExtension>
<gpxtpx:speed>0.01</gpxtpx:speed>
</gpxtpx:TrackPointExtension>
<opentracks:accuracy_horizontal>2.49</opentracks:accuracy_horizontal></extensions>
</trkpt>
<trkpt lat="-32.233872" lon="115.802148">
<ele>-31.4</ele>
<time>2026-06-18T10:06:49.725+08:00</time>
<extensions>
<gpxtpx:TrackPointExtension>
<gpxtpx:speed>1.05</gpxtpx:speed>
</gpxtpx:TrackPointExtension>
<opentracks:accuracy_horizontal>3.907</opentracks:accuracy_horizontal></extensions>
</trkpt>
<trkpt lat="-32.23388" lon="115.802033">
<ele>-31.6</ele>
<time>2026-06-18T10:06:57.737+08:00</time>
<extensions>
<gpxtpx:TrackPointExtension>
<gpxtpx:speed>1.2</gpxtpx:speed>
</gpxtpx:TrackPointExtension>
<opentracks:accuracy_horizontal>3.903</opentracks:accuracy_horizontal></extensions>
</trkpt>
<trkpt lat="-32.233867" lon="115.801986">
<ele>-30</ele>
<time>2026-06-18T10:07:07.718+08:00</time>
<extensions>
<gpxtpx:TrackPointExtension>
<gpxtpx:speed>0.09</gpxtpx:speed>
</gpxtpx:TrackPointExtension>
<opentracks:accuracy_horizontal>3.014</opentracks:accuracy_horizontal></extensions>
</trkpt>
<trkpt lat="-32.233807" lon="115.801906">
<ele>-30.8</ele>
<time>2026-06-18T10:07:23.717+08:00</time>
<extensions>
<gpxtpx:TrackPointExtension>
<gpxtpx:speed>1.2</gpxtpx:speed>
</gpxtpx:TrackPointExtension>
<opentracks:accuracy_horizontal>3.254</opentracks:accuracy_horizontal></extensions>
</trkpt>
<trkpt lat="-32.233743" lon="115.801818">
<ele>-31</ele>
<time>2026-06-18T10:07:32.737+08:00</time>
<extensions>
<gpxtpx:TrackPointExtension>
<gpxtpx:speed>1.2</gpxtpx:speed>
</gpxtpx:TrackPointExtension>
<opentracks:accuracy_horizontal>3.274</opentracks:accuracy_horizontal></extensions>
</trkpt>
<trkpt lat="-32.23374" lon="115.801759">
<ele>-32.2</ele>
<time>2026-06-18T10:07:42.722+08:00</time>
<extensions>
<gpxtpx:TrackPointExtension>
<gpxtpx:speed>0.08</gpxtpx:speed>
</gpxtpx:TrackPointExtension>
<opentracks:accuracy_horizontal>2.705</opentracks:accuracy_horizontal></extensions>
</trkpt>
<trkpt lat="-32.233754" lon="115.801645">
<ele>-32.2</ele>
<time>2026-06-18T10:08:20.72+08:00</time>
<extensions>
<gpxtpx:TrackPointExtension>
<gpxtpx:speed>1.28</gpxtpx:speed>
</gpxtpx:TrackPointExtension>
<opentracks:accuracy_horizontal>3.954</opentracks:accuracy_horizontal></extensions>
</trkpt>
<trkpt lat="-32.233733" lon="115.801528">
<ele>-32.2</ele>
<time>2026-06-18T10:08:28.73+08:00</time>
<extensions>
<gpxtpx:TrackPointExtension>
<gpxtpx:speed>1.31</gpxtpx:speed>
</gpxtpx:TrackPointExtension>
<opentracks:accuracy_horizontal>4.046</opentracks:accuracy_horizontal></extensions>
</trkpt>
<trkpt lat="-32.233676" lon="115.801444">
<ele>-32.1</ele>
<time>2026-06-18T10:08:35.721+08:00</time>
<extensions>
<gpxtpx:TrackPointExtension>
<gpxtpx:speed>1.32</gpxtpx:speed>
</gpxtpx:TrackPointExtension>
<opentracks:accuracy_horizontal>3.515</opentracks:accuracy_horizontal></extensions>
</trkpt>
<trkpt lat="-32.23364" lon="115.801385">
<ele>-31.7</ele>
<time>2026-06-18T10:08:45.73+08:00</time>
<extensions>
<gpxtpx:TrackPointExtension>
<gpxtpx:speed>1.01</gpxtpx:speed>
</gpxtpx:TrackPointExtension>
<opentracks:accuracy_horizontal>3.958</opentracks:accuracy_horizontal></extensions>
</trkpt>
<trkpt lat="-32.233574" lon="115.801299">
<ele>-31.8</ele>
<time>2026-06-18T10:08:54.727+08:00</time>
<extensions>
<gpxtpx:TrackPointExtension>
<gpxtpx:speed>1.1</gpxtpx:speed>
</gpxtpx:TrackPointExtension>
<opentracks:accuracy_horizontal>4.003</opentracks:accuracy_horizontal></extensions>
</trkpt>
<trkpt lat="-32.233523" lon="115.801196">
<ele>-32.9</ele>
<time>2026-06-18T10:09:03.708+08:00</time>
<extensions>
<gpxtpx:TrackPointExtension>
<gpxtpx:speed>1.17</gpxtpx:speed>
</gpxtpx:TrackPointExtension>
<opentracks:accuracy_horizontal>4.053</opentracks:accuracy_horizontal></extensions>
</trkpt>
<trkpt lat="-32.233468" lon="115.801106">
<ele>-32.1</ele>
<time>2026-06-18T10:09:10.725+08:00</time>
<extensions>
<gpxtpx:TrackPointExtension>
<gpxtpx:speed>1.29</gpxtpx:speed>
</gpxtpx:TrackPointExtension>
<opentracks:accuracy_horizontal>3.986</opentracks:accuracy_horizontal></extensions>
</trkpt>
<trkpt lat="-32.233419" lon="115.801015">
<ele>-32.9</ele>
<time>2026-06-18T10:09:19.724+08:00</time>
<extensions>
<gpxtpx:TrackPointExtension>
<gpxtpx:speed>1.13</gpxtpx:speed>
</gpxtpx:TrackPointExtension>
<opentracks:accuracy_horizontal>3.833</opentracks:accuracy_horizontal></extensions>
</trkpt>
<trkpt lat="-32.233373" lon="115.800923">
<ele>-32.2</ele>
<time>2026-06-18T10:09:27.72+08:00</time>
<extensions>
<gpxtpx:TrackPointExtension>
<gpxtpx:speed>1.17</gpxtpx:speed>
</gpxtpx:TrackPointExtension>
<opentracks:accuracy_horizontal>3.725</opentracks:accuracy_horizontal></extensions>
</trkpt>
<trkpt lat="-32.233311" lon="115.800833">
<ele>-31.8</ele>
<time>2026-06-18T10:09:36.729+08:00</time>
<extensions>
<gpxtpx:TrackPointExtension>
<gpxtpx:speed>1.09</gpxtpx:speed>
</gpxtpx:TrackPointExtension>
<opentracks:accuracy_horizontal>3.635</opentracks:accuracy_horizontal></extensions>
</trkpt>
<trkpt lat="-32.233281" lon="115.800748">
<ele>-34.4</ele>
<time>2026-06-18T10:09:46.716+08:00</time>
<extensions>
<gpxtpx:TrackPointExtension>
<gpxtpx:speed>1.04</gpxtpx:speed>
</gpxtpx:TrackPointExtension>
<opentracks:accuracy_horizontal>3.881</opentracks:accuracy_horizontal></extensions>
</trkpt>
<trkpt lat="-32.233239" lon="115.800645">
<ele>-35.4</ele>
<time>2026-06-18T10:09:54.723+08:00</time>
<extensions>
<gpxtpx:TrackPointExtension>
<gpxtpx:speed>1.2</gpxtpx:speed>
</gpxtpx:TrackPointExtension>
<opentracks:accuracy_horizontal>4.049</opentracks:accuracy_horizontal></extensions>
</trkpt>
<trkpt lat="-32.233203" lon="115.800581">
<ele>-34.1</ele>
<time>2026-06-18T10:10:04.718+08:00</time>
<extensions>
<gpxtpx:TrackPointExtension>
<gpxtpx:speed>0.23</gpxtpx:speed>
</gpxtpx:TrackPointExtension>
<opentracks:accuracy_horizontal>2.932</opentracks:accuracy_horizontal></extensions>
</trkpt>
<trkpt lat="-32.233122" lon="115.800524">
<ele>-34</ele>
<time>2026-06-18T10:10:16.721+08:00</time>
<extensions>
<gpxtpx:TrackPointExtension>
<gpxtpx:speed>1.11</gpxtpx:speed>
</gpxtpx:TrackPointExtension>
<opentracks:accuracy_horizontal>3.81</opentracks:accuracy_horizontal></extensions>
</trkpt>
<trkpt lat="-32.233049" lon="115.800454">
<ele>-33.4</ele>
<time>2026-06-18T10:10:24.722+08:00</time>
<extensions>
<gpxtpx:TrackPointExtension>
<gpxtpx:speed>1.22</gpxtpx:speed>
</gpxtpx:TrackPointExtension>
<opentracks:accuracy_horizontal>4.062</opentracks:accuracy_horizontal></extensions>
</trkpt>
<trkpt lat="-32.233007" lon="115.800362">
<ele>-32.7</ele>
<time>2026-06-18T10:10:34.73+08:00</time>
<extensions>
<gpxtpx:TrackPointExtension>
<gpxtpx:speed>1.21</gpxtpx:speed>
</gpxtpx:TrackPointExtension>
<opentracks:accuracy_horizontal>3.429</opentracks:accuracy_horizontal></extensions>
</trkpt>
<trkpt lat="-32.232948" lon="115.800275">
<ele>-32.4</ele>
<time>2026-06-18T10:10:42.727+08:00</time>
<extensions>
<gpxtpx:TrackPointExtension>
<gpxtpx:speed>1.28</gpxtpx:speed>
</gpxtpx:TrackPointExtension>
<opentracks:accuracy_horizontal>3.588</opentracks:accuracy_horizontal></extensions>
</trkpt>
<trkpt lat="-32.232891" lon="115.800176">
<ele>-31.7</ele>
<time>2026-06-18T10:10:51.751+08:00</time>
<extensions>
<gpxtpx:TrackPointExtension>
<gpxtpx:speed>1.25</gpxtpx:speed>
</gpxtpx:TrackPointExtension>
<opentracks:accuracy_horizontal>3.437</opentracks:accuracy_horizontal></extensions>
</trkpt>
<trkpt lat="-32.232841" lon="115.800109">
<ele>-32.2</ele>
<time>2026-06-18T10:11:01.705+08:00</time>
<extensions>
<gpxtpx:TrackPointExtension>
<gpxtpx:speed>1.14</gpxtpx:speed>
</gpxtpx:TrackPointExtension>
<opentracks:accuracy_horizontal>3.82</opentracks:accuracy_horizontal></extensions>
</trkpt>
<trkpt lat="-32.232772" lon="115.800025">
<ele>-31.5</ele>
<time>2026-06-18T10:11:22.744+08:00</time>
<extensions>
<gpxtpx:TrackPointExtension>
<gpxtpx:speed>0.85</gpxtpx:speed>
</gpxtpx:TrackPointExtension>
<opentracks:accuracy_horizontal>3.648</opentracks:accuracy_horizontal></extensions>
</trkpt>
<trkpt lat="-32.232715" lon="115.799928">
<ele>-32.4</ele>
<time>2026-06-18T10:11:29.713+08:00</time>
<extensions>
<gpxtpx:TrackPointExtension>
<gpxtpx:speed>1.39</gpxtpx:speed>
</gpxtpx:TrackPointExtension>
<opentracks:accuracy_horizontal>3.42</opentracks:accuracy_horizontal></extensions>
</trkpt>
<trkpt lat="-32.232682" lon="115.799822">
<ele>-33.4</ele>
<time>2026-06-18T10:11:37.722+08:00</time>
<extensions>
<gpxtpx:TrackPointExtension>
<gpxtpx:speed>1.33</gpxtpx:speed>
</gpxtpx:TrackPointExtension>
<opentracks:accuracy_horizontal>3.922</opentracks:accuracy_horizontal></extensions>
</trkpt>
<trkpt lat="-32.232663" lon="115.799711">
<ele>-33</ele>
<time>2026-06-18T10:11:45.724+08:00</time>
<extensions>
<gpxtpx:TrackPointExtension>
<gpxtpx:speed>1.3</gpxtpx:speed>
</gpxtpx:TrackPointExtension>
<opentracks:accuracy_horizontal>3.511</opentracks:accuracy_horizontal></extensions>
</trkpt>
<trkpt lat="-32.232659" lon="115.79959">
<ele>-33.1</ele>
<time>2026-06-18T10:11:53.724+08:00</time>
<extensions>
<gpxtpx:TrackPointExtension>
<gpxtpx:speed>1.34</gpxtpx:speed>
</gpxtpx:TrackPointExtension>
<opentracks:accuracy_horizontal>3.585</opentracks:accuracy_horizontal></extensions>
</trkpt>
<trkpt lat="-32.232648" lon="115.799484">
<ele>-33.8</ele>
<time>2026-06-18T10:12:01.73+08:00</time>
<extensions>
<gpxtpx:TrackPointExtension>
<gpxtpx:speed>1.28</gpxtpx:speed>
</gpxtpx:TrackPointExtension>
<opentracks:accuracy_horizontal>3.503</opentracks:accuracy_horizontal></extensions>
</trkpt>
<trkpt lat="-32.232627" lon="115.799379">
<ele>-34.4</ele>
<time>2026-06-18T10:12:10.729+08:00</time>
<extensions>
<gpxtpx:TrackPointExtension>
<gpxtpx:speed>1.08</gpxtpx:speed>
</gpxtpx:TrackPointExtension>
<opentracks:accuracy_horizontal>3.646</opentracks:accuracy_horizontal></extensions>
</trkpt>
<trkpt lat="-32.232626" lon="115.799384">
<ele>-36</ele>
<time>2026-06-18T10:12:20.728+08:00</time>
<extensions>
<gpxtpx:TrackPointExtension>
<gpxtpx:speed>0.01</gpxtpx:speed>
</gpxtpx:TrackPointExtension>
<opentracks:accuracy_horizontal>2.672</opentracks:accuracy_horizontal></extensions>
</trkpt>
<trkpt lat="-32.232641" lon="115.799277">
<ele>-34.7</ele>
<time>2026-06-18T10:13:02.736+08:00</time>
<extensions>
<gpxtpx:TrackPointExtension>
<gpxtpx:speed>1.16</gpxtpx:speed>
</gpxtpx:TrackPointExtension>
<opentracks:accuracy_horizontal>3.614</opentracks:accuracy_horizontal></extensions>
</trkpt>
<trkpt lat="-32.232646" lon="115.799163">
<ele>-34.8</ele>
<time>2026-06-18T10:13:10.745+08:00</time>
<extensions>
<gpxtpx:TrackPointExtension>
<gpxtpx:speed>1.27</gpxtpx:speed>
</gpxtpx:TrackPointExtension>
<opentracks:accuracy_horizontal>4.103</opentracks:accuracy_horizontal></extensions>
</trkpt>
<trkpt lat="-32.232647" lon="115.799053">
<ele>-34.6</ele>
<time>2026-06-18T10:13:17.732+08:00</time>
<extensions>
<gpxtpx:TrackPointExtension>
<gpxtpx:speed>1.33</gpxtpx:speed>
</gpxtpx:TrackPointExtension>
<opentracks:accuracy_horizontal>3.765</opentracks:accuracy_horizontal></extensions>
</trkpt>
<trkpt lat="-32.232623" lon="115.798969">
<ele>-34.5</ele>
<time>2026-06-18T10:13:27.729+08:00</time>
<extensions>
<gpxtpx:TrackPointExtension>
<gpxtpx:speed>0.22</gpxtpx:speed>
</gpxtpx:TrackPointExtension>
<opentracks:accuracy_horizontal>3.242</opentracks:accuracy_horizontal></extensions>
</trkpt>
<trkpt lat="-32.232602" lon="115.799076">
<ele>-32.3</ele>
<time>2026-06-18T10:13:46.725+08:00</time>
<extensions>
<gpxtpx:TrackPointExtension>
<gpxtpx:speed>1.33</gpxtpx:speed>
</gpxtpx:TrackPointExtension>
<opentracks:accuracy_horizontal>3.805</opentracks:accuracy_horizontal></extensions>
</trkpt>
<trkpt lat="-32.232614" lon="115.799191">
<ele>-31.8</ele>
<time>2026-06-18T10:13:55.749+08:00</time>
<extensions>
<gpxtpx:TrackPointExtension>
<gpxtpx:speed>1.19</gpxtpx:speed>
</gpxtpx:TrackPointExtension>
<opentracks:accuracy_horizontal>3.965</opentracks:accuracy_horizontal></extensions>
</trkpt>
<trkpt lat="-32.232596" lon="115.799219">
<ele>-33.5</ele>
<time>2026-06-18T10:14:05.724+08:00</time>
<extensions>
<gpxtpx:TrackPointExtension>
<gpxtpx:speed>0.48</gpxtpx:speed>
</gpxtpx:TrackPointExtension>
<opentracks:accuracy_horizontal>3.594</opentracks:accuracy_horizontal></extensions>
</trkpt>
<trkpt lat="-32.232503" lon="115.799191">
<ele>-33.2</ele>
<time>2026-06-18T10:14:16.751+08:00</time>
<extensions>
<gpxtpx:TrackPointExtension>
<gpxtpx:speed>0.97</gpxtpx:speed>
</gpxtpx:TrackPointExtension>
<opentracks:accuracy_horizontal>4.762</opentracks:accuracy_horizontal></extensions>
</trkpt>
<trkpt lat="-32.232471" lon="115.799153">
<ele>-34.3</ele>
<time>2026-06-18T10:14:26.71+08:00</time>
<extensions>
<gpxtpx:TrackPointExtension>
<gpxtpx:speed>0.81</gpxtpx:speed>
</gpxtpx:TrackPointExtension>
<opentracks:accuracy_horizontal>3.162</opentracks:accuracy_horizontal></extensions>
</trkpt>
<trkpt lat="-32.232476" lon="115.799039">
<ele>-33.6</ele>
<time>2026-06-18T10:14:38.732+08:00</time>
<extensions>
<gpxtpx:TrackPointExtension>
<gpxtpx:speed>0.89</gpxtpx:speed>
</gpxtpx:TrackPointExtension>
<opentracks:accuracy_horizontal>3.373</opentracks:accuracy_horizontal></extensions>
</trkpt>
<trkpt lat="-32.232529" lon="115.798946">
<ele>-33.5</ele>
<time>2026-06-18T10:14:48.741+08:00</time>
<extensions>
<gpxtpx:TrackPointExtension>
<gpxtpx:speed>0.97</gpxtpx:speed>
</gpxtpx:TrackPointExtension>
<opentracks:accuracy_horizontal>3.563</opentracks:accuracy_horizontal></extensions>
</trkpt>
<trkpt lat="-32.232573" lon="115.798845">
<ele>-33.1</ele>
<time>2026-06-18T10:14:57.734+08:00</time>
<extensions>
<gpxtpx:TrackPointExtension>
<gpxtpx:speed>1.08</gpxtpx:speed>
</gpxtpx:TrackPointExtension>
<opentracks:accuracy_horizontal>3.424</opentracks:accuracy_horizontal></extensions>
</trkpt>
<trkpt lat="-32.23259" lon="115.798729">
<ele>-33.8</ele>
<time>2026-06-18T10:15:05.741+08:00</time>
<extensions>
<gpxtpx:TrackPointExtension>
<gpxtpx:speed>1.21</gpxtpx:speed>
</gpxtpx:TrackPointExtension>
<opentracks:accuracy_horizontal>3.247</opentracks:accuracy_horizontal></extensions>
</trkpt>
<trkpt lat="-32.232594" lon="115.798615">
<ele>-32.7</ele>
<time>2026-06-18T10:15:14.733+08:00</time>
<extensions>
<gpxtpx:TrackPointExtension>
<gpxtpx:speed>1.19</gpxtpx:speed>
</gpxtpx:TrackPointExtension>
<opentracks:accuracy_horizontal>3.119</opentracks:accuracy_horizontal></extensions>
</trkpt>
<trkpt lat="-32.23261" lon="115.798533">
<ele>-33.9</ele>
<time>2026-06-18T10:15:24.739+08:00</time>
<extensions>
<gpxtpx:TrackPointExtension>
<gpxtpx:speed>1.14</gpxtpx:speed>
</gpxtpx:TrackPointExtension>
<opentracks:accuracy_horizontal>2.996</opentracks:accuracy_horizontal></extensions>
</trkpt>
<trkpt lat="-32.23262" lon="115.798415">
<ele>-35</ele>
<time>2026-06-18T10:15:34.724+08:00</time>
<extensions>
<gpxtpx:TrackPointExtension>
<gpxtpx:speed>1.1</gpxtpx:speed>
</gpxtpx:TrackPointExtension>
<opentracks:accuracy_horizontal>3.201</opentracks:accuracy_horizontal></extensions>
</trkpt>
<trkpt lat="-32.232665" lon="115.798313">
<ele>-34.8</ele>
<time>2026-06-18T10:15:44.736+08:00</time>
<extensions>
<gpxtpx:TrackPointExtension>
<gpxtpx:speed>1.08</gpxtpx:speed>
</gpxtpx:TrackPointExtension>
<opentracks:accuracy_horizontal>3.199</opentracks:accuracy_horizontal></extensions>
</trkpt>
<trkpt lat="-32.232705" lon="115.798252">
<ele>-32.6</ele>
<time>2026-06-18T10:15:54.729+08:00</time>
<extensions>
<gpxtpx:TrackPointExtension>
<gpxtpx:speed>0.13</gpxtpx:speed>
</gpxtpx:TrackPointExtension>
<opentracks:accuracy_horizontal>1.981</opentracks:accuracy_horizontal></extensions>
</trkpt>
<trkpt lat="-32.232683" lon="115.798147">
<ele>-39.6</ele>
<time>2026-06-18T10:16:13.733+08:00</time>
<extensions>
<gpxtpx:TrackPointExtension>
<gpxtpx:speed>0.97</gpxtpx:speed>
</gpxtpx:TrackPointExtension>
<opentracks:accuracy_horizontal>5.695</opentracks:accuracy_horizontal></extensions>
</trkpt>
<trkpt lat="-32.232727" lon="115.798053">
<ele>-38.9</ele>
<time>2026-06-18T10:16:20.719+08:00</time>
<extensions>
<gpxtpx:TrackPointExtension>
<gpxtpx:speed>1.26</gpxtpx:speed>
</gpxtpx:TrackPointExtension>
<opentracks:accuracy_horizontal>3.83</opentracks:accuracy_horizontal></extensions>
</trkpt>
<trkpt lat="-32.232769" lon="115.797957">
<ele>-37</ele>
<time>2026-06-18T10:16:28.735+08:00</time>
<extensions>
<gpxtpx:TrackPointExtension>
<gpxtpx:speed>1.24</gpxtpx:speed>
</gpxtpx:TrackPointExtension>
<opentracks:accuracy_horizontal>3.466</opentracks:accuracy_horizontal></extensions>
</trkpt>
<trkpt lat="-32.232796" lon="115.79785">
<ele>-37.2</ele>
<time>2026-06-18T10:16:36.735+08:00</time>
<extensions>
<gpxtpx:TrackPointExtension>
<gpxtpx:speed>1.27</gpxtpx:speed>
</gpxtpx:TrackPointExtension>
<opentracks:accuracy_horizontal>3.459</opentracks:accuracy_horizontal></extensions>
</trkpt>
<trkpt lat="-32.232806" lon="115.797748">
<ele>-36.1</ele>
<time>2026-06-18T10:16:46.742+08:00</time>
<extensions>
<gpxtpx:TrackPointExtension>
<gpxtpx:speed>1.09</gpxtpx:speed>
</gpxtpx:TrackPointExtension>
<opentracks:accuracy_horizontal>4.002</opentracks:accuracy_horizontal></extensions>
</trkpt>
<trkpt lat="-32.232844" lon="115.797636">
<ele>-35.9</ele>
<time>2026-06-18T10:16:55.729+08:00</time>
<extensions>
<gpxtpx:TrackPointExtension>
<gpxtpx:speed>1.18</gpxtpx:speed>
</gpxtpx:TrackPointExtension>
<opentracks:accuracy_horizontal>3.271</opentracks:accuracy_horizontal></extensions>
</trkpt>
<trkpt lat="-32.232898" lon="115.797535">
<ele>-32.2</ele>
<time>2026-06-18T10:17:04.734+08:00</time>
<extensions>
<gpxtpx:TrackPointExtension>
<gpxtpx:speed>1.24</gpxtpx:speed>
</gpxtpx:TrackPointExtension>
<opentracks:accuracy_horizontal>2.505</opentracks:accuracy_horizontal></extensions>
</trkpt>
<trkpt lat="-32.232939" lon="115.79743">
<ele>-29.2</ele>
<time>2026-06-18T10:17:12.681+08:00</time>
<extensions>
<gpxtpx:TrackPointExtension>
<gpxtpx:speed>1.29</gpxtpx:speed>
</gpxtpx:TrackPointExtension>
<opentracks:accuracy_horizontal>2.449</opentracks:accuracy_horizontal></extensions>
</trkpt>
<trkpt lat="-32.232973" lon="115.797324">
<ele>-28.3</ele>
<time>2026-06-18T10:17:22.685+08:00</time>
<extensions>
<gpxtpx:TrackPointExtension>
<gpxtpx:speed>1.19</gpxtpx:speed>
</gpxtpx:TrackPointExtension>
<opentracks:accuracy_horizontal>2.528</opentracks:accuracy_horizontal></extensions>
</trkpt>
<trkpt lat="-32.233011" lon="115.797218">
<ele>-28.3</ele>
<time>2026-06-18T10:17:32.668+08:00</time>
<extensions>
<gpxtpx:TrackPointExtension>
<gpxtpx:speed>1.13</gpxtpx:speed>
</gpxtpx:TrackPointExtension>
<opentracks:accuracy_horizontal>2.507</opentracks:accuracy_horizontal></extensions>
</trkpt>
<trkpt lat="-32.233018" lon="115.79711">
<ele>-28.1</ele>
<time>2026-06-18T10:17:41.679+08:00</time>
<extensions>
<gpxtpx:TrackPointExtension>
<gpxtpx:speed>1.1</gpxtpx:speed>
</gpxtpx:TrackPointExtension>
<opentracks:accuracy_horizontal>2.368</opentracks:accuracy_horizontal></extensions>
</trkpt>
<trkpt lat="-32.233062" lon="115.797009">
<ele>-28.8</ele>
<time>2026-06-18T10:17:50.668+08:00</time>
<extensions>
<gpxtpx:TrackPointExtension>
<gpxtpx:speed>1.14</gpxtpx:speed>
</gpxtpx:TrackPointExtension>
<opentracks:accuracy_horizontal>2.419</opentracks:accuracy_horizontal></extensions>
</trkpt>
<trkpt lat="-32.233103" lon="115.796919">
<ele>-27.6</ele>
<time>2026-06-18T10:18:00.667+08:00</time>
<extensions>
<gpxtpx:TrackPointExtension>
<gpxtpx:speed>1.1</gpxtpx:speed>
</gpxtpx:TrackPointExtension>
<opentracks:accuracy_horizontal>2.498</opentracks:accuracy_horizontal></extensions>
</trkpt>
<trkpt lat="-32.2332" lon="115.796898">
<ele>-29.6</ele>
<time>2026-06-18T10:18:10.665+08:00</time>
<extensions>
<gpxtpx:TrackPointExtension>
<gpxtpx:speed>1.1</gpxtpx:speed>
</gpxtpx:TrackPointExtension>
<opentracks:accuracy_horizontal>2.436</opentracks:accuracy_horizontal></extensions>
</trkpt>
<trkpt lat="-32.233287" lon="115.796864">
<ele>-29.5</ele>
<time>2026-06-18T10:18:19.672+08:00</time>
<extensions>
<gpxtpx:TrackPointExtension>
<gpxtpx:speed>1.09</gpxtpx:speed>
</gpxtpx:TrackPointExtension>
<opentracks:accuracy_horizontal>2.419</opentracks:accuracy_horizontal></extensions>
</trkpt>
<trkpt lat="-32.233368" lon="115.796807">
<ele>-29.4</ele>
<time>2026-06-18T10:18:28.68+08:00</time>
<extensions>
<gpxtpx:TrackPointExtension>
<gpxtpx:speed>1.09</gpxtpx:speed>
</gpxtpx:TrackPointExtension>
<opentracks:accuracy_horizontal>2.484</opentracks:accuracy_horizontal></extensions>
</trkpt>
<trkpt lat="-32.233461" lon="115.796768">
<ele>-29</ele>
<time>2026-06-18T10:18:37.671+08:00</time>
<extensions>
<gpxtpx:TrackPointExtension>
<gpxtpx:speed>1.13</gpxtpx:speed>
</gpxtpx:TrackPointExtension>
<opentracks:accuracy_horizontal>2.459</opentracks:accuracy_horizontal></extensions>
</trkpt>
<trkpt lat="-32.233544" lon="115.796704">
<ele>-29.1</ele>
<time>2026-06-18T10:18:47.676+08:00</time>
<extensions>
<gpxtpx:TrackPointExtension>
<gpxtpx:speed>1.14</gpxtpx:speed>
</gpxtpx:TrackPointExtension>
<opentracks:accuracy_horizontal>2.381</opentracks:accuracy_horizontal></extensions>
</trkpt>
<trkpt lat="-32.233642" lon="115.79667">
<ele>-29.4</ele>
<time>2026-06-18T10:18:56.685+08:00</time>
<extensions>
<gpxtpx:TrackPointExtension>
<gpxtpx:speed>1.16</gpxtpx:speed>
</gpxtpx:TrackPointExtension>
<opentracks:accuracy_horizontal>2.465</opentracks:accuracy_horizontal></extensions>
</trkpt>
<trkpt lat="-32.233726" lon="115.796614">
<ele>-28.2</ele>
<time>2026-06-18T10:19:05.675+08:00</time>
<extensions>
<gpxtpx:TrackPointExtension>
<gpxtpx:speed>1.15</gpxtpx:speed>
</gpxtpx:TrackPointExtension>
<opentracks:accuracy_horizontal>2.516</opentracks:accuracy_horizontal></extensions>
</trkpt>
<trkpt lat="-32.233821" lon="115.796576">
<ele>-28.9</ele>
<time>2026-06-18T10:19:15.675+08:00</time>
<extensions>
<gpxtpx:TrackPointExtension>
<gpxtpx:speed>1.11</gpxtpx:speed>
</gpxtpx:TrackPointExtension>
<opentracks:accuracy_horizontal>2.501</opentracks:accuracy_horizontal></extensions>
</trkpt>
<trkpt lat="-32.233919" lon="115.796559">
<ele>-29.3</ele>
<time>2026-06-18T10:19:25.686+08:00</time>
<extensions>
<gpxtpx:TrackPointExtension>
<gpxtpx:speed>1.1</gpxtpx:speed>
</gpxtpx:TrackPointExtension>
<opentracks:accuracy_horizontal>2.581</opentracks:accuracy_horizontal></extensions>
</trkpt>
<trkpt lat="-32.234014" lon="115.796526">
<ele>-30.2</ele>
<time>2026-06-18T10:19:34.667+08:00</time>
<extensions>
<gpxtpx:TrackPointExtension>
<gpxtpx:speed>1.16</gpxtpx:speed>
</gpxtpx:TrackPointExtension>
<opentracks:accuracy_horizontal>2.52</opentracks:accuracy_horizontal></extensions>
</trkpt>
<trkpt lat="-32.234107" lon="115.796503">
<ele>-29.6</ele>
<time>2026-06-18T10:19:42.652+08:00</time>
<extensions>
<gpxtpx:TrackPointExtension>
<gpxtpx:speed>1.25</gpxtpx:speed>
</gpxtpx:TrackPointExtension>
<opentracks:accuracy_horizontal>2.302</opentracks:accuracy_horizontal></extensions>
</trkpt>
<trkpt lat="-32.234183" lon="115.796484">
<ele>-28.6</ele>
<time>2026-06-18T10:19:51.652+08:00</time>
<extensions>
<gpxtpx:TrackPointExtension>
<gpxtpx:speed>1.11</gpxtpx:speed>
</gpxtpx:TrackPointExtension>
<opentracks:accuracy_horizontal>2.272</opentracks:accuracy_horizontal></extensions>
</trkpt>
<trkpt lat="-32.234269" lon="115.796442">
<ele>-29</ele>
<time>2026-06-18T10:20:01.675+08:00</time>
<extensions>
<gpxtpx:TrackPointExtension>
<gpxtpx:speed>1.07</gpxtpx:speed>
</gpxtpx:TrackPointExtension>
<opentracks:accuracy_horizontal>2.228</opentracks:accuracy_horizontal></extensions>
</trkpt>
<trkpt lat="-32.234357" lon="115.796408">
<ele>-28.9</ele>
<time>2026-06-18T10:20:10.652+08:00</time>
<extensions>
<gpxtpx:TrackPointExtension>
<gpxtpx:speed>1.13</gpxtpx:speed>
</gpxtpx:TrackPointExtension>
<opentracks:accuracy_horizontal>2.198</opentracks:accuracy_horizontal></extensions>
</trkpt>
<trkpt lat="-32.234451" lon="115.796368">
<ele>-28.6</ele>
<time>2026-06-18T10:20:19.658+08:00</time>
<extensions>
<gpxtpx:TrackPointExtension>
<gpxtpx:speed>1.21</gpxtpx:speed>
</gpxtpx:TrackPointExtension>
<opentracks:accuracy_horizontal>2.568</opentracks:accuracy_horizontal></extensions>
</trkpt>
<trkpt lat="-32.234531" lon="115.796371">
<ele>-29.4</ele>
<time>2026-06-18T10:20:28.669+08:00</time>
<extensions>
<gpxtpx:TrackPointExtension>
<gpxtpx:speed>1.09</gpxtpx:speed>
</gpxtpx:TrackPointExtension>
<opentracks:accuracy_horizontal>2.555</opentracks:accuracy_horizontal></extensions>
</trkpt>
<trkpt lat="-32.234628" lon="115.796354">
<ele>-27.5</ele>
<time>2026-06-18T10:20:37.671+08:00</time>
<extensions>
<gpxtpx:TrackPointExtension>
<gpxtpx:speed>1.17</gpxtpx:speed>
</gpxtpx:TrackPointExtension>
<opentracks:accuracy_horizontal>2.513</opentracks:accuracy_horizontal></extensions>
</trkpt>
<trkpt lat="-32.234699" lon="115.796332">
<ele>-23.4</ele>
<time>2026-06-18T10:20:46.711+08:00</time>
<extensions>
<gpxtpx:TrackPointExtension>
<gpxtpx:speed>1.09</gpxtpx:speed>
</gpxtpx:TrackPointExtension>
<opentracks:accuracy_horizontal>2.515</opentracks:accuracy_horizontal></extensions>
</trkpt>
<trkpt lat="-32.234789" lon="115.796282">
<ele>-25</ele>
<time>2026-06-18T10:20:55.692+08:00</time>
<extensions>
<gpxtpx:TrackPointExtension>
<gpxtpx:speed>1.16</gpxtpx:speed>
</gpxtpx:TrackPointExtension>
<opentracks:accuracy_horizontal>2.666</opentracks:accuracy_horizontal></extensions>
</trkpt>
<trkpt lat="-32.23488" lon="115.796258">
<ele>-27.7</ele>
<time>2026-06-18T10:21:03.667+08:00</time>
<extensions>
<gpxtpx:TrackPointExtension>
<gpxtpx:speed>1.18</gpxtpx:speed>
</gpxtpx:TrackPointExtension>
<opentracks:accuracy_horizontal>3.343</opentracks:accuracy_horizontal></extensions>
</trkpt>
<trkpt lat="-32.234974" lon="115.796231">
<ele>-28.2</ele>
<time>2026-06-18T10:21:12.658+08:00</time>
<extensions>
<gpxtpx:TrackPointExtension>
<gpxtpx:speed>1.15</gpxtpx:speed>
</gpxtpx:TrackPointExtension>
<opentracks:accuracy_horizontal>3.324</opentracks:accuracy_horizontal></extensions>
</trkpt>
<trkpt lat="-32.235045" lon="115.796205">
<ele>-28.4</ele>
<time>2026-06-18T10:21:22.673+08:00</time>
<extensions>
<gpxtpx:TrackPointExtension>
<gpxtpx:speed>0.94</gpxtpx:speed>
</gpxtpx:TrackPointExtension>
<opentracks:accuracy_horizontal>3.127</opentracks:accuracy_horizontal></extensions>
</trkpt>
<trkpt lat="-32.235134" lon="115.796162">
<ele>-25.8</ele>
<time>2026-06-18T10:21:32.675+08:00</time>
<extensions>
<gpxtpx:TrackPointExtension>
<gpxtpx:speed>1</gpxtpx:speed>
</gpxtpx:TrackPointExtension>
<opentracks:accuracy_horizontal>3.412</opentracks:accuracy_horizontal></extensions>
</trkpt>
<trkpt lat="-32.235179" lon="115.79612">
<ele>-23.8</ele>
<time>2026-06-18T10:21:42.686+08:00</time>
<extensions>
<gpxtpx:TrackPointExtension>
<gpxtpx:speed>0.83</gpxtpx:speed>
</gpxtpx:TrackPointExtension>
<opentracks:accuracy_horizontal>2.984</opentracks:accuracy_horizontal></extensions>
</trkpt>
<trkpt lat="-32.235263" lon="115.796067">
<ele>-22.4</ele>
<time>2026-06-18T10:22:31.661+08:00</time>
<extensions>
<gpxtpx:TrackPointExtension>
<gpxtpx:speed>0.98</gpxtpx:speed>
</gpxtpx:TrackPointExtension>
<opentracks:accuracy_horizontal>2.7</opentracks:accuracy_horizontal></extensions>
</trkpt>
<trkpt lat="-32.235355" lon="115.796028">
<ele>-22.3</ele>
<time>2026-06-18T10:22:39.681+08:00</time>
<extensions>
<gpxtpx:TrackPointExtension>
<gpxtpx:speed>1.24</gpxtpx:speed>
</gpxtpx:TrackPointExtension>
<opentracks:accuracy_horizontal>2.493</opentracks:accuracy_horizontal></extensions>
</trkpt>
<trkpt lat="-32.235431" lon="115.795985">
<ele>-23.2</ele>
<time>2026-06-18T10:22:49.655+08:00</time>
<extensions>
<gpxtpx:TrackPointExtension>
<gpxtpx:speed>1.18</gpxtpx:speed>
</gpxtpx:TrackPointExtension>
<opentracks:accuracy_horizontal>2.273</opentracks:accuracy_horizontal></extensions>
</trkpt>
<trkpt lat="-32.235511" lon="115.795932">
<ele>-20</ele>
<time>2026-06-18T10:22:59.655+08:00</time>
<extensions>
<gpxtpx:TrackPointExtension>
<gpxtpx:speed>1.05</gpxtpx:speed>
</gpxtpx:TrackPointExtension>
<opentracks:accuracy_horizontal>2.152</opentracks:accuracy_horizontal></extensions>
</trkpt>
<trkpt lat="-32.235535" lon="115.795899">
<ele>-20.8</ele>
<time>2026-06-18T10:23:08.72+08:00</time>
<extensions>
<gpxtpx:TrackPointExtension>
<gpxtpx:speed>0.22</gpxtpx:speed>
</gpxtpx:TrackPointExtension>
<opentracks:accuracy_horizontal>2.999</opentracks:accuracy_horizontal></extensions>
</trkpt>
<trkpt lat="-32.23563" lon="115.79589">
<ele>-16.8</ele>
<time>2026-06-18T10:24:04.676+08:00</time>
<extensions>
<gpxtpx:TrackPointExtension>
<gpxtpx:speed>0.05</gpxtpx:speed>
</gpxtpx:TrackPointExtension>
<opentracks:accuracy_horizontal>2.53</opentracks:accuracy_horizontal></extensions>
</trkpt>
<trkpt lat="-32.235708" lon="115.795863">
<ele>-19.1</ele>
<time>2026-06-18T10:24:14.666+08:00</time>
<extensions>
<gpxtpx:TrackPointExtension>
<gpxtpx:speed>0.71</gpxtpx:speed>
</gpxtpx:TrackPointExtension>
<opentracks:accuracy_horizontal>2.683</opentracks:accuracy_horizontal></extensions>
</trkpt>
<trkpt lat="-32.235787" lon="115.795808">
<ele>-21.3</ele>
<time>2026-06-18T10:24:26.675+08:00</time>
<extensions>
<gpxtpx:TrackPointExtension>
<gpxtpx:speed>0.88</gpxtpx:speed>
</gpxtpx:TrackPointExtension>
<opentracks:accuracy_horizontal>3.047</opentracks:accuracy_horizontal></extensions>
</trkpt>
<trkpt lat="-32.235867" lon="115.795773">
<ele>-21.3</ele>
<time>2026-06-18T10:24:36.678+08:00</time>
<extensions>
<gpxtpx:TrackPointExtension>
<gpxtpx:speed>0.9</gpxtpx:speed>
</gpxtpx:TrackPointExtension>
<opentracks:accuracy_horizontal>3.092</opentracks:accuracy_horizontal></extensions>
</trkpt>
<trkpt lat="-32.235952" lon="115.795737">
<ele>-19.2</ele>
<time>2026-06-18T10:24:49.693+08:00</time>
<extensions>
<gpxtpx:TrackPointExtension>
<gpxtpx:speed>0.83</gpxtpx:speed>
</gpxtpx:TrackPointExtension>
<opentracks:accuracy_horizontal>3.07</opentracks:accuracy_horizontal></extensions>
</trkpt>
<trkpt lat="-32.235977" lon="115.795735">
<ele>-17.1</ele>
<time>2026-06-18T10:24:59.681+08:00</time>
<extensions>
<gpxtpx:TrackPointExtension>
<gpxtpx:speed>0.06</gpxtpx:speed>
</gpxtpx:TrackPointExtension>
<opentracks:accuracy_horizontal>2.701</opentracks:accuracy_horizontal></extensions>
</trkpt>
<trkpt lat="-32.236067" lon="115.795725">
<ele>-17.2</ele>
<time>2026-06-18T10:25:09.72+08:00</time>
<extensions>
<gpxtpx:TrackPointExtension>
<gpxtpx:speed>1.13</gpxtpx:speed>
</gpxtpx:TrackPointExtension>
<opentracks:accuracy_horizontal>2.443</opentracks:accuracy_horizontal></extensions>
</trkpt>
<trkpt lat="-32.236129" lon="115.795692">
<ele>-14.6</ele>
<time>2026-06-18T10:25:19.692+08:00</time>
<extensions>
<gpxtpx:TrackPointExtension>
<gpxtpx:speed>0.8</gpxtpx:speed>
</gpxtpx:TrackPointExtension>
<opentracks:accuracy_horizontal>2.633</opentracks:accuracy_horizontal></extensions>
</trkpt>
<trkpt lat="-32.236216" lon="115.795653">
<ele>-13.6</ele>
<time>2026-06-18T10:25:32.669+08:00</time>
<extensions>
<gpxtpx:TrackPointExtension>
<gpxtpx:speed>0.91</gpxtpx:speed>
</gpxtpx:TrackPointExtension>
<opentracks:accuracy_horizontal>2.529</opentracks:accuracy_horizontal></extensions>
</trkpt>
<trkpt lat="-32.236295" lon="115.795637">
<ele>-12.3</ele>
<time>2026-06-18T10:25:42.686+08:00</time>
<extensions>
<gpxtpx:TrackPointExtension>
<gpxtpx:speed>0.91</gpxtpx:speed>
</gpxtpx:TrackPointExtension>
<opentracks:accuracy_horizontal>2.368</opentracks:accuracy_horizontal></extensions>
</trkpt>
<trkpt lat="-32.236381" lon="115.795601">
<ele>-10.4</ele>
<time>2026-06-18T10:26:01.687+08:00</time>
<extensions>
<gpxtpx:TrackPointExtension>
<gpxtpx:speed>0.41</gpxtpx:speed>
</gpxtpx:TrackPointExtension>
<opentracks:accuracy_horizontal>2.714</opentracks:accuracy_horizontal></extensions>
</trkpt>
<trkpt lat="-32.236464" lon="115.795585">
<ele>-9.7</ele>
<time>2026-06-18T10:26:11.682+08:00</time>
<extensions>
<gpxtpx:TrackPointExtension>
<gpxtpx:speed>0.38</gpxtpx:speed>
</gpxtpx:TrackPointExtension>
<opentracks:accuracy_horizontal>2.403</opentracks:accuracy_horizontal></extensions>
</trkpt>
<trkpt lat="-32.23655" lon="115.79555">
<ele>-7.8</ele>
<time>2026-06-18T10:26:25.685+08:00</time>
<extensions>
<gpxtpx:TrackPointExtension>
<gpxtpx:speed>0.97</gpxtpx:speed>
</gpxtpx:TrackPointExtension>
<opentracks:accuracy_horizontal>2.587</opentracks:accuracy_horizontal></extensions>
</trkpt>
<trkpt lat="-32.236609" lon="115.795515">
<ele>-5.8</ele>
<time>2026-06-18T10:26:35.686+08:00</time>
<extensions>
<gpxtpx:TrackPointExtension>
<gpxtpx:speed>0.85</gpxtpx:speed>
</gpxtpx:TrackPointExtension>
<opentracks:accuracy_horizontal>2.571</opentracks:accuracy_horizontal></extensions>
</trkpt>
<trkpt lat="-32.236702" lon="115.795485">
<ele>-0.7</ele>
<time>2026-06-18T10:27:08.696+08:00</time>
<extensions>
<gpxtpx:TrackPointExtension>
<gpxtpx:speed>0.58</gpxtpx:speed>
</gpxtpx:TrackPointExtension>
<opentracks:accuracy_horizontal>2.407</opentracks:accuracy_horizontal></extensions>
</trkpt>
<trkpt lat="-32.236764" lon="115.795465">
<ele>0.2</ele>
<time>2026-06-18T10:27:18.689+08:00</time>
<extensions>
<gpxtpx:TrackPointExtension>
<gpxtpx:speed>0.69</gpxtpx:speed>
</gpxtpx:TrackPointExtension>
<opentracks:accuracy_horizontal>2.745</opentracks:accuracy_horizontal></extensions>
</trkpt>
<trkpt lat="-32.236852" lon="115.795487">
<ele>4</ele>
<time>2026-06-18T10:27:36.697+08:00</time>
<extensions>
<gpxtpx:TrackPointExtension>
<gpxtpx:speed>0.37</gpxtpx:speed>
</gpxtpx:TrackPointExtension>
<opentracks:accuracy_horizontal>2.496</opentracks:accuracy_horizontal></extensions>
</trkpt>
<trkpt lat="-32.236919" lon="115.795433">
<ele>3.4</ele>
<time>2026-06-18T10:27:46.675+08:00</time>
<extensions>
<gpxtpx:TrackPointExtension>
<gpxtpx:speed>0.65</gpxtpx:speed>
</gpxtpx:TrackPointExtension>
<opentracks:accuracy_horizontal>2.702</opentracks:accuracy_horizontal></extensions>
</trkpt>
<trkpt lat="-32.237013" lon="115.795436">
<ele>6.5</ele>
<time>2026-06-18T10:27:59.692+08:00</time>
<extensions>
<gpxtpx:TrackPointExtension>
<gpxtpx:speed>0.49</gpxtpx:speed>
</gpxtpx:TrackPointExtension>
<opentracks:accuracy_horizontal>2.496</opentracks:accuracy_horizontal></extensions>
</trkpt>
<trkpt lat="-32.237035" lon="115.795401">
<ele>7.9</ele>
<time>2026-06-18T10:28:09.677+08:00</time>
<extensions>
<gpxtpx:TrackPointExtension>
<gpxtpx:speed>0.12</gpxtpx:speed>
</gpxtpx:TrackPointExtension>
<opentracks:accuracy_horizontal>2.459</opentracks:accuracy_horizontal></extensions>
</trkpt>
<trkpt lat="-32.237104" lon="115.795329">
<ele>9.4</ele>
<time>2026-06-18T10:28:22.674+08:00</time>
<extensions>
<gpxtpx:TrackPointExtension>
<gpxtpx:speed>0.74</gpxtpx:speed>
</gpxtpx:TrackPointExtension>
<opentracks:accuracy_horizontal>2.581</opentracks:accuracy_horizontal></extensions>
</trkpt>
<trkpt lat="-32.237153" lon="115.795232">
<ele>10.4</ele>
<time>2026-06-18T10:28:32.675+08:00</time>
<extensions>
<gpxtpx:TrackPointExtension>
<gpxtpx:speed>0.95</gpxtpx:speed>
</gpxtpx:TrackPointExtension>
<opentracks:accuracy_horizontal>2.466</opentracks:accuracy_horizontal></extensions>
</trkpt>
<trkpt lat="-32.237168" lon="115.795131">
<ele>11.6</ele>
<time>2026-06-18T10:28:41.684+08:00</time>
<extensions>
<gpxtpx:TrackPointExtension>
<gpxtpx:speed>1.07</gpxtpx:speed>
</gpxtpx:TrackPointExtension>
<opentracks:accuracy_horizontal>2.447</opentracks:accuracy_horizontal></extensions>
</trkpt>
<trkpt lat="-32.237184" lon="115.795016">
<ele>13.2</ele>
<time>2026-06-18T10:31:22.693+08:00</time>
<extensions>
<gpxtpx:TrackPointExtension>
<gpxtpx:speed>0.66</gpxtpx:speed>
</gpxtpx:TrackPointExtension>
<opentracks:accuracy_horizontal>2.393</opentracks:accuracy_horizontal></extensions>
</trkpt>
<trkpt lat="-32.237207" lon="115.794908">
<ele>11.8</ele>
<time>2026-06-18T10:31:30.684+08:00</time>
<extensions>
<gpxtpx:TrackPointExtension>
<gpxtpx:speed>1.19</gpxtpx:speed>
</gpxtpx:TrackPointExtension>
<opentracks:accuracy_horizontal>2.348</opentracks:accuracy_horizontal></extensions>
</trkpt>
<trkpt lat="-32.237227" lon="115.794803">
<ele>11.9</ele>
<time>2026-06-18T10:31:39.686+08:00</time>
<extensions>
<gpxtpx:TrackPointExtension>
<gpxtpx:speed>1.11</gpxtpx:speed>
</gpxtpx:TrackPointExtension>
<opentracks:accuracy_horizontal>2.303</opentracks:accuracy_horizontal></extensions>
</trkpt>
<trkpt lat="-32.237275" lon="115.794704">
<ele>11.3</ele>
<time>2026-06-18T10:31:49.677+08:00</time>
<extensions>
<gpxtpx:TrackPointExtension>
<gpxtpx:speed>1.08</gpxtpx:speed>
</gpxtpx:TrackPointExtension>
<opentracks:accuracy_horizontal>2.491</opentracks:accuracy_horizontal></extensions>
</trkpt>
<trkpt lat="-32.237314" lon="115.794662">
<ele>10.1</ele>
<time>2026-06-18T10:31:59.685+08:00</time>
<extensions>
<gpxtpx:TrackPointExtension>
<gpxtpx:speed>0.72</gpxtpx:speed>
</gpxtpx:TrackPointExtension>
<opentracks:accuracy_horizontal>2.424</opentracks:accuracy_horizontal></extensions>
</trkpt>
<trkpt lat="-32.237351" lon="115.794564">
<ele>10</ele>
<time>2026-06-18T10:32:08.684+08:00</time>
<extensions>
<gpxtpx:TrackPointExtension>
<gpxtpx:speed>1.12</gpxtpx:speed>
</gpxtpx:TrackPointExtension>
<opentracks:accuracy_horizontal>2.388</opentracks:accuracy_horizontal></extensions>
</trkpt>
<trkpt lat="-32.237373" lon="115.79446">
<ele>10</ele>
<time>2026-06-18T10:32:17.681+08:00</time>
<extensions>
<gpxtpx:TrackPointExtension>
<gpxtpx:speed>1.06</gpxtpx:speed>
</gpxtpx:TrackPointExtension>
<opentracks:accuracy_horizontal>2.647</opentracks:accuracy_horizontal></extensions>
</trkpt>
<trkpt lat="-32.237396" lon="115.794377">
<ele>8.4</ele>
<time>2026-06-18T10:32:27.683+08:00</time>
<extensions>
<gpxtpx:TrackPointExtension>
<gpxtpx:speed>0.89</gpxtpx:speed>
</gpxtpx:TrackPointExtension>
<opentracks:accuracy_horizontal>2.552</opentracks:accuracy_horizontal></extensions>
</trkpt>
<trkpt lat="-32.237502" lon="115.794482">
<ele>7.6</ele>
<time>2026-06-18T10:32:34.742+08:00</time>
<extensions>
<gpxtpx:TrackPointExtension>
<gpxtpx:speed>0.23</gpxtpx:speed>
</gpxtpx:TrackPointExtension>
<opentracks:accuracy_horizontal>6.097</opentracks:accuracy_horizontal></extensions>
</trkpt>
<trkpt lat="-32.23744" lon="115.794374">
<ele>3</ele>
<time>2026-06-18T10:32:43.68+08:00</time>
<extensions>
<gpxtpx:TrackPointExtension>
<gpxtpx:speed>0.56</gpxtpx:speed>
</gpxtpx:TrackPointExtension>
<opentracks:accuracy_horizontal>2.961</opentracks:accuracy_horizontal></extensions>
</trkpt>
<trkpt lat="-32.237454" lon="115.794255">
<ele>5</ele>
<time>2026-06-18T10:32:51.75+08:00</time>
<extensions>
<gpxtpx:TrackPointExtension>
<gpxtpx:speed>1.12</gpxtpx:speed>
</gpxtpx:TrackPointExtension>
<opentracks:accuracy_horizontal>2.491</opentracks:accuracy_horizontal></extensions>
</trkpt>
<trkpt lat="-32.237476" lon="115.794142">
<ele>4.2</ele>
<time>2026-06-18T10:33:01.684+08:00</time>
<extensions>
<gpxtpx:TrackPointExtension>
<gpxtpx:speed>1.07</gpxtpx:speed>
</gpxtpx:TrackPointExtension>
<opentracks:accuracy_horizontal>2.431</opentracks:accuracy_horizontal></extensions>
</trkpt>
<trkpt lat="-32.237434" lon="115.794043">
<ele>4.4</ele>
<time>2026-06-18T10:33:10.698+08:00</time>
<extensions>
<gpxtpx:TrackPointExtension>
<gpxtpx:speed>1.13</gpxtpx:speed>
</gpxtpx:TrackPointExtension>
<opentracks:accuracy_horizontal>2.28</opentracks:accuracy_horizontal></extensions>
</trkpt>
<trkpt lat="-32.237352" lon="115.793976">
<ele>3.8</ele>
<time>2026-06-18T10:33:20.696+08:00</time>
<extensions>
<gpxtpx:TrackPointExtension>
<gpxtpx:speed>1.07</gpxtpx:speed>
</gpxtpx:TrackPointExtension>
<opentracks:accuracy_horizontal>2.353</opentracks:accuracy_horizontal></extensions>
</trkpt>
<trkpt lat="-32.237273" lon="115.793916">
<ele>2.3</ele>
<time>2026-06-18T10:33:29.676+08:00</time>
<extensions>
<gpxtpx:TrackPointExtension>
<gpxtpx:speed>1.11</gpxtpx:speed>
</gpxtpx:TrackPointExtension>
<opentracks:accuracy_horizontal>2.332</opentracks:accuracy_horizontal></extensions>
</trkpt>
<trkpt lat="-32.237191" lon="115.793866">
<ele>1.2</ele>
<time>2026-06-18T10:33:39.689+08:00</time>
<extensions>
<gpxtpx:TrackPointExtension>
<gpxtpx:speed>1.06</gpxtpx:speed>
</gpxtpx:TrackPointExtension>
<opentracks:accuracy_horizontal>2.44</opentracks:accuracy_horizontal></extensions>
</trkpt>
<trkpt lat="-32.237128" lon="115.79383">
<ele>1.1</ele>
<time>2026-06-18T10:33:48.677+08:00</time>
<extensions>
<gpxtpx:TrackPointExtension>
<gpxtpx:speed>0.9</gpxtpx:speed>
</gpxtpx:TrackPointExtension>
<opentracks:accuracy_horizontal>2.562</opentracks:accuracy_horizontal></extensions>
</trkpt>
<trkpt lat="-32.237043" lon="115.79378">
<ele>-0.4</ele>
<time>2026-06-18T10:33:58.662+08:00</time>
<extensions>
<gpxtpx:TrackPointExtension>
<gpxtpx:speed>1.08</gpxtpx:speed>
</gpxtpx:TrackPointExtension>
<opentracks:accuracy_horizontal>2.314</opentracks:accuracy_horizontal></extensions>
</trkpt>
<trkpt lat="-32.236966" lon="115.793763">
<ele>-0.6</ele>
<time>2026-06-18T10:34:07.654+08:00</time>
<extensions>
<gpxtpx:TrackPointExtension>
<gpxtpx:speed>1.05</gpxtpx:speed>
</gpxtpx:TrackPointExtension>
<opentracks:accuracy_horizontal>2.123</opentracks:accuracy_horizontal></extensions>
</trkpt>
<trkpt lat="-32.236881" lon="115.793712">
<ele>-2.4</ele>
<time>2026-06-18T10:34:21.662+08:00</time>
<extensions>
<gpxtpx:TrackPointExtension>
<gpxtpx:speed>1.05</gpxtpx:speed>
</gpxtpx:TrackPointExtension>
<opentracks:accuracy_horizontal>2.118</opentracks:accuracy_horizontal></extensions>
</trkpt>
<trkpt lat="-32.236794" lon="115.793666">
<ele>-2.8</ele>
<time>2026-06-18T10:34:31.662+08:00</time>
<extensions>
<gpxtpx:TrackPointExtension>
<gpxtpx:speed>1.04</gpxtpx:speed>
</gpxtpx:TrackPointExtension>
<opentracks:accuracy_horizontal>2.302</opentracks:accuracy_horizontal></extensions>
</trkpt>
<trkpt lat="-32.236735" lon="115.793577">
<ele>-3.6</ele>
<time>2026-06-18T10:34:40.665+08:00</time>
<extensions>
<gpxtpx:TrackPointExtension>
<gpxtpx:speed>1.13</gpxtpx:speed>
</gpxtpx:TrackPointExtension>
<opentracks:accuracy_horizontal>2.079</opentracks:accuracy_horizontal></extensions>
</trkpt>
<trkpt lat="-32.236643" lon="115.793528">
<ele>-5.2</ele>
<time>2026-06-18T10:34:50.662+08:00</time>
<extensions>
<gpxtpx:TrackPointExtension>
<gpxtpx:speed>1.14</gpxtpx:speed>
</gpxtpx:TrackPointExtension>
<opentracks:accuracy_horizontal>2.188</opentracks:accuracy_horizontal></extensions>
</trkpt>
<trkpt lat="-32.23656" lon="115.793478">
<ele>-5.5</ele>
<time>2026-06-18T10:34:59.663+08:00</time>
<extensions>
<gpxtpx:TrackPointExtension>
<gpxtpx:speed>1.16</gpxtpx:speed>
</gpxtpx:TrackPointExtension>
<opentracks:accuracy_horizontal>2.071</opentracks:accuracy_horizontal></extensions>
</trkpt>
<trkpt lat="-32.23648" lon="115.793415">
<ele>-5.4</ele>
<time>2026-06-18T10:35:09.664+08:00</time>
<extensions>
<gpxtpx:TrackPointExtension>
<gpxtpx:speed>1.14</gpxtpx:speed>
</gpxtpx:TrackPointExtension>
<opentracks:accuracy_horizontal>2.085</opentracks:accuracy_horizontal></extensions>
</trkpt>
<trkpt lat="-32.236465" lon="115.793398">
<ele>-5.3</ele>
<time>2026-06-18T10:35:19.666+08:00</time>
<extensions>
<gpxtpx:TrackPointExtension>
<gpxtpx:speed>0.04</gpxtpx:speed>
</gpxtpx:TrackPointExtension>
<opentracks:accuracy_horizontal>2.246</opentracks:accuracy_horizontal></extensions>
</trkpt>
<trkpt lat="-32.23639" lon="115.793328">
<ele>-4.6</ele>
<time>2026-06-18T10:35:38.695+08:00</time>
<extensions>
<gpxtpx:TrackPointExtension>
<gpxtpx:speed>1.35</gpxtpx:speed>
</gpxtpx:TrackPointExtension>
<opentracks:accuracy_horizontal>2.527</opentracks:accuracy_horizontal></extensions>
</trkpt>
<trkpt lat="-32.236371" lon="115.793368">
<ele>-5.3</ele>
<time>2026-06-18T10:35:48.696+08:00</time>
<extensions>
<gpxtpx:TrackPointExtension>
<gpxtpx:speed>0.04</gpxtpx:speed>
</gpxtpx:TrackPointExtension>
<opentracks:accuracy_horizontal>2.604</opentracks:accuracy_horizontal></extensions>
</trkpt>
<trkpt lat="-32.236318" lon="115.793267">
<ele>-6.6</ele>
<time>2026-06-18T10:35:59.681+08:00</time>
<extensions>
<gpxtpx:TrackPointExtension>
<gpxtpx:speed>1.15</gpxtpx:speed>
</gpxtpx:TrackPointExtension>
<opentracks:accuracy_horizontal>2.457</opentracks:accuracy_horizontal></extensions>
</trkpt>
<trkpt lat="-32.236259" lon="115.793217">
<ele>-6.3</ele>
<time>2026-06-18T10:36:09.684+08:00</time>
<extensions>
<gpxtpx:TrackPointExtension>
<gpxtpx:speed>0.81</gpxtpx:speed>
</gpxtpx:TrackPointExtension>
<opentracks:accuracy_horizontal>2.582</opentracks:accuracy_horizontal></extensions>
</trkpt>
<trkpt lat="-32.23618" lon="115.793162">
<ele>-4.9</ele>
<time>2026-06-18T10:36:18.748+08:00</time>
<extensions>
<gpxtpx:TrackPointExtension>
<gpxtpx:speed>1.06</gpxtpx:speed>
</gpxtpx:TrackPointExtension>
<opentracks:accuracy_horizontal>2.947</opentracks:accuracy_horizontal></extensions>
</trkpt>
<trkpt lat="-32.236127" lon="115.793118">
<ele>-5.7</ele>
<time>2026-06-18T10:36:28.726+08:00</time>
<extensions>
<gpxtpx:TrackPointExtension>
<gpxtpx:speed>0.3</gpxtpx:speed>
</gpxtpx:TrackPointExtension>
<opentracks:accuracy_horizontal>2.502</opentracks:accuracy_horizontal></extensions>
</trkpt>
<trkpt lat="-32.236038" lon="115.793066">
<ele>-4.5</ele>
<time>2026-06-18T10:37:09.658+08:00</time>
<extensions>
<gpxtpx:TrackPointExtension>
<gpxtpx:speed>1</gpxtpx:speed>
</gpxtpx:TrackPointExtension>
<opentracks:accuracy_horizontal>2.606</opentracks:accuracy_horizontal></extensions>
</trkpt>
<trkpt lat="-32.235963" lon="115.79303">
<ele>-2.9</ele>
<time>2026-06-18T10:37:18.686+08:00</time>
<extensions>
<gpxtpx:TrackPointExtension>
<gpxtpx:speed>1.03</gpxtpx:speed>
</gpxtpx:TrackPointExtension>
<opentracks:accuracy_horizontal>2.549</opentracks:accuracy_horizontal></extensions>
</trkpt>
<trkpt lat="-32.235876" lon="115.793001">
<ele>-3.5</ele>
<time>2026-06-18T10:37:30.689+08:00</time>
<extensions>
<gpxtpx:TrackPointExtension>
<gpxtpx:speed>0.3</gpxtpx:speed>
</gpxtpx:TrackPointExtension>
<opentracks:accuracy_horizontal>2.472</opentracks:accuracy_horizontal></extensions>
</trkpt>
<trkpt lat="-32.235784" lon="115.792961">
<ele>-1.6</ele>
<time>2026-06-18T10:37:39.686+08:00</time>
<extensions>
<gpxtpx:TrackPointExtension>
<gpxtpx:speed>1.1</gpxtpx:speed>
</gpxtpx:TrackPointExtension>
<opentracks:accuracy_horizontal>2.362</opentracks:accuracy_horizontal></extensions>
</trkpt>
<trkpt lat="-32.2357" lon="115.792909">
<ele>-2.2</ele>
<time>2026-06-18T10:37:48.683+08:00</time>
<extensions>
<gpxtpx:TrackPointExtension>
<gpxtpx:speed>1.13</gpxtpx:speed>
</gpxtpx:TrackPointExtension>
<opentracks:accuracy_horizontal>2.303</opentracks:accuracy_horizontal></extensions>
</trkpt>
<trkpt lat="-32.235693" lon="115.792907">
<ele>-1.1</ele>
<time>2026-06-18T10:37:58.695+08:00</time>
<extensions>
<gpxtpx:TrackPointExtension>
<gpxtpx:speed>0.04</gpxtpx:speed>
</gpxtpx:TrackPointExtension>
<opentracks:accuracy_horizontal>2.43</opentracks:accuracy_horizontal></extensions>
</trkpt>
<trkpt lat="-32.235695" lon="115.792794">
<ele>-2.9</ele>
<time>2026-06-18T10:38:14.693+08:00</time>
<extensions>
<gpxtpx:TrackPointExtension>
<gpxtpx:speed>0.89</gpxtpx:speed>
</gpxtpx:TrackPointExtension>
<opentracks:accuracy_horizontal>2.637</opentracks:accuracy_horizontal></extensions>
</trkpt>
<trkpt lat="-32.235666" lon="115.792729">
<ele>-2.3</ele>
<time>2026-06-18T10:38:24.679+08:00</time>
<extensions>
<gpxtpx:TrackPointExtension>
<gpxtpx:speed>0.82</gpxtpx:speed>
</gpxtpx:TrackPointExtension>
<opentracks:accuracy_horizontal>2.596</opentracks:accuracy_horizontal></extensions>
</trkpt>
<trkpt lat="-32.235601" lon="115.792646">
<ele>-2.4</ele>
<time>2026-06-18T10:38:41.679+08:00</time>
<extensions>
<gpxtpx:TrackPointExtension>
<gpxtpx:speed>0.5</gpxtpx:speed>
</gpxtpx:TrackPointExtension>
<opentracks:accuracy_horizontal>2.366</opentracks:accuracy_horizontal></extensions>
</trkpt>
<trkpt lat="-32.23553" lon="115.792661">
<ele>-2.5</ele>
<time>2026-06-18T10:38:50.705+08:00</time>
<extensions>
<gpxtpx:TrackPointExtension>
<gpxtpx:speed>1.01</gpxtpx:speed>
</gpxtpx:TrackPointExtension>
<opentracks:accuracy_horizontal>2.58</opentracks:accuracy_horizontal></extensions>
</trkpt>
<trkpt lat="-32.235466" lon="115.792741">
<ele>-1.2</ele>
<time>2026-06-18T10:39:03.675+08:00</time>
<extensions>
<gpxtpx:TrackPointExtension>
<gpxtpx:speed>0.87</gpxtpx:speed>
</gpxtpx:TrackPointExtension>
<opentracks:accuracy_horizontal>2.765</opentracks:accuracy_horizontal></extensions>
</trkpt>
<trkpt lat="-32.235436" lon="115.792808">
<ele>-1.4</ele>
<time>2026-06-18T10:39:12.689+08:00</time>
<extensions>
<gpxtpx:TrackPointExtension>
<gpxtpx:speed>0.46</gpxtpx:speed>
</gpxtpx:TrackPointExtension>
<opentracks:accuracy_horizontal>2.471</opentracks:accuracy_horizontal></extensions>
</trkpt>
<trkpt lat="-32.235388" lon="115.792899">
<ele>0.3</ele>
<time>2026-06-18T10:39:24.705+08:00</time>
<extensions>
<gpxtpx:TrackPointExtension>
<gpxtpx:speed>1</gpxtpx:speed>
</gpxtpx:TrackPointExtension>
<opentracks:accuracy_horizontal>2.462</opentracks:accuracy_horizontal></extensions>
</trkpt>
<trkpt lat="-32.235372" lon="115.793005">
<ele>0.3</ele>
<time>2026-06-18T10:39:34.701+08:00</time>
<extensions>
<gpxtpx:TrackPointExtension>
<gpxtpx:speed>0.97</gpxtpx:speed>
</gpxtpx:TrackPointExtension>
<opentracks:accuracy_horizontal>2.453</opentracks:accuracy_horizontal></extensions>
</trkpt>
<trkpt lat="-32.235343" lon="115.793103">
<ele>1.6</ele>
<time>2026-06-18T10:39:44.69+08:00</time>
<extensions>
<gpxtpx:TrackPointExtension>
<gpxtpx:speed>0.98</gpxtpx:speed>
</gpxtpx:TrackPointExtension>
<opentracks:accuracy_horizontal>2.484</opentracks:accuracy_horizontal></extensions>
</trkpt>
<trkpt lat="-32.235294" lon="115.793204">
<ele>1.3</ele>
<time>2026-06-18T10:39:55.697+08:00</time>
<extensions>
<gpxtpx:TrackPointExtension>
<gpxtpx:speed>0.97</gpxtpx:speed>
</gpxtpx:TrackPointExtension>
<opentracks:accuracy_horizontal>2.806</opentracks:accuracy_horizontal></extensions>
</trkpt>
<trkpt lat="-32.235246" lon="115.793281">
<ele>1.8</ele>
<time>2026-06-18T10:40:05.688+08:00</time>
<extensions>
<gpxtpx:TrackPointExtension>
<gpxtpx:speed>0.93</gpxtpx:speed>
</gpxtpx:TrackPointExtension>
<opentracks:accuracy_horizontal>2.47</opentracks:accuracy_horizontal></extensions>
</trkpt>
<trkpt lat="-32.23517" lon="115.793353">
<ele>3.5</ele>
<time>2026-06-18T10:40:26.688+08:00</time>
<extensions>
<gpxtpx:TrackPointExtension>
<gpxtpx:speed>1.18</gpxtpx:speed>
</gpxtpx:TrackPointExtension>
<opentracks:accuracy_horizontal>2.606</opentracks:accuracy_horizontal></extensions>
</trkpt>
<trkpt lat="-32.235159" lon="115.793463">
<ele>3.8</ele>
<time>2026-06-18T10:40:36.707+08:00</time>
<extensions>
<gpxtpx:TrackPointExtension>
<gpxtpx:speed>1.03</gpxtpx:speed>
</gpxtpx:TrackPointExtension>
<opentracks:accuracy_horizontal>2.381</opentracks:accuracy_horizontal></extensions>
</trkpt>
<trkpt lat="-32.235121" lon="115.793568">
<ele>5.9</ele>
<time>2026-06-18T10:40:45.705+08:00</time>
<extensions>
<gpxtpx:TrackPointExtension>
<gpxtpx:speed>1.13</gpxtpx:speed>
</gpxtpx:TrackPointExtension>
<opentracks:accuracy_horizontal>2.317</opentracks:accuracy_horizontal></extensions>
</trkpt>
<trkpt lat="-32.235102" lon="115.793677">
<ele>5.3</ele>
<time>2026-06-18T10:40:55.687+08:00</time>
<extensions>
<gpxtpx:TrackPointExtension>
<gpxtpx:speed>1.05</gpxtpx:speed>
</gpxtpx:TrackPointExtension>
<opentracks:accuracy_horizontal>2.319</opentracks:accuracy_horizontal></extensions>
</trkpt>
<trkpt lat="-32.235122" lon="115.793714">
<ele>6</ele>
<time>2026-06-18T10:41:05.7+08:00</time>
<extensions>
<gpxtpx:TrackPointExtension>
<gpxtpx:speed>0.09</gpxtpx:speed>
</gpxtpx:TrackPointExtension>
<opentracks:accuracy_horizontal>2.337</opentracks:accuracy_horizontal></extensions>
</trkpt>
<trkpt lat="-32.235087" lon="115.793819">
<ele>3.3</ele>
<time>2026-06-18T10:41:35.689+08:00</time>
<extensions>
<gpxtpx:TrackPointExtension>
<gpxtpx:speed>0.52</gpxtpx:speed>
</gpxtpx:TrackPointExtension>
<opentracks:accuracy_horizontal>2.377</opentracks:accuracy_horizontal></extensions>
</trkpt>
<trkpt lat="-32.235093" lon="115.793863">
<ele>3.2</ele>
<time>2026-06-18T10:41:45.687+08:00</time>
<extensions>
<gpxtpx:TrackPointExtension>
<gpxtpx:speed>0.41</gpxtpx:speed>
</gpxtpx:TrackPointExtension>
<opentracks:accuracy_horizontal>2.349</opentracks:accuracy_horizontal></extensions>
</trkpt>
<trkpt lat="-32.235045" lon="115.793958">
<ele>-3.3</ele>
<time>2026-06-18T10:42:16.701+08:00</time>
<extensions>
<gpxtpx:TrackPointExtension>
<gpxtpx:speed>0.67</gpxtpx:speed>
</gpxtpx:TrackPointExtension>
<opentracks:accuracy_horizontal>2.57</opentracks:accuracy_horizontal></extensions>
</trkpt>
<trkpt lat="-32.235028" lon="115.794016">
<ele>-4.5</ele>
<time>2026-06-18T10:42:26.697+08:00</time>
<extensions>
<gpxtpx:TrackPointExtension>
<gpxtpx:speed>0.59</gpxtpx:speed>
</gpxtpx:TrackPointExtension>
<opentracks:accuracy_horizontal>2.736</opentracks:accuracy_horizontal></extensions>
</trkpt>
<trkpt lat="-32.235016" lon="115.794123">
<ele>-6</ele>
<time>2026-06-18T10:42:44.701+08:00</time>
<extensions>
<gpxtpx:TrackPointExtension>
<gpxtpx:speed>0.14</gpxtpx:speed>
</gpxtpx:TrackPointExtension>
<opentracks:accuracy_horizontal>2.576</opentracks:accuracy_horizontal></extensions>
</trkpt>
<trkpt lat="-32.235009" lon="115.794167">
<ele>-7.5</ele>
<time>2026-06-18T10:42:54.701+08:00</time>
<extensions>
<gpxtpx:TrackPointExtension>
<gpxtpx:speed>0.1</gpxtpx:speed>
</gpxtpx:TrackPointExtension>
<opentracks:accuracy_horizontal>2.776</opentracks:accuracy_horizontal></extensions>
</trkpt>
<trkpt lat="-32.235032" lon="115.794273">
<ele>-7.8</ele>
<time>2026-06-18T10:43:11.702+08:00</time>
<extensions>
<gpxtpx:TrackPointExtension>
<gpxtpx:speed>0.66</gpxtpx:speed>
</gpxtpx:TrackPointExtension>
<opentracks:accuracy_horizontal>2.33</opentracks:accuracy_horizontal></extensions>
</trkpt>
<trkpt lat="-32.235072" lon="115.794331">
<ele>-9.5</ele>
<time>2026-06-18T10:43:21.659+08:00</time>
<extensions>
<gpxtpx:TrackPointExtension>
<gpxtpx:speed>0.79</gpxtpx:speed>
</gpxtpx:TrackPointExtension>
<opentracks:accuracy_horizontal>2.224</opentracks:accuracy_horizontal></extensions>
</trkpt>
<trkpt lat="-32.235095" lon="115.794434">
<ele>-13.7</ele>
<time>2026-06-18T10:43:57.672+08:00</time>
<extensions>
<gpxtpx:TrackPointExtension>
<gpxtpx:speed>0.11</gpxtpx:speed>
</gpxtpx:TrackPointExtension>
<opentracks:accuracy_horizontal>2.323</opentracks:accuracy_horizontal></extensions>
</trkpt>
<trkpt lat="-32.235147" lon="115.794492">
<ele>-14.5</ele>
<time>2026-06-18T10:44:06.697+08:00</time>
<extensions>
<gpxtpx:TrackPointExtension>
<gpxtpx:speed>0.83</gpxtpx:speed>
</gpxtpx:TrackPointExtension>
<opentracks:accuracy_horizontal>2.089</opentracks:accuracy_horizontal></extensions>
</trkpt>
<trkpt lat="-32.235088" lon="115.794575">
<ele>-15.7</ele>
<time>2026-06-18T10:44:20.697+08:00</time>
<extensions>
<gpxtpx:TrackPointExtension>
<gpxtpx:speed>0.87</gpxtpx:speed>
</gpxtpx:TrackPointExtension>
<opentracks:accuracy_horizontal>2.462</opentracks:accuracy_horizontal></extensions>
</trkpt>
<trkpt lat="-32.234998" lon="115.794589">
<ele>-16.2</ele>
<time>2026-06-18T10:44:30.684+08:00</time>
<extensions>
<gpxtpx:TrackPointExtension>
<gpxtpx:speed>1.05</gpxtpx:speed>
</gpxtpx:TrackPointExtension>
<opentracks:accuracy_horizontal>2.401</opentracks:accuracy_horizontal></extensions>
</trkpt>
<trkpt lat="-32.234904" lon="115.794587">
<ele>-16.8</ele>
<time>2026-06-18T10:44:39.697+08:00</time>
<extensions>
<gpxtpx:TrackPointExtension>
<gpxtpx:speed>1.11</gpxtpx:speed>
</gpxtpx:TrackPointExtension>
<opentracks:accuracy_horizontal>2.271</opentracks:accuracy_horizontal></extensions>
</trkpt>
<trkpt lat="-32.234807" lon="115.794565">
<ele>-16.9</ele>
<time>2026-06-18T10:44:49.696+08:00</time>
<extensions>
<gpxtpx:TrackPointExtension>
<gpxtpx:speed>1.1</gpxtpx:speed>
</gpxtpx:TrackPointExtension>
<opentracks:accuracy_horizontal>2.164</opentracks:accuracy_horizontal></extensions>
</trkpt>
<trkpt lat="-32.23473" lon="115.794534">
<ele>-17.1</ele>
<time>2026-06-18T10:44:59.667+08:00</time>
<extensions>
<gpxtpx:TrackPointExtension>
<gpxtpx:speed>1.01</gpxtpx:speed>
</gpxtpx:TrackPointExtension>
<opentracks:accuracy_horizontal>2.266</opentracks:accuracy_horizontal></extensions>
</trkpt>
<trkpt lat="-32.234637" lon="115.79457">
<ele>-17.4</ele>
<time>2026-06-18T10:45:26.699+08:00</time>
<extensions>
<gpxtpx:TrackPointExtension>
<gpxtpx:speed>1.07</gpxtpx:speed>
</gpxtpx:TrackPointExtension>
<opentracks:accuracy_horizontal>2.186</opentracks:accuracy_horizontal></extensions>
</trkpt>
<trkpt lat="-32.234559" lon="115.794601">
<ele>-18.2</ele>
<time>2026-06-18T10:45:36.699+08:00</time>
<extensions>
<gpxtpx:TrackPointExtension>
<gpxtpx:speed>0.95</gpxtpx:speed>
</gpxtpx:TrackPointExtension>
<opentracks:accuracy_horizontal>2.1</opentracks:accuracy_horizontal></extensions>
</trkpt>
<trkpt lat="-32.234555" lon="115.794711">
<ele>-19.5</ele>
<time>2026-06-18T10:45:58.679+08:00</time>
<extensions>
<gpxtpx:TrackPointExtension>
<gpxtpx:speed>0.97</gpxtpx:speed>
</gpxtpx:TrackPointExtension>
<opentracks:accuracy_horizontal>2.092</opentracks:accuracy_horizontal></extensions>
</trkpt>
<trkpt lat="-32.23458" lon="115.794775">
<ele>-20.8</ele>
<time>2026-06-18T10:46:07.698+08:00</time>
<extensions>
<gpxtpx:TrackPointExtension>
<gpxtpx:speed>0.84</gpxtpx:speed>
</gpxtpx:TrackPointExtension>
<opentracks:accuracy_horizontal>2.082</opentracks:accuracy_horizontal></extensions>
</trkpt>
<trkpt lat="-32.234615" lon="115.794888">
<ele>-21.9</ele>
<time>2026-06-18T10:46:25.664+08:00</time>
<extensions>
<gpxtpx:TrackPointExtension>
<gpxtpx:speed>1.13</gpxtpx:speed>
</gpxtpx:TrackPointExtension>
<opentracks:accuracy_horizontal>2.054</opentracks:accuracy_horizontal></extensions>
</trkpt>
<trkpt lat="-32.234672" lon="115.794948">
<ele>-23.1</ele>
<time>2026-06-18T10:46:34.677+08:00</time>
<extensions>
<gpxtpx:TrackPointExtension>
<gpxtpx:speed>0.96</gpxtpx:speed>
</gpxtpx:TrackPointExtension>
<opentracks:accuracy_horizontal>2.047</opentracks:accuracy_horizontal></extensions>
</trkpt>
<trkpt lat="-32.234714" lon="115.795046">
<ele>-23.1</ele>
<time>2026-06-18T10:47:18.663+08:00</time>
<extensions>
<gpxtpx:TrackPointExtension>
<gpxtpx:speed>0.3</gpxtpx:speed>
</gpxtpx:TrackPointExtension>
<opentracks:accuracy_horizontal>2.403</opentracks:accuracy_horizontal></extensions>
</trkpt>
<trkpt lat="-32.234717" lon="115.79507">
<ele>-22.6</ele>
<time>2026-06-18T10:47:27.677+08:00</time>
<extensions>
<gpxtpx:TrackPointExtension>
<gpxtpx:speed>0.03</gpxtpx:speed>
</gpxtpx:TrackPointExtension>
<opentracks:accuracy_horizontal>2.322</opentracks:accuracy_horizontal></extensions>
</trkpt>
<trkpt lat="-32.234765" lon="115.795173">
<ele>-22.8</ele>
<time>2026-06-18T10:47:55.705+08:00</time>
<extensions>
<gpxtpx:TrackPointExtension>
<gpxtpx:speed>0.88</gpxtpx:speed>
</gpxtpx:TrackPointExtension>
<opentracks:accuracy_horizontal>2.717</opentracks:accuracy_horizontal></extensions>
</trkpt>
<trkpt lat="-32.234818" lon="115.795233">
<ele>-22.1</ele>
<time>2026-06-18T10:48:05.702+08:00</time>
<extensions>
<gpxtpx:TrackPointExtension>
<gpxtpx:speed>0.85</gpxtpx:speed>
</gpxtpx:TrackPointExtension>
<opentracks:accuracy_horizontal>2.505</opentracks:accuracy_horizontal></extensions>
</trkpt>
<trkpt lat="-32.234744" lon="115.795295">
<ele>-24.3</ele>
<time>2026-06-18T10:48:19.691+08:00</time>
<extensions>
<gpxtpx:TrackPointExtension>
<gpxtpx:speed>0.32</gpxtpx:speed>
</gpxtpx:TrackPointExtension>
<opentracks:accuracy_horizontal>2.641</opentracks:accuracy_horizontal></extensions>
</trkpt>
<trkpt lat="-32.234743" lon="115.795351">
<ele>-25.4</ele>
<time>2026-06-18T10:48:29.696+08:00</time>
<extensions>
<gpxtpx:TrackPointExtension>
<gpxtpx:speed>0.06</gpxtpx:speed>
</gpxtpx:TrackPointExtension>
<opentracks:accuracy_horizontal>2.673</opentracks:accuracy_horizontal></extensions>
</trkpt>
<trkpt lat="-32.234657" lon="115.795387">
<ele>-27.8</ele>
<time>2026-06-18T10:48:57.701+08:00</time>
<extensions>
<gpxtpx:TrackPointExtension>
<gpxtpx:speed>1.05</gpxtpx:speed>
</gpxtpx:TrackPointExtension>
<opentracks:accuracy_horizontal>2.365</opentracks:accuracy_horizontal></extensions>
</trkpt>
<trkpt lat="-32.234613" lon="115.795449">
<ele>-28.7</ele>
<time>2026-06-18T10:49:07.697+08:00</time>
<extensions>
<gpxtpx:TrackPointExtension>
<gpxtpx:speed>0.91</gpxtpx:speed>
</gpxtpx:TrackPointExtension>
<opentracks:accuracy_horizontal>2.427</opentracks:accuracy_horizontal></extensions>
</trkpt>
<trkpt lat="-32.234567" lon="115.795546">
<ele>-29.7</ele>
<time>2026-06-18T10:49:17.696+08:00</time>
<extensions>
<gpxtpx:TrackPointExtension>
<gpxtpx:speed>1</gpxtpx:speed>
</gpxtpx:TrackPointExtension>
<opentracks:accuracy_horizontal>2.278</opentracks:accuracy_horizontal></extensions>
</trkpt>
<trkpt lat="-32.234498" lon="115.795619">
<ele>-29.2</ele>
<time>2026-06-18T10:49:26.663+08:00</time>
<extensions>
<gpxtpx:TrackPointExtension>
<gpxtpx:speed>1.15</gpxtpx:speed>
</gpxtpx:TrackPointExtension>
<opentracks:accuracy_horizontal>2.457</opentracks:accuracy_horizontal></extensions>
</trkpt>
<trkpt lat="-32.234498" lon="115.79564">
<ele>-31</ele>
<time>2026-06-18T10:49:35.67+08:00</time>
<extensions>
<gpxtpx:TrackPointExtension>
<gpxtpx:speed>1.02</gpxtpx:speed>
</gpxtpx:TrackPointExtension>
<opentracks:accuracy_horizontal>2.789</opentracks:accuracy_horizontal></extensions>
</trkpt>
<trkpt lat="-32.234448" lon="115.795735">
<ele>-28.8</ele>
<time>2026-06-18T10:49:45.689+08:00</time>
<extensions>
<gpxtpx:TrackPointExtension>
<gpxtpx:speed>1.06</gpxtpx:speed>
</gpxtpx:TrackPointExtension>
<opentracks:accuracy_horizontal>2.239</opentracks:accuracy_horizontal></extensions>
</trkpt>
<trkpt lat="-32.234413" lon="115.795831">
<ele>-28.5</ele>
<time>2026-06-18T10:49:55.687+08:00</time>
<extensions>
<gpxtpx:TrackPointExtension>
<gpxtpx:speed>1</gpxtpx:speed>
</gpxtpx:TrackPointExtension>
<opentracks:accuracy_horizontal>2.183</opentracks:accuracy_horizontal></extensions>
</trkpt>
<trkpt lat="-32.234388" lon="115.795933">
<ele>-29.4</ele>
<time>2026-06-18T10:50:06.706+08:00</time>
<extensions>
<gpxtpx:TrackPointExtension>
<gpxtpx:speed>0.99</gpxtpx:speed>
</gpxtpx:TrackPointExtension>
<opentracks:accuracy_horizontal>2.064</opentracks:accuracy_horizontal></extensions>
</trkpt>
<trkpt lat="-32.234333" lon="115.796029">
<ele>-29.8</ele>
<time>2026-06-18T10:50:16.677+08:00</time>
<extensions>
<gpxtpx:TrackPointExtension>
<gpxtpx:speed>1.07</gpxtpx:speed>
</gpxtpx:TrackPointExtension>
<opentracks:accuracy_horizontal>2.087</opentracks:accuracy_horizontal></extensions>
</trkpt>
<trkpt lat="-32.234283" lon="115.796115">
<ele>-30.6</ele>
<time>2026-06-18T10:50:25.707+08:00</time>
<extensions>
<gpxtpx:TrackPointExtension>
<gpxtpx:speed>1.1</gpxtpx:speed>
</gpxtpx:TrackPointExtension>
<opentracks:accuracy_horizontal>2.071</opentracks:accuracy_horizontal></extensions>
</trkpt>
<trkpt lat="-32.234215" lon="115.796198">
<ele>-30.2</ele>
<time>2026-06-18T10:50:35.691+08:00</time>
<extensions>
<gpxtpx:TrackPointExtension>
<gpxtpx:speed>1.1</gpxtpx:speed>
</gpxtpx:TrackPointExtension>
<opentracks:accuracy_horizontal>2.055</opentracks:accuracy_horizontal></extensions>
</trkpt>
<trkpt lat="-32.234162" lon="115.796289">
<ele>-29.1</ele>
<time>2026-06-18T10:50:44.703+08:00</time>
<extensions>
<gpxtpx:TrackPointExtension>
<gpxtpx:speed>1.14</gpxtpx:speed>
</gpxtpx:TrackPointExtension>
<opentracks:accuracy_horizontal>2.112</opentracks:accuracy_horizontal></extensions>
</trkpt>
<trkpt lat="-32.234099" lon="115.796366">
<ele>-28.9</ele>
<time>2026-06-18T10:50:53.7+08:00</time>
<extensions>
<gpxtpx:TrackPointExtension>
<gpxtpx:speed>1.12</gpxtpx:speed>
</gpxtpx:TrackPointExtension>
<opentracks:accuracy_horizontal>2.139</opentracks:accuracy_horizontal></extensions>
</trkpt>
<trkpt lat="-32.234044" lon="115.796455">
<ele>-28.6</ele>
<time>2026-06-18T10:51:01.712+08:00</time>
<extensions>
<gpxtpx:TrackPointExtension>
<gpxtpx:speed>1.2</gpxtpx:speed>
</gpxtpx:TrackPointExtension>
<opentracks:accuracy_horizontal>2.176</opentracks:accuracy_horizontal></extensions>
</trkpt>
<trkpt lat="-32.234044" lon="115.796463">
<ele>-28.5</ele>
<time>2026-06-18T10:51:11.711+08:00</time>
<extensions>
<gpxtpx:TrackPointExtension>
<gpxtpx:speed>0.06</gpxtpx:speed>
</gpxtpx:TrackPointExtension>
<opentracks:accuracy_horizontal>2.283</opentracks:accuracy_horizontal></extensions>
</trkpt>
<trkpt lat="-32.233977" lon="115.796543">
<ele>-29.3</ele>
<time>2026-06-18T10:51:28.709+08:00</time>
<extensions>
<gpxtpx:TrackPointExtension>
<gpxtpx:speed>1.15</gpxtpx:speed>
</gpxtpx:TrackPointExtension>
<opentracks:accuracy_horizontal>2.489</opentracks:accuracy_horizontal></extensions>
</trkpt>
<trkpt lat="-32.233907" lon="115.796613">
<ele>-29.2</ele>
<time>2026-06-18T10:51:36.702+08:00</time>
<extensions>
<gpxtpx:TrackPointExtension>
<gpxtpx:speed>1.22</gpxtpx:speed>
</gpxtpx:TrackPointExtension>
<opentracks:accuracy_horizontal>2.321</opentracks:accuracy_horizontal></extensions>
</trkpt>
<trkpt lat="-32.233835" lon="115.796683">
<ele>-29.3</ele>
<time>2026-06-18T10:51:46.711+08:00</time>
<extensions>
<gpxtpx:TrackPointExtension>
<gpxtpx:speed>1.1</gpxtpx:speed>
</gpxtpx:TrackPointExtension>
<opentracks:accuracy_horizontal>2.215</opentracks:accuracy_horizontal></extensions>
</trkpt>
<trkpt lat="-32.233776" lon="115.796773">
<ele>-28.9</ele>
<time>2026-06-18T10:51:55.697+08:00</time>
<extensions>
<gpxtpx:TrackPointExtension>
<gpxtpx:speed>1.14</gpxtpx:speed>
</gpxtpx:TrackPointExtension>
<opentracks:accuracy_horizontal>2.151</opentracks:accuracy_horizontal></extensions>
</trkpt>
<trkpt lat="-32.233704" lon="115.796841">
<ele>-29.3</ele>
<time>2026-06-18T10:52:04.7+08:00</time>
<extensions>
<gpxtpx:TrackPointExtension>
<gpxtpx:speed>1.12</gpxtpx:speed>
</gpxtpx:TrackPointExtension>
<opentracks:accuracy_horizontal>2.213</opentracks:accuracy_horizontal></extensions>
</trkpt>
<trkpt lat="-32.233643" lon="115.796935">
<ele>-27.8</ele>
<time>2026-06-18T10:52:14.702+08:00</time>
<extensions>
<gpxtpx:TrackPointExtension>
<gpxtpx:speed>1.08</gpxtpx:speed>
</gpxtpx:TrackPointExtension>
<opentracks:accuracy_horizontal>2.301</opentracks:accuracy_horizontal></extensions>
</trkpt>
<trkpt lat="-32.233581" lon="115.797013">
<ele>-28.5</ele>
<time>2026-06-18T10:52:23.701+08:00</time>
<extensions>
<gpxtpx:TrackPointExtension>
<gpxtpx:speed>1.1</gpxtpx:speed>
</gpxtpx:TrackPointExtension>
<opentracks:accuracy_horizontal>2.405</opentracks:accuracy_horizontal></extensions>
</trkpt>
<trkpt lat="-32.233524" lon="115.797099">
<ele>-27.4</ele>
<time>2026-06-18T10:52:31.703+08:00</time>
<extensions>
<gpxtpx:TrackPointExtension>
<gpxtpx:speed>1.17</gpxtpx:speed>
</gpxtpx:TrackPointExtension>
<opentracks:accuracy_horizontal>2.249</opentracks:accuracy_horizontal></extensions>
</trkpt>
<trkpt lat="-32.23346" lon="115.79717">
<ele>-29</ele>
<time>2026-06-18T10:52:41.677+08:00</time>
<extensions>
<gpxtpx:TrackPointExtension>
<gpxtpx:speed>1.13</gpxtpx:speed>
</gpxtpx:TrackPointExtension>
<opentracks:accuracy_horizontal>2.037</opentracks:accuracy_horizontal></extensions>
</trkpt>
<trkpt lat="-32.233394" lon="115.797255">
<ele>-28.5</ele>
<time>2026-06-18T10:52:51.718+08:00</time>
<extensions>
<gpxtpx:TrackPointExtension>
<gpxtpx:speed>1.11</gpxtpx:speed>
</gpxtpx:TrackPointExtension>
<opentracks:accuracy_horizontal>2.082</opentracks:accuracy_horizontal></extensions>
</trkpt>
<trkpt lat="-32.23334" lon="115.797343">
<ele>-28.1</ele>
<time>2026-06-18T10:52:59.705+08:00</time>
<extensions>
<gpxtpx:TrackPointExtension>
<gpxtpx:speed>1.21</gpxtpx:speed>
</gpxtpx:TrackPointExtension>
<opentracks:accuracy_horizontal>2.262</opentracks:accuracy_horizontal></extensions>
</trkpt>
<trkpt lat="-32.233283" lon="115.797439">
<ele>-28.6</ele>
<time>2026-06-18T10:53:09.713+08:00</time>
<extensions>
<gpxtpx:TrackPointExtension>
<gpxtpx:speed>1.15</gpxtpx:speed>
</gpxtpx:TrackPointExtension>
<opentracks:accuracy_horizontal>2.299</opentracks:accuracy_horizontal></extensions>
</trkpt>
<trkpt lat="-32.233237" lon="115.797542">
<ele>-29.1</ele>
<time>2026-06-18T10:53:19.716+08:00</time>
<extensions>
<gpxtpx:TrackPointExtension>
<gpxtpx:speed>1.12</gpxtpx:speed>
</gpxtpx:TrackPointExtension>
<opentracks:accuracy_horizontal>2.321</opentracks:accuracy_horizontal></extensions>
</trkpt>
<trkpt lat="-32.233204" lon="115.797625">
<ele>-28.7</ele>
<time>2026-06-18T10:53:29.708+08:00</time>
<extensions>
<gpxtpx:TrackPointExtension>
<gpxtpx:speed>0.89</gpxtpx:speed>
</gpxtpx:TrackPointExtension>
<opentracks:accuracy_horizontal>2.229</opentracks:accuracy_horizontal></extensions>
</trkpt>
<trkpt lat="-32.23316" lon="115.797719">
<ele>-28.4</ele>
<time>2026-06-18T10:53:38.701+08:00</time>
<extensions>
<gpxtpx:TrackPointExtension>
<gpxtpx:speed>1.02</gpxtpx:speed>
</gpxtpx:TrackPointExtension>
<opentracks:accuracy_horizontal>2.289</opentracks:accuracy_horizontal></extensions>
</trkpt>
<trkpt lat="-32.233109" lon="115.797824">
<ele>-29.1</ele>
<time>2026-06-18T10:53:48.704+08:00</time>
<extensions>
<gpxtpx:TrackPointExtension>
<gpxtpx:speed>1.09</gpxtpx:speed>
</gpxtpx:TrackPointExtension>
<opentracks:accuracy_horizontal>2.3</opentracks:accuracy_horizontal></extensions>
</trkpt>
<trkpt lat="-32.233069" lon="115.797926">
<ele>-28.3</ele>
<time>2026-06-18T10:53:57.7+08:00</time>
<extensions>
<gpxtpx:TrackPointExtension>
<gpxtpx:speed>1.13</gpxtpx:speed>
</gpxtpx:TrackPointExtension>
<opentracks:accuracy_horizontal>2.266</opentracks:accuracy_horizontal></extensions>
</trkpt>
<trkpt lat="-32.233012" lon="115.798006">
<ele>-28.5</ele>
<time>2026-06-18T10:54:07.704+08:00</time>
<extensions>
<gpxtpx:TrackPointExtension>
<gpxtpx:speed>1.02</gpxtpx:speed>
</gpxtpx:TrackPointExtension>
<opentracks:accuracy_horizontal>2.238</opentracks:accuracy_horizontal></extensions>
</trkpt>
<trkpt lat="-32.232953" lon="115.798098">
<ele>-28.9</ele>
<time>2026-06-18T10:54:17.705+08:00</time>
<extensions>
<gpxtpx:TrackPointExtension>
<gpxtpx:speed>1.03</gpxtpx:speed>
</gpxtpx:TrackPointExtension>
<opentracks:accuracy_horizontal>2.31</opentracks:accuracy_horizontal></extensions>
</trkpt>
<trkpt lat="-32.232919" lon="115.798152">
<ele>-29.4</ele>
<time>2026-06-18T10:54:27.705+08:00</time>
<extensions>
<gpxtpx:TrackPointExtension>
<gpxtpx:speed>0.58</gpxtpx:speed>
</gpxtpx:TrackPointExtension>
<opentracks:accuracy_horizontal>2.267</opentracks:accuracy_horizontal></extensions>
</trkpt>
<trkpt lat="-32.232865" lon="115.798237">
<ele>-29.4</ele>
<time>2026-06-18T10:54:35.695+08:00</time>
<extensions>
<gpxtpx:TrackPointExtension>
<gpxtpx:speed>1.12</gpxtpx:speed>
</gpxtpx:TrackPointExtension>
<opentracks:accuracy_horizontal>2.227</opentracks:accuracy_horizontal></extensions>
</trkpt>
<trkpt lat="-32.232822" lon="115.798321">
<ele>-29</ele>
<time>2026-06-18T10:54:45.705+08:00</time>
<extensions>
<gpxtpx:TrackPointExtension>
<gpxtpx:speed>0.91</gpxtpx:speed>
</gpxtpx:TrackPointExtension>
<opentracks:accuracy_horizontal>2.186</opentracks:accuracy_horizontal></extensions>
</trkpt>
<trkpt lat="-32.23278" lon="115.798421">
<ele>-28.3</ele>
<time>2026-06-18T10:55:03.711+08:00</time>
<extensions>
<gpxtpx:TrackPointExtension>
<gpxtpx:speed>1.21</gpxtpx:speed>
</gpxtpx:TrackPointExtension>
<opentracks:accuracy_horizontal>2.163</opentracks:accuracy_horizontal></extensions>
</trkpt>
<trkpt lat="-32.232749" lon="115.798525">
<ele>-28.1</ele>
<time>2026-06-18T10:55:12.705+08:00</time>
<extensions>
<gpxtpx:TrackPointExtension>
<gpxtpx:speed>1.12</gpxtpx:speed>
</gpxtpx:TrackPointExtension>
<opentracks:accuracy_horizontal>2.24</opentracks:accuracy_horizontal></extensions>
</trkpt>
<trkpt lat="-32.232713" lon="115.798622">
<ele>-28.6</ele>
<time>2026-06-18T10:55:22.702+08:00</time>
<extensions>
<gpxtpx:TrackPointExtension>
<gpxtpx:speed>1.07</gpxtpx:speed>
</gpxtpx:TrackPointExtension>
<opentracks:accuracy_horizontal>2.177</opentracks:accuracy_horizontal></extensions>
</trkpt>
<trkpt lat="-32.232661" lon="115.798726">
<ele>-28.3</ele>
<time>2026-06-18T10:55:31.698+08:00</time>
<extensions>
<gpxtpx:TrackPointExtension>
<gpxtpx:speed>1.15</gpxtpx:speed>
</gpxtpx:TrackPointExtension>
<opentracks:accuracy_horizontal>2.49</opentracks:accuracy_horizontal></extensions>
</trkpt>
<trkpt lat="-32.232632" lon="115.798813">
<ele>-28.6</ele>
<time>2026-06-18T10:55:41.708+08:00</time>
<extensions>
<gpxtpx:TrackPointExtension>
<gpxtpx:speed>0.48</gpxtpx:speed>
</gpxtpx:TrackPointExtension>
<opentracks:accuracy_horizontal>2.52</opentracks:accuracy_horizontal></extensions>
</trkpt>
<trkpt lat="-32.232628" lon="115.79892">
<ele>-27.2</ele>
<time>2026-06-18T10:55:50.704+08:00</time>
<extensions>
<gpxtpx:TrackPointExtension>
<gpxtpx:speed>1.11</gpxtpx:speed>
</gpxtpx:TrackPointExtension>
<opentracks:accuracy_horizontal>2.642</opentracks:accuracy_horizontal></extensions>
</trkpt>
<trkpt lat="-32.232644" lon="115.798978">
<ele>-25.8</ele>
<time>2026-06-18T10:56:00.688+08:00</time>
<extensions>
<gpxtpx:TrackPointExtension>
<gpxtpx:speed>0.13</gpxtpx:speed>
</gpxtpx:TrackPointExtension>
<opentracks:accuracy_horizontal>2.444</opentracks:accuracy_horizontal></extensions>
</trkpt>
<trkpt lat="-32.232654" lon="115.799088">
<ele>-23.6</ele>
<time>2026-06-18T10:56:14.704+08:00</time>
<extensions>
<gpxtpx:TrackPointExtension>
<gpxtpx:speed>0.94</gpxtpx:speed>
</gpxtpx:TrackPointExtension>
<opentracks:accuracy_horizontal>2.69</opentracks:accuracy_horizontal></extensions>
</trkpt>
<trkpt lat="-32.232651" lon="115.799197">
<ele>-25.5</ele>
<time>2026-06-18T10:56:23.702+08:00</time>
<extensions>
<gpxtpx:TrackPointExtension>
<gpxtpx:speed>1.04</gpxtpx:speed>
</gpxtpx:TrackPointExtension>
<opentracks:accuracy_horizontal>2.624</opentracks:accuracy_horizontal></extensions>
</trkpt>
<trkpt lat="-32.232639" lon="115.799305">
<ele>-25.4</ele>
<time>2026-06-18T10:56:32.706+08:00</time>
<extensions>
<gpxtpx:TrackPointExtension>
<gpxtpx:speed>0.99</gpxtpx:speed>
</gpxtpx:TrackPointExtension>
<opentracks:accuracy_horizontal>2.574</opentracks:accuracy_horizontal></extensions>
</trkpt>
<trkpt lat="-32.23263" lon="115.799302">
<ele>-21.3</ele>
<time>2026-06-18T10:56:41.718+08:00</time>
<extensions>
<gpxtpx:TrackPointExtension>
<gpxtpx:speed>0.01</gpxtpx:speed>
</gpxtpx:TrackPointExtension>
<opentracks:accuracy_horizontal>2.83</opentracks:accuracy_horizontal></extensions>
</trkpt>
<trkpt lat="-32.232612" lon="115.799413">
<ele>-22.5</ele>
<time>2026-06-18T10:57:23.71+08:00</time>
<extensions>
<gpxtpx:TrackPointExtension>
<gpxtpx:speed>1.24</gpxtpx:speed>
</gpxtpx:TrackPointExtension>
<opentracks:accuracy_horizontal>2.495</opentracks:accuracy_horizontal></extensions>
</trkpt>
<trkpt lat="-32.232613" lon="115.799502">
<ele>-23.9</ele>
<time>2026-06-18T10:57:32.705+08:00</time>
<extensions>
<gpxtpx:TrackPointExtension>
<gpxtpx:speed>1.08</gpxtpx:speed>
</gpxtpx:TrackPointExtension>
<opentracks:accuracy_horizontal>2.718</opentracks:accuracy_horizontal></extensions>
</trkpt>
<trkpt lat="-32.232645" lon="115.799601">
<ele>-24.3</ele>
<time>2026-06-18T10:57:42.704+08:00</time>
<extensions>
<gpxtpx:TrackPointExtension>
<gpxtpx:speed>1.04</gpxtpx:speed>
</gpxtpx:TrackPointExtension>
<opentracks:accuracy_horizontal>2.463</opentracks:accuracy_horizontal></extensions>
</trkpt>
<trkpt lat="-32.232673" lon="115.799639">
<ele>-25.6</ele>
<time>2026-06-18T10:57:52.714+08:00</time>
<extensions>
<gpxtpx:TrackPointExtension>
<gpxtpx:speed>0.11</gpxtpx:speed>
</gpxtpx:TrackPointExtension>
<opentracks:accuracy_horizontal>2.492</opentracks:accuracy_horizontal></extensions>
</trkpt>
<trkpt lat="-32.232694" lon="115.799745">
<ele>-26.7</ele>
<time>2026-06-18T10:58:04.723+08:00</time>
<extensions>
<gpxtpx:TrackPointExtension>
<gpxtpx:speed>1.1</gpxtpx:speed>
</gpxtpx:TrackPointExtension>
<opentracks:accuracy_horizontal>2.947</opentracks:accuracy_horizontal></extensions>
</trkpt>
<trkpt lat="-32.2327" lon="115.799838">
<ele>-26.8</ele>
<time>2026-06-18T10:58:14.705+08:00</time>
<extensions>
<gpxtpx:TrackPointExtension>
<gpxtpx:speed>0.99</gpxtpx:speed>
</gpxtpx:TrackPointExtension>
<opentracks:accuracy_horizontal>2.886</opentracks:accuracy_horizontal></extensions>
</trkpt>
<trkpt lat="-32.232713" lon="115.799948">
<ele>-26.3</ele>
<time>2026-06-18T10:58:23.724+08:00</time>
<extensions>
<gpxtpx:TrackPointExtension>
<gpxtpx:speed>1.06</gpxtpx:speed>
</gpxtpx:TrackPointExtension>
<opentracks:accuracy_horizontal>2.899</opentracks:accuracy_horizontal></extensions>
</trkpt>
<trkpt lat="-32.232758" lon="115.799997">
<ele>-26.2</ele>
<time>2026-06-18T10:58:33.704+08:00</time>
<extensions>
<gpxtpx:TrackPointExtension>
<gpxtpx:speed>0.56</gpxtpx:speed>
</gpxtpx:TrackPointExtension>
<opentracks:accuracy_horizontal>2.959</opentracks:accuracy_horizontal></extensions>
</trkpt>
<trkpt lat="-32.232796" lon="115.800095">
<ele>-24.9</ele>
<time>2026-06-18T10:58:41.699+08:00</time>
<extensions>
<gpxtpx:TrackPointExtension>
<gpxtpx:speed>1.17</gpxtpx:speed>
</gpxtpx:TrackPointExtension>
<opentracks:accuracy_horizontal>3.008</opentracks:accuracy_horizontal></extensions>
</trkpt>
<trkpt lat="-32.232865" lon="115.800163">
<ele>-24.2</ele>
<time>2026-06-18T10:58:51.698+08:00</time>
<extensions>
<gpxtpx:TrackPointExtension>
<gpxtpx:speed>1.11</gpxtpx:speed>
</gpxtpx:TrackPointExtension>
<opentracks:accuracy_horizontal>3.128</opentracks:accuracy_horizontal></extensions>
</trkpt>
<trkpt lat="-32.232885" lon="115.800202">
<ele>-25.7</ele>
<time>2026-06-18T10:59:00.712+08:00</time>
<extensions>
<gpxtpx:TrackPointExtension>
<gpxtpx:speed>1.12</gpxtpx:speed>
</gpxtpx:TrackPointExtension>
<opentracks:accuracy_horizontal>3.26</opentracks:accuracy_horizontal></extensions>
</trkpt>
<trkpt lat="-32.232937" lon="115.80029">
<ele>-24.8</ele>
<time>2026-06-18T10:59:08.699+08:00</time>
<extensions>
<gpxtpx:TrackPointExtension>
<gpxtpx:speed>1.19</gpxtpx:speed>
</gpxtpx:TrackPointExtension>
<opentracks:accuracy_horizontal>3.029</opentracks:accuracy_horizontal></extensions>
</trkpt>
<trkpt lat="-32.232966" lon="115.800328">
<ele>-24.5</ele>
<time>2026-06-18T10:59:18.697+08:00</time>
<extensions>
<gpxtpx:TrackPointExtension>
<gpxtpx:speed>0.08</gpxtpx:speed>
</gpxtpx:TrackPointExtension>
<opentracks:accuracy_horizontal>2.961</opentracks:accuracy_horizontal></extensions>
</trkpt>
<trkpt lat="-32.233029" lon="115.800416">
<ele>-26.1</ele>
<time>2026-06-18T10:59:34.707+08:00</time>
<extensions>
<gpxtpx:TrackPointExtension>
<gpxtpx:speed>1.29</gpxtpx:speed>
</gpxtpx:TrackPointExtension>
<opentracks:accuracy_horizontal>2.981</opentracks:accuracy_horizontal></extensions>
</trkpt>
<trkpt lat="-32.233079" lon="115.800514">
<ele>-25.5</ele>
<time>2026-06-18T10:59:43.703+08:00</time>
<extensions>
<gpxtpx:TrackPointExtension>
<gpxtpx:speed>1.19</gpxtpx:speed>
</gpxtpx:TrackPointExtension>
<opentracks:accuracy_horizontal>3.064</opentracks:accuracy_horizontal></extensions>
</trkpt>
<trkpt lat="-32.233095" lon="115.800539">
<ele>-23.4</ele>
<time>2026-06-18T10:59:53.675+08:00</time>
<extensions>
<gpxtpx:TrackPointExtension>
<gpxtpx:speed>0.12</gpxtpx:speed>
</gpxtpx:TrackPointExtension>
<opentracks:accuracy_horizontal>2.818</opentracks:accuracy_horizontal></extensions>
</trkpt>
<trkpt lat="-32.233185" lon="115.800564">
<ele>-26.7</ele>
<time>2026-06-18T11:00:16.73+08:00</time>
<extensions>
<gpxtpx:TrackPointExtension>
<gpxtpx:speed>1</gpxtpx:speed>
</gpxtpx:TrackPointExtension>
<opentracks:accuracy_horizontal>2.885</opentracks:accuracy_horizontal></extensions>
</trkpt>
<trkpt lat="-32.233243" lon="115.800625">
<ele>-27.7</ele>
<time>2026-06-18T11:00:25.763+08:00</time>
<extensions>
<gpxtpx:TrackPointExtension>
<gpxtpx:speed>1.04</gpxtpx:speed>
</gpxtpx:TrackPointExtension>
<opentracks:accuracy_horizontal>4.294</opentracks:accuracy_horizontal></extensions>
</trkpt>
<trkpt lat="-32.233316" lon="115.800696">
<ele>-27.9</ele>
<time>2026-06-18T11:00:37.76+08:00</time>
<extensions>
<gpxtpx:TrackPointExtension>
<gpxtpx:speed>0.35</gpxtpx:speed>
</gpxtpx:TrackPointExtension>
<opentracks:accuracy_horizontal>6.123</opentracks:accuracy_horizontal></extensions>
</trkpt>
<trkpt lat="-32.23336" lon="115.800779">
<ele>-25.7</ele>
<time>2026-06-18T11:00:47.775+08:00</time>
<extensions>
<gpxtpx:TrackPointExtension>
<gpxtpx:speed>0.25</gpxtpx:speed>
</gpxtpx:TrackPointExtension>
<opentracks:accuracy_horizontal>5.016</opentracks:accuracy_horizontal></extensions>
</trkpt>
<trkpt lat="-32.233423" lon="115.80087">
<ele>-28.8</ele>
<time>2026-06-18T11:00:57.763+08:00</time>
<extensions>
<gpxtpx:TrackPointExtension>
<gpxtpx:speed>1.03</gpxtpx:speed>
</gpxtpx:TrackPointExtension>
<opentracks:accuracy_horizontal>5.117</opentracks:accuracy_horizontal></extensions>
</trkpt>
<trkpt lat="-32.233468" lon="115.800964">
<ele>-29.5</ele>
<time>2026-06-18T11:01:04.766+08:00</time>
<extensions>
<gpxtpx:TrackPointExtension>
<gpxtpx:speed>1.21</gpxtpx:speed>
</gpxtpx:TrackPointExtension>
<opentracks:accuracy_horizontal>5.091</opentracks:accuracy_horizontal></extensions>
</trkpt>
<trkpt lat="-32.233506" lon="115.80106">
<ele>-31.2</ele>
<time>2026-06-18T11:01:14.757+08:00</time>
<extensions>
<gpxtpx:TrackPointExtension>
<gpxtpx:speed>1.04</gpxtpx:speed>
</gpxtpx:TrackPointExtension>
<opentracks:accuracy_horizontal>4.812</opentracks:accuracy_horizontal></extensions>
</trkpt>
<trkpt lat="-32.233534" lon="115.801162">
<ele>-32.3</ele>
<time>2026-06-18T11:01:23.798+08:00</time>
<extensions>
<gpxtpx:TrackPointExtension>
<gpxtpx:speed>1.03</gpxtpx:speed>
</gpxtpx:TrackPointExtension>
<opentracks:accuracy_horizontal>4.737</opentracks:accuracy_horizontal></extensions>
</trkpt>
<trkpt lat="-32.233537" lon="115.80116">
<ele>-34.8</ele>
<time>2026-06-18T11:01:33.775+08:00</time>
<extensions>
<gpxtpx:TrackPointExtension>
<gpxtpx:speed>0.05</gpxtpx:speed>
</gpxtpx:TrackPointExtension>
<opentracks:accuracy_horizontal>3.397</opentracks:accuracy_horizontal></extensions>
</trkpt>
<trkpt lat="-32.233586" lon="115.801253">
<ele>-37.1</ele>
<time>2026-06-18T11:01:47.772+08:00</time>
<extensions>
<gpxtpx:TrackPointExtension>
<gpxtpx:speed>0.98</gpxtpx:speed>
</gpxtpx:TrackPointExtension>
<opentracks:accuracy_horizontal>4.293</opentracks:accuracy_horizontal></extensions>
</trkpt>
<trkpt lat="-32.233648" lon="115.80134">
<ele>-36.3</ele>
<time>2026-06-18T11:01:57.758+08:00</time>
<extensions>
<gpxtpx:TrackPointExtension>
<gpxtpx:speed>1</gpxtpx:speed>
</gpxtpx:TrackPointExtension>
<opentracks:accuracy_horizontal>4.47</opentracks:accuracy_horizontal></extensions>
</trkpt>
<trkpt lat="-32.233668" lon="115.801365">
<ele>-36.6</ele>
<time>2026-06-18T11:02:07.76+08:00</time>
<extensions>
<gpxtpx:TrackPointExtension>
<gpxtpx:speed>0.03</gpxtpx:speed>
</gpxtpx:TrackPointExtension>
<opentracks:accuracy_horizontal>3.935</opentracks:accuracy_horizontal></extensions>
</trkpt>
<trkpt lat="-32.233722" lon="115.801457">
<ele>-36.5</ele>
<time>2026-06-18T11:02:24.769+08:00</time>
<extensions>
<gpxtpx:TrackPointExtension>
<gpxtpx:speed>1.13</gpxtpx:speed>
</gpxtpx:TrackPointExtension>
<opentracks:accuracy_horizontal>4.596</opentracks:accuracy_horizontal></extensions>
</trkpt>
<trkpt lat="-32.233765" lon="115.801542">
<ele>-36.2</ele>
<time>2026-06-18T11:02:34.751+08:00</time>
<extensions>
<gpxtpx:TrackPointExtension>
<gpxtpx:speed>0.88</gpxtpx:speed>
</gpxtpx:TrackPointExtension>
<opentracks:accuracy_horizontal>4.844</opentracks:accuracy_horizontal></extensions>
</trkpt>
<trkpt lat="-32.233742" lon="115.801655">
<ele>-36.8</ele>
<time>2026-06-18T11:03:05.75+08:00</time>
<extensions>
<gpxtpx:TrackPointExtension>
<gpxtpx:speed>0.84</gpxtpx:speed>
</gpxtpx:TrackPointExtension>
<opentracks:accuracy_horizontal>5.389</opentracks:accuracy_horizontal></extensions>
</trkpt>
<trkpt lat="-32.233746" lon="115.801757">
<ele>-36.9</ele>
<time>2026-06-18T11:03:15.758+08:00</time>
<extensions>
<gpxtpx:TrackPointExtension>
<gpxtpx:speed>0.79</gpxtpx:speed>
</gpxtpx:TrackPointExtension>
<opentracks:accuracy_horizontal>4.394</opentracks:accuracy_horizontal></extensions>
</trkpt>
<trkpt lat="-32.233802" lon="115.801858">
<ele>-32.9</ele>
<time>2026-06-18T11:03:28.77+08:00</time>
<extensions>
<gpxtpx:TrackPointExtension>
<gpxtpx:speed>1.48</gpxtpx:speed>
</gpxtpx:TrackPointExtension>
<opentracks:accuracy_horizontal>4.121</opentracks:accuracy_horizontal></extensions>
</trkpt>
<trkpt lat="-32.233859" lon="115.801942">
<ele>-30.4</ele>
<time>2026-06-18T11:03:37.764+08:00</time>
<extensions>
<gpxtpx:TrackPointExtension>
<gpxtpx:speed>1.08</gpxtpx:speed>
</gpxtpx:TrackPointExtension>
<opentracks:accuracy_horizontal>3.72</opentracks:accuracy_horizontal></extensions>
</trkpt>
<trkpt lat="-32.233883" lon="115.802035">
<ele>-28</ele>
<time>2026-06-18T11:03:47.775+08:00</time>
<extensions>
<gpxtpx:TrackPointExtension>
<gpxtpx:speed>0.14</gpxtpx:speed>
</gpxtpx:TrackPointExtension>
<opentracks:accuracy_horizontal>2.896</opentracks:accuracy_horizontal></extensions>
</trkpt>
<trkpt lat="-32.23388" lon="115.802151">
<ele>-28</ele>
<time>2026-06-18T11:04:07.771+08:00</time>
<extensions>
<gpxtpx:TrackPointExtension>
<gpxtpx:speed>0.98</gpxtpx:speed>
</gpxtpx:TrackPointExtension>
<opentracks:accuracy_horizontal>3.971</opentracks:accuracy_horizontal></extensions>
</trkpt>
<trkpt lat="-32.233884" lon="115.802264">
<ele>-26.1</ele>
<time>2026-06-18T11:04:16.783+08:00</time>
<extensions>
<gpxtpx:TrackPointExtension>
<gpxtpx:speed>1.06</gpxtpx:speed>
</gpxtpx:TrackPointExtension>
<opentracks:accuracy_horizontal>4.097</opentracks:accuracy_horizontal></extensions>
</trkpt>
<trkpt lat="-32.233873" lon="115.802378">
<ele>-24.8</ele>
<time>2026-06-18T11:04:25.763+08:00</time>
<extensions>
<gpxtpx:TrackPointExtension>
<gpxtpx:speed>1.08</gpxtpx:speed>
</gpxtpx:TrackPointExtension>
<opentracks:accuracy_horizontal>3.709</opentracks:accuracy_horizontal></extensions>
</trkpt>
<trkpt lat="-32.233875" lon="115.802388">
<ele>-24.4</ele>
<time>2026-06-18T11:04:35.766+08:00</time>
<extensions>
<gpxtpx:TrackPointExtension>
<gpxtpx:speed>0.02</gpxtpx:speed>
</gpxtpx:TrackPointExtension>
<opentracks:accuracy_horizontal>2.237</opentracks:accuracy_horizontal></extensions>
</trkpt>
<trkpt lat="-32.233875" lon="115.802502">
<ele>-24.9</ele>
<time>2026-06-18T11:05:05.745+08:00</time>
<extensions>
<gpxtpx:TrackPointExtension>
<gpxtpx:speed>0.46</gpxtpx:speed>
</gpxtpx:TrackPointExtension>
<opentracks:accuracy_horizontal>3.244</opentracks:accuracy_horizontal></extensions>
</trkpt>
<trkpt lat="-32.233873" lon="115.80261">
<ele>-25.2</ele>
<time>2026-06-18T11:05:14.772+08:00</time>
<extensions>
<gpxtpx:TrackPointExtension>
<gpxtpx:speed>1.03</gpxtpx:speed>
</gpxtpx:TrackPointExtension>
<opentracks:accuracy_horizontal>3.628</opentracks:accuracy_horizontal></extensions>
</trkpt>
<trkpt lat="-32.233884" lon="115.802725">
<ele>-24.4</ele>
<time>2026-06-18T11:05:24.774+08:00</time>
<extensions>
<gpxtpx:TrackPointExtension>
<gpxtpx:speed>1.02</gpxtpx:speed>
</gpxtpx:TrackPointExtension>
<opentracks:accuracy_horizontal>3.638</opentracks:accuracy_horizontal></extensions>
</trkpt>
<trkpt lat="-32.233881" lon="115.802834">
<ele>-24.1</ele>
<time>2026-06-18T11:05:33.77+08:00</time>
<extensions>
<gpxtpx:TrackPointExtension>
<gpxtpx:speed>1.05</gpxtpx:speed>
</gpxtpx:TrackPointExtension>
<opentracks:accuracy_horizontal>3.899</opentracks:accuracy_horizontal></extensions>
</trkpt>
<trkpt lat="-32.233883" lon="115.802848">
<ele>-24.7</ele>
<time>2026-06-18T11:05:43.77+08:00</time>
<extensions>
<gpxtpx:TrackPointExtension>
<gpxtpx:speed>0.02</gpxtpx:speed>
</gpxtpx:TrackPointExtension>
<opentracks:accuracy_horizontal>2.627</opentracks:accuracy_horizontal></extensions>
</trkpt>
<trkpt lat="-32.233878" lon="115.80296">
<ele>-23.2</ele>
<time>2026-06-18T11:06:26.779+08:00</time>
<extensions>
<gpxtpx:TrackPointExtension>
<gpxtpx:speed>1.27</gpxtpx:speed>
</gpxtpx:TrackPointExtension>
<opentracks:accuracy_horizontal>3.909</opentracks:accuracy_horizontal></extensions>
</trkpt>
<trkpt lat="-32.233858" lon="115.803058">
<ele>-22.2</ele>
<time>2026-06-18T11:06:36.766+08:00</time>
<extensions>
<gpxtpx:TrackPointExtension>
<gpxtpx:speed>1.04</gpxtpx:speed>
</gpxtpx:TrackPointExtension>
<opentracks:accuracy_horizontal>3.051</opentracks:accuracy_horizontal></extensions>
</trkpt>
<trkpt lat="-32.233768" lon="115.80309">
<ele>-21.3</ele>
<time>2026-06-18T11:06:46.793+08:00</time>
<extensions>
<gpxtpx:TrackPointExtension>
<gpxtpx:speed>1.06</gpxtpx:speed>
</gpxtpx:TrackPointExtension>
<opentracks:accuracy_horizontal>3.513</opentracks:accuracy_horizontal></extensions>
</trkpt>
<trkpt lat="-32.233674" lon="115.803125">
<ele>-20.8</ele>
<time>2026-06-18T11:06:56.77+08:00</time>
<extensions>
<gpxtpx:TrackPointExtension>
<gpxtpx:speed>1.07</gpxtpx:speed>
</gpxtpx:TrackPointExtension>
<opentracks:accuracy_horizontal>3.585</opentracks:accuracy_horizontal></extensions>
</trkpt>
<trkpt lat="-32.233643" lon="115.803129">
<ele>-21.4</ele>
<time>2026-06-18T11:07:06.769+08:00</time>
<extensions>
<gpxtpx:TrackPointExtension>
<gpxtpx:speed>0.04</gpxtpx:speed>
</gpxtpx:TrackPointExtension>
<opentracks:accuracy_horizontal>2.556</opentracks:accuracy_horizontal></extensions>
</trkpt>
<trkpt lat="-32.233552" lon="115.803123">
<ele>-23.1</ele>
<time>2026-06-18T11:07:21.777+08:00</time>
<extensions>
<gpxtpx:TrackPointExtension>
<gpxtpx:speed>1.34</gpxtpx:speed>
</gpxtpx:TrackPointExtension>
<opentracks:accuracy_horizontal>4.254</opentracks:accuracy_horizontal></extensions>
</trkpt>
<trkpt lat="-32.233458" lon="115.803112">
<ele>-23.4</ele>
<time>2026-06-18T11:07:30.779+08:00</time>
<extensions>
<gpxtpx:TrackPointExtension>
<gpxtpx:speed>1.13</gpxtpx:speed>
</gpxtpx:TrackPointExtension>
<opentracks:accuracy_horizontal>3.618</opentracks:accuracy_horizontal></extensions>
</trkpt>
<trkpt lat="-32.233453" lon="115.803112">
<ele>-22.4</ele>
<time>2026-06-18T11:07:40.765+08:00</time>
<extensions>
<gpxtpx:TrackPointExtension>
<gpxtpx:speed>0.08</gpxtpx:speed>
</gpxtpx:TrackPointExtension>
<opentracks:accuracy_horizontal>2.991</opentracks:accuracy_horizontal></extensions>
</trkpt>
<trkpt lat="-32.233359" lon="115.803119">
<ele>-22.3</ele>
<time>2026-06-18T11:07:51.775+08:00</time>
<extensions>
<gpxtpx:TrackPointExtension>
<gpxtpx:speed>1.32</gpxtpx:speed>
</gpxtpx:TrackPointExtension>
<opentracks:accuracy_horizontal>3.98</opentracks:accuracy_horizontal></extensions>
</trkpt>
<trkpt lat="-32.233281" lon="115.8031">
<ele>-21.1</ele>
<time>2026-06-18T11:08:01.772+08:00</time>
<extensions>
<gpxtpx:TrackPointExtension>
<gpxtpx:speed>1.09</gpxtpx:speed>
</gpxtpx:TrackPointExtension>
<opentracks:accuracy_horizontal>3.485</opentracks:accuracy_horizontal></extensions>
</trkpt>
<trkpt lat="-32.233221" lon="115.803005">
<ele>-21.5</ele>
<time>2026-06-18T11:08:29.767+08:00</time>
<extensions>
<gpxtpx:TrackPointExtension>
<gpxtpx:speed>0.07</gpxtpx:speed>
</gpxtpx:TrackPointExtension>
<opentracks:accuracy_horizontal>5.195</opentracks:accuracy_horizontal></extensions>
</trkpt>
<trkpt lat="-32.233212" lon="115.80298">
<ele>-22.6</ele>
<time>2026-06-18T11:08:38.777+08:00</time>
<extensions>
<gpxtpx:TrackPointExtension>
<gpxtpx:speed>0.02</gpxtpx:speed>
</gpxtpx:TrackPointExtension>
<opentracks:accuracy_horizontal>3.771</opentracks:accuracy_horizontal></extensions>
</trkpt>
<trkpt lat="-32.233285" lon="115.802917">
<ele>-22.6</ele>
<time>2026-06-18T11:09:37.756+08:00</time>
<extensions>
<gpxtpx:TrackPointExtension>
<gpxtpx:speed>0.1</gpxtpx:speed>
</gpxtpx:TrackPointExtension>
<opentracks:accuracy_horizontal>6.328</opentracks:accuracy_horizontal></extensions>
</trkpt>
<trkpt lat="-32.2333" lon="115.80291">
<ele>-22.2</ele>
<time>2026-06-18T11:09:47.748+08:00</time>
<extensions>
<gpxtpx:TrackPointExtension>
<gpxtpx:speed>0.19</gpxtpx:speed>
</gpxtpx:TrackPointExtension>
<opentracks:accuracy_horizontal>4.355</opentracks:accuracy_horizontal></extensions>
</trkpt>
<trkpt lat="-32.233301" lon="115.802911">
<ele>-22</ele>
<time>2026-06-18T11:09:48.747+08:00</time>
<extensions>
<gpxtpx:TrackPointExtension>
<gpxtpx:speed>0.11</gpxtpx:speed>
</gpxtpx:TrackPointExtension>
<opentracks:accuracy_horizontal>4.204</opentracks:accuracy_horizontal></extensions>
</trkpt>
</trkseg>
</trk>
</gpx>
